<?xml version="1.0"?>
<gpx xmlns="http://www.topografix.com/GPX/1/1" xmlns:xsi="http://www.w3.org/2001/XMLSchema-instance" version="1.1" creator="AllTrails.com" xsi:schemaLocation="http://www.topografix.com/GPX/1/1 http://www.topografix.com/GPX/1/1/gpx.xsd">
  <metadata>
    <name><![CDATA[Lake Holon - Salacafe Trail]]></name>
    <desc><![CDATA[]]></desc>
    <link href="http://www.alltrails.com">
      <text>AllTrails, LLC</text>
    </link>
    <bounds minlat="6.08172" minlon="124.83224" maxlat="6.11577" maxlon="124.88267"/>
  </metadata>
  <trk>
    <name><![CDATA[Lake Holon - Salacafe Trail]]></name>
    <src>AllTrails</src>
    <trkseg>
      <trkpt lat="6.0971" lon="124.8325">
        <ele>1001.56</ele>
      </trkpt>
      <trkpt lat="6.09704" lon="124.83269">
        <ele>1001.11</ele>
      </trkpt>
      <trkpt lat="6.09699" lon="124.83267">
        <ele>1001.06</ele>
      </trkpt>
      <trkpt lat="6.09674" lon="124.83258">
        <ele>1002.68</ele>
      </trkpt>
      <trkpt lat="6.0964" lon="124.83245">
        <ele>1005.35</ele>
      </trkpt>
      <trkpt lat="6.09614" lon="124.83235">
        <ele>1000.72</ele>
      </trkpt>
      <trkpt lat="6.09586" lon="124.83224">
        <ele>1001.03</ele>
      </trkpt>
      <trkpt lat="6.09572" lon="124.83258">
        <ele>1005.88</ele>
      </trkpt>
      <trkpt lat="6.0956" lon="124.83292">
        <ele>1008.13</ele>
      </trkpt>
      <trkpt lat="6.0955" lon="124.83321">
        <ele>1011.47</ele>
      </trkpt>
      <trkpt lat="6.09545" lon="124.83338">
        <ele>1013.0</ele>
      </trkpt>
      <trkpt lat="6.09542" lon="124.8335">
        <ele>1014.25</ele>
      </trkpt>
      <trkpt lat="6.09541" lon="124.8336">
        <ele>1015.77</ele>
      </trkpt>
      <trkpt lat="6.0954" lon="124.8337">
        <ele>1015.94</ele>
      </trkpt>
      <trkpt lat="6.09539" lon="124.8339">
        <ele>1016.0</ele>
      </trkpt>
      <trkpt lat="6.09539" lon="124.83404">
        <ele>1018.11</ele>
      </trkpt>
      <trkpt lat="6.09539" lon="124.83432">
        <ele>1020.02</ele>
      </trkpt>
      <trkpt lat="6.09538" lon="124.83456">
        <ele>1019.36</ele>
      </trkpt>
      <trkpt lat="6.09538" lon="124.83465">
        <ele>1018.98</ele>
      </trkpt>
      <trkpt lat="6.09538" lon="124.83481">
        <ele>1020.11</ele>
      </trkpt>
      <trkpt lat="6.09537" lon="124.83507">
        <ele>1022.74</ele>
      </trkpt>
      <trkpt lat="6.09535" lon="124.8352">
        <ele>1021.84</ele>
      </trkpt>
      <trkpt lat="6.09531" lon="124.83532">
        <ele>1021.25</ele>
      </trkpt>
      <trkpt lat="6.09529" lon="124.83538">
        <ele>1021.69</ele>
      </trkpt>
      <trkpt lat="6.09526" lon="124.83543">
        <ele>1021.7</ele>
      </trkpt>
      <trkpt lat="6.0952" lon="124.83551">
        <ele>1020.77</ele>
      </trkpt>
      <trkpt lat="6.09514" lon="124.83558">
        <ele>1019.3</ele>
      </trkpt>
      <trkpt lat="6.09505" lon="124.83568">
        <ele>1017.43</ele>
      </trkpt>
      <trkpt lat="6.09499" lon="124.83577">
        <ele>1016.74</ele>
      </trkpt>
      <trkpt lat="6.09489" lon="124.83594">
        <ele>1016.11</ele>
      </trkpt>
      <trkpt lat="6.09482" lon="124.83606">
        <ele>1016.13</ele>
      </trkpt>
      <trkpt lat="6.09479" lon="124.83613">
        <ele>1016.81</ele>
      </trkpt>
      <trkpt lat="6.09478" lon="124.83618">
        <ele>1018.19</ele>
      </trkpt>
      <trkpt lat="6.09477" lon="124.83623">
        <ele>1019.67</ele>
      </trkpt>
      <trkpt lat="6.09478" lon="124.83633">
        <ele>1023.23</ele>
      </trkpt>
      <trkpt lat="6.09478" lon="124.83639">
        <ele>1025.2</ele>
      </trkpt>
      <trkpt lat="6.09479" lon="124.8365">
        <ele>1024.75</ele>
      </trkpt>
      <trkpt lat="6.0948" lon="124.83662">
        <ele>1024.22</ele>
      </trkpt>
      <trkpt lat="6.0948" lon="124.83674">
        <ele>1024.31</ele>
      </trkpt>
      <trkpt lat="6.09478" lon="124.83682">
        <ele>1024.76</ele>
      </trkpt>
      <trkpt lat="6.09476" lon="124.83688">
        <ele>1025.22</ele>
      </trkpt>
      <trkpt lat="6.09467" lon="124.83709">
        <ele>1028.28</ele>
      </trkpt>
      <trkpt lat="6.0946" lon="124.83725">
        <ele>1030.0</ele>
      </trkpt>
      <trkpt lat="6.09457" lon="124.83738">
        <ele>1032.43</ele>
      </trkpt>
      <trkpt lat="6.09456" lon="124.83748">
        <ele>1034.61</ele>
      </trkpt>
      <trkpt lat="6.09457" lon="124.83768">
        <ele>1038.62</ele>
      </trkpt>
      <trkpt lat="6.09457" lon="124.83787">
        <ele>1038.88</ele>
      </trkpt>
      <trkpt lat="6.09454" lon="124.83814">
        <ele>1034.66</ele>
      </trkpt>
      <trkpt lat="6.09447" lon="124.8385">
        <ele>1033.99</ele>
      </trkpt>
      <trkpt lat="6.09446" lon="124.83911">
        <ele>1033.58</ele>
      </trkpt>
      <trkpt lat="6.09444" lon="124.83954">
        <ele>1029.67</ele>
      </trkpt>
      <trkpt lat="6.09435" lon="124.83992">
        <ele>1031.9</ele>
      </trkpt>
      <trkpt lat="6.09428" lon="124.84048">
        <ele>1042.32</ele>
      </trkpt>
      <trkpt lat="6.09428" lon="124.84091">
        <ele>1043.84</ele>
      </trkpt>
      <trkpt lat="6.09428" lon="124.84098">
        <ele>1044.4</ele>
      </trkpt>
      <trkpt lat="6.09427" lon="124.84106">
        <ele>1044.84</ele>
      </trkpt>
      <trkpt lat="6.09426" lon="124.84117">
        <ele>1045.23</ele>
      </trkpt>
      <trkpt lat="6.09424" lon="124.84129">
        <ele>1045.09</ele>
      </trkpt>
      <trkpt lat="6.09422" lon="124.84164">
        <ele>1048.0</ele>
      </trkpt>
      <trkpt lat="6.0942" lon="124.84183">
        <ele>1049.89</ele>
      </trkpt>
      <trkpt lat="6.09418" lon="124.84203">
        <ele>1051.45</ele>
      </trkpt>
      <trkpt lat="6.09416" lon="124.84233">
        <ele>1056.72</ele>
      </trkpt>
      <trkpt lat="6.09415" lon="124.84254">
        <ele>1063.4</ele>
      </trkpt>
      <trkpt lat="6.09414" lon="124.84274">
        <ele>1068.07</ele>
      </trkpt>
      <trkpt lat="6.09406" lon="124.84336">
        <ele>1073.27</ele>
      </trkpt>
      <trkpt lat="6.09391" lon="124.84398">
        <ele>1084.65</ele>
      </trkpt>
      <trkpt lat="6.09382" lon="124.84437">
        <ele>1085.44</ele>
      </trkpt>
      <trkpt lat="6.09378" lon="124.84462">
        <ele>1083.73</ele>
      </trkpt>
      <trkpt lat="6.09376" lon="124.84486">
        <ele>1078.25</ele>
      </trkpt>
      <trkpt lat="6.09377" lon="124.84501">
        <ele>1074.23</ele>
      </trkpt>
      <trkpt lat="6.09384" lon="124.84547">
        <ele>1072.13</ele>
      </trkpt>
      <trkpt lat="6.09388" lon="124.84573">
        <ele>1072.48</ele>
      </trkpt>
      <trkpt lat="6.09391" lon="124.84603">
        <ele>1077.7</ele>
      </trkpt>
      <trkpt lat="6.09392" lon="124.8462">
        <ele>1079.04</ele>
      </trkpt>
      <trkpt lat="6.09391" lon="124.84643">
        <ele>1076.74</ele>
      </trkpt>
      <trkpt lat="6.09391" lon="124.8466">
        <ele>1075.1</ele>
      </trkpt>
      <trkpt lat="6.09394" lon="124.84673">
        <ele>1075.64</ele>
      </trkpt>
      <trkpt lat="6.09397" lon="124.84681">
        <ele>1077.09</ele>
      </trkpt>
      <trkpt lat="6.09399" lon="124.84686">
        <ele>1078.08</ele>
      </trkpt>
      <trkpt lat="6.094" lon="124.84689">
        <ele>1078.65</ele>
      </trkpt>
      <trkpt lat="6.094" lon="124.84692">
        <ele>1078.95</ele>
      </trkpt>
      <trkpt lat="6.09399" lon="124.84694">
        <ele>1078.87</ele>
      </trkpt>
      <trkpt lat="6.09398" lon="124.84701">
        <ele>1079.49</ele>
      </trkpt>
      <trkpt lat="6.09397" lon="124.84704">
        <ele>1079.57</ele>
      </trkpt>
      <trkpt lat="6.09397" lon="124.84707">
        <ele>1079.96</ele>
      </trkpt>
      <trkpt lat="6.09397" lon="124.84711">
        <ele>1080.47</ele>
      </trkpt>
      <trkpt lat="6.09397" lon="124.84717">
        <ele>1081.25</ele>
      </trkpt>
      <trkpt lat="6.094" lon="124.84733">
        <ele>1084.24</ele>
      </trkpt>
      <trkpt lat="6.09401" lon="124.84748">
        <ele>1086.43</ele>
      </trkpt>
      <trkpt lat="6.09401" lon="124.84764">
        <ele>1085.85</ele>
      </trkpt>
      <trkpt lat="6.09399" lon="124.84787">
        <ele>1084.88</ele>
      </trkpt>
      <trkpt lat="6.09399" lon="124.84797">
        <ele>1085.24</ele>
      </trkpt>
      <trkpt lat="6.09401" lon="124.84806">
        <ele>1086.03</ele>
      </trkpt>
      <trkpt lat="6.0941" lon="124.84837">
        <ele>1088.77</ele>
      </trkpt>
      <trkpt lat="6.0941" lon="124.84844">
        <ele>1090.54</ele>
      </trkpt>
      <trkpt lat="6.09409" lon="124.84849">
        <ele>1091.41</ele>
      </trkpt>
      <trkpt lat="6.09407" lon="124.84859">
        <ele>1092.97</ele>
      </trkpt>
      <trkpt lat="6.09403" lon="124.84866">
        <ele>1091.78</ele>
      </trkpt>
      <trkpt lat="6.09388" lon="124.84886">
        <ele>1085.0</ele>
      </trkpt>
      <trkpt lat="6.09368" lon="124.84903">
        <ele>1083.73</ele>
      </trkpt>
      <trkpt lat="6.09362" lon="124.84909">
        <ele>1082.87</ele>
      </trkpt>
      <trkpt lat="6.09357" lon="124.84918">
        <ele>1082.29</ele>
      </trkpt>
      <trkpt lat="6.0935" lon="124.84934">
        <ele>1080.83</ele>
      </trkpt>
      <trkpt lat="6.0934" lon="124.84951">
        <ele>1081.17</ele>
      </trkpt>
      <trkpt lat="6.09332" lon="124.84967">
        <ele>1084.1</ele>
      </trkpt>
      <trkpt lat="6.09327" lon="124.84981">
        <ele>1085.69</ele>
      </trkpt>
      <trkpt lat="6.09308" lon="124.85028">
        <ele>1094.73</ele>
      </trkpt>
      <trkpt lat="6.09304" lon="124.8504">
        <ele>1094.57</ele>
      </trkpt>
      <trkpt lat="6.09299" lon="124.85051">
        <ele>1094.01</ele>
      </trkpt>
      <trkpt lat="6.09291" lon="124.85061">
        <ele>1092.83</ele>
      </trkpt>
      <trkpt lat="6.0928" lon="124.8507">
        <ele>1093.23</ele>
      </trkpt>
      <trkpt lat="6.09269" lon="124.85083">
        <ele>1094.64</ele>
      </trkpt>
      <trkpt lat="6.09263" lon="124.85091">
        <ele>1095.23</ele>
      </trkpt>
      <trkpt lat="6.09258" lon="124.85101">
        <ele>1096.15</ele>
      </trkpt>
      <trkpt lat="6.09251" lon="124.85117">
        <ele>1098.68</ele>
      </trkpt>
      <trkpt lat="6.09242" lon="124.85134">
        <ele>1101.75</ele>
      </trkpt>
      <trkpt lat="6.09232" lon="124.85148">
        <ele>1102.67</ele>
      </trkpt>
      <trkpt lat="6.09218" lon="124.85163">
        <ele>1102.99</ele>
      </trkpt>
      <trkpt lat="6.09215" lon="124.8517">
        <ele>1103.48</ele>
      </trkpt>
      <trkpt lat="6.09213" lon="124.85177">
        <ele>1104.49</ele>
      </trkpt>
      <trkpt lat="6.09209" lon="124.85193">
        <ele>1106.79</ele>
      </trkpt>
      <trkpt lat="6.09206" lon="124.852">
        <ele>1107.37</ele>
      </trkpt>
      <trkpt lat="6.09202" lon="124.85205">
        <ele>1107.59</ele>
      </trkpt>
      <trkpt lat="6.09199" lon="124.85207">
        <ele>1107.6</ele>
      </trkpt>
      <trkpt lat="6.09196" lon="124.85209">
        <ele>1107.58</ele>
      </trkpt>
      <trkpt lat="6.09191" lon="124.8521">
        <ele>1108.09</ele>
      </trkpt>
      <trkpt lat="6.09185" lon="124.85211">
        <ele>1109.09</ele>
      </trkpt>
      <trkpt lat="6.09179" lon="124.85212">
        <ele>1110.15</ele>
      </trkpt>
      <trkpt lat="6.09174" lon="124.85215">
        <ele>1111.39</ele>
      </trkpt>
      <trkpt lat="6.09166" lon="124.85219">
        <ele>1113.45</ele>
      </trkpt>
      <trkpt lat="6.09155" lon="124.85227">
        <ele>1114.2</ele>
      </trkpt>
      <trkpt lat="6.09146" lon="124.85235">
        <ele>1114.24</ele>
      </trkpt>
      <trkpt lat="6.09129" lon="124.85257">
        <ele>1115.87</ele>
      </trkpt>
      <trkpt lat="6.09121" lon="124.85268">
        <ele>1118.53</ele>
      </trkpt>
      <trkpt lat="6.09113" lon="124.85278">
        <ele>1120.93</ele>
      </trkpt>
      <trkpt lat="6.09105" lon="124.85285">
        <ele>1121.33</ele>
      </trkpt>
      <trkpt lat="6.09095" lon="124.85291">
        <ele>1121.61</ele>
      </trkpt>
      <trkpt lat="6.09085" lon="124.85298">
        <ele>1121.51</ele>
      </trkpt>
      <trkpt lat="6.09074" lon="124.85312">
        <ele>1121.75</ele>
      </trkpt>
      <trkpt lat="6.09063" lon="124.85323">
        <ele>1122.17</ele>
      </trkpt>
      <trkpt lat="6.09054" lon="124.85337">
        <ele>1122.2</ele>
      </trkpt>
      <trkpt lat="6.09042" lon="124.85367">
        <ele>1122.18</ele>
      </trkpt>
      <trkpt lat="6.09037" lon="124.85378">
        <ele>1121.25</ele>
      </trkpt>
      <trkpt lat="6.09033" lon="124.85386">
        <ele>1120.07</ele>
      </trkpt>
      <trkpt lat="6.09019" lon="124.854">
        <ele>1120.89</ele>
      </trkpt>
      <trkpt lat="6.08993" lon="124.8542">
        <ele>1123.89</ele>
      </trkpt>
      <trkpt lat="6.08976" lon="124.85434">
        <ele>1131.29</ele>
      </trkpt>
      <trkpt lat="6.0896" lon="124.85447">
        <ele>1135.49</ele>
      </trkpt>
      <trkpt lat="6.08922" lon="124.85481">
        <ele>1144.36</ele>
      </trkpt>
      <trkpt lat="6.08907" lon="124.85497">
        <ele>1148.94</ele>
      </trkpt>
      <trkpt lat="6.089" lon="124.85504">
        <ele>1150.71</ele>
      </trkpt>
      <trkpt lat="6.08894" lon="124.85513">
        <ele>1152.65</ele>
      </trkpt>
      <trkpt lat="6.08889" lon="124.85523">
        <ele>1154.78</ele>
      </trkpt>
      <trkpt lat="6.08883" lon="124.85535">
        <ele>1160.39</ele>
      </trkpt>
      <trkpt lat="6.08877" lon="124.85543">
        <ele>1164.75</ele>
      </trkpt>
      <trkpt lat="6.08869" lon="124.85549">
        <ele>1168.08</ele>
      </trkpt>
      <trkpt lat="6.08851" lon="124.8556">
        <ele>1171.81</ele>
      </trkpt>
      <trkpt lat="6.08844" lon="124.85565">
        <ele>1171.91</ele>
      </trkpt>
      <trkpt lat="6.0884" lon="124.85569">
        <ele>1171.24</ele>
      </trkpt>
      <trkpt lat="6.08815" lon="124.85596">
        <ele>1172.97</ele>
      </trkpt>
      <trkpt lat="6.088" lon="124.85611">
        <ele>1176.21</ele>
      </trkpt>
      <trkpt lat="6.0879" lon="124.85618">
        <ele>1177.06</ele>
      </trkpt>
      <trkpt lat="6.08778" lon="124.85624">
        <ele>1177.72</ele>
      </trkpt>
      <trkpt lat="6.08767" lon="124.85626">
        <ele>1178.92</ele>
      </trkpt>
      <trkpt lat="6.08744" lon="124.8563">
        <ele>1180.99</ele>
      </trkpt>
      <trkpt lat="6.08732" lon="124.85634">
        <ele>1181.47</ele>
      </trkpt>
      <trkpt lat="6.08724" lon="124.85639">
        <ele>1180.63</ele>
      </trkpt>
      <trkpt lat="6.08692" lon="124.85655">
        <ele>1176.6</ele>
      </trkpt>
      <trkpt lat="6.0867" lon="124.85663">
        <ele>1174.74</ele>
      </trkpt>
      <trkpt lat="6.08656" lon="124.85663">
        <ele>1175.5</ele>
      </trkpt>
      <trkpt lat="6.08645" lon="124.85661">
        <ele>1177.04</ele>
      </trkpt>
      <trkpt lat="6.08617" lon="124.85651">
        <ele>1184.16</ele>
      </trkpt>
      <trkpt lat="6.08607" lon="124.8565">
        <ele>1185.15</ele>
      </trkpt>
      <trkpt lat="6.08598" lon="124.85651">
        <ele>1184.93</ele>
      </trkpt>
      <trkpt lat="6.0859" lon="124.85652">
        <ele>1184.68</ele>
      </trkpt>
      <trkpt lat="6.08583" lon="124.85655">
        <ele>1183.38</ele>
      </trkpt>
      <trkpt lat="6.08571" lon="124.85663">
        <ele>1182.03</ele>
      </trkpt>
      <trkpt lat="6.08564" lon="124.85669">
        <ele>1182.15</ele>
      </trkpt>
      <trkpt lat="6.08559" lon="124.85674">
        <ele>1183.96</ele>
      </trkpt>
      <trkpt lat="6.08549" lon="124.85686">
        <ele>1187.58</ele>
      </trkpt>
      <trkpt lat="6.0853" lon="124.85718">
        <ele>1194.28</ele>
      </trkpt>
      <trkpt lat="6.08525" lon="124.85725">
        <ele>1195.88</ele>
      </trkpt>
      <trkpt lat="6.08519" lon="124.8573">
        <ele>1197.56</ele>
      </trkpt>
      <trkpt lat="6.08513" lon="124.85733">
        <ele>1198.94</ele>
      </trkpt>
      <trkpt lat="6.08487" lon="124.85756">
        <ele>1204.62</ele>
      </trkpt>
      <trkpt lat="6.08472" lon="124.85776">
        <ele>1209.78</ele>
      </trkpt>
      <trkpt lat="6.08459" lon="124.85797">
        <ele>1214.31</ele>
      </trkpt>
      <trkpt lat="6.08441" lon="124.85825">
        <ele>1220.68</ele>
      </trkpt>
      <trkpt lat="6.08435" lon="124.85841">
        <ele>1223.99</ele>
      </trkpt>
      <trkpt lat="6.08431" lon="124.85851">
        <ele>1226.29</ele>
      </trkpt>
      <trkpt lat="6.08429" lon="124.85859">
        <ele>1227.89</ele>
      </trkpt>
      <trkpt lat="6.08429" lon="124.85874">
        <ele>1230.49</ele>
      </trkpt>
      <trkpt lat="6.08429" lon="124.85889">
        <ele>1233.13</ele>
      </trkpt>
      <trkpt lat="6.0843" lon="124.85895">
        <ele>1234.03</ele>
      </trkpt>
      <trkpt lat="6.08435" lon="124.85905">
        <ele>1235.38</ele>
      </trkpt>
      <trkpt lat="6.08439" lon="124.85912">
        <ele>1236.39</ele>
      </trkpt>
      <trkpt lat="6.08442" lon="124.85921">
        <ele>1237.54</ele>
      </trkpt>
      <trkpt lat="6.08443" lon="124.85925">
        <ele>1237.94</ele>
      </trkpt>
      <trkpt lat="6.08442" lon="124.85928">
        <ele>1238.28</ele>
      </trkpt>
      <trkpt lat="6.08441" lon="124.85931">
        <ele>1238.61</ele>
      </trkpt>
      <trkpt lat="6.08425" lon="124.85944">
        <ele>1239.96</ele>
      </trkpt>
      <trkpt lat="6.08415" lon="124.85953">
        <ele>1240.68</ele>
      </trkpt>
      <trkpt lat="6.08406" lon="124.85963">
        <ele>1241.72</ele>
      </trkpt>
      <trkpt lat="6.0839" lon="124.85984">
        <ele>1243.81</ele>
      </trkpt>
      <trkpt lat="6.08373" lon="124.86">
        <ele>1245.0</ele>
      </trkpt>
      <trkpt lat="6.08366" lon="124.86004">
        <ele>1245.86</ele>
      </trkpt>
      <trkpt lat="6.08359" lon="124.86006">
        <ele>1246.36</ele>
      </trkpt>
      <trkpt lat="6.0835" lon="124.86005">
        <ele>1246.41</ele>
      </trkpt>
      <trkpt lat="6.0831" lon="124.85995">
        <ele>1247.35</ele>
      </trkpt>
      <trkpt lat="6.08303" lon="124.85993">
        <ele>1247.66</ele>
      </trkpt>
      <trkpt lat="6.08297" lon="124.85992">
        <ele>1247.95</ele>
      </trkpt>
      <trkpt lat="6.08283" lon="124.8599">
        <ele>1248.61</ele>
      </trkpt>
      <trkpt lat="6.08271" lon="124.85991">
        <ele>1249.44</ele>
      </trkpt>
      <trkpt lat="6.08261" lon="124.85995">
        <ele>1250.56</ele>
      </trkpt>
      <trkpt lat="6.08239" lon="124.86006">
        <ele>1253.04</ele>
      </trkpt>
      <trkpt lat="6.08223" lon="124.86013">
        <ele>1254.38</ele>
      </trkpt>
      <trkpt lat="6.08188" lon="124.86028">
        <ele>1257.01</ele>
      </trkpt>
      <trkpt lat="6.08181" lon="124.86031">
        <ele>1257.17</ele>
      </trkpt>
      <trkpt lat="6.0819" lon="124.86036">
        <ele>1257.34</ele>
      </trkpt>
      <trkpt lat="6.08188" lon="124.86052">
        <ele>1258.07</ele>
      </trkpt>
      <trkpt lat="6.08187" lon="124.86062">
        <ele>1258.67</ele>
      </trkpt>
      <trkpt lat="6.08187" lon="124.86067">
        <ele>1258.98</ele>
      </trkpt>
      <trkpt lat="6.08186" lon="124.86075">
        <ele>1259.49</ele>
      </trkpt>
      <trkpt lat="6.08183" lon="124.8609">
        <ele>1260.96</ele>
      </trkpt>
      <trkpt lat="6.08177" lon="124.86119">
        <ele>1264.85</ele>
      </trkpt>
      <trkpt lat="6.08172" lon="124.86142">
        <ele>1267.43</ele>
      </trkpt>
      <trkpt lat="6.08179" lon="124.86149">
        <ele>1268.29</ele>
      </trkpt>
      <trkpt lat="6.0819" lon="124.86163">
        <ele>1269.74</ele>
      </trkpt>
      <trkpt lat="6.082" lon="124.86179">
        <ele>1263.96</ele>
      </trkpt>
      <trkpt lat="6.0821" lon="124.86197">
        <ele>1252.81</ele>
      </trkpt>
      <trkpt lat="6.08219" lon="124.86212">
        <ele>1245.46</ele>
      </trkpt>
      <trkpt lat="6.08229" lon="124.86232">
        <ele>1240.16</ele>
      </trkpt>
      <trkpt lat="6.08241" lon="124.86255">
        <ele>1236.69</ele>
      </trkpt>
      <trkpt lat="6.08245" lon="124.86264">
        <ele>1236.23</ele>
      </trkpt>
      <trkpt lat="6.0825" lon="124.86269">
        <ele>1235.79</ele>
      </trkpt>
      <trkpt lat="6.08255" lon="124.86279">
        <ele>1240.87</ele>
      </trkpt>
      <trkpt lat="6.08262" lon="124.86286">
        <ele>1247.58</ele>
      </trkpt>
      <trkpt lat="6.08269" lon="124.86291">
        <ele>1252.67</ele>
      </trkpt>
      <trkpt lat="6.08277" lon="124.86294">
        <ele>1256.75</ele>
      </trkpt>
      <trkpt lat="6.08284" lon="124.86298">
        <ele>1260.41</ele>
      </trkpt>
      <trkpt lat="6.08289" lon="124.86302">
        <ele>1263.59</ele>
      </trkpt>
      <trkpt lat="6.08295" lon="124.8631">
        <ele>1269.38</ele>
      </trkpt>
      <trkpt lat="6.08303" lon="124.86331">
        <ele>1284.41</ele>
      </trkpt>
      <trkpt lat="6.0831" lon="124.86342">
        <ele>1288.55</ele>
      </trkpt>
      <trkpt lat="6.08314" lon="124.86346">
        <ele>1289.13</ele>
      </trkpt>
      <trkpt lat="6.08319" lon="124.86348">
        <ele>1289.2</ele>
      </trkpt>
      <trkpt lat="6.08335" lon="124.86355">
        <ele>1289.64</ele>
      </trkpt>
      <trkpt lat="6.08367" lon="124.86371">
        <ele>1293.69</ele>
      </trkpt>
      <trkpt lat="6.08372" lon="124.86376">
        <ele>1294.91</ele>
      </trkpt>
      <trkpt lat="6.08375" lon="124.86382">
        <ele>1296.14</ele>
      </trkpt>
      <trkpt lat="6.08378" lon="124.8639">
        <ele>1297.7</ele>
      </trkpt>
      <trkpt lat="6.0838" lon="124.86395">
        <ele>1299.1</ele>
      </trkpt>
      <trkpt lat="6.08409" lon="124.86418">
        <ele>1309.25</ele>
      </trkpt>
      <trkpt lat="6.08426" lon="124.86427">
        <ele>1310.16</ele>
      </trkpt>
      <trkpt lat="6.08432" lon="124.86431">
        <ele>1310.25</ele>
      </trkpt>
      <trkpt lat="6.08436" lon="124.86436">
        <ele>1310.48</ele>
      </trkpt>
      <trkpt lat="6.08468" lon="124.86494">
        <ele>1319.71</ele>
      </trkpt>
      <trkpt lat="6.08485" lon="124.86518">
        <ele>1319.76</ele>
      </trkpt>
      <trkpt lat="6.08488" lon="124.86523">
        <ele>1320.1</ele>
      </trkpt>
      <trkpt lat="6.0849" lon="124.86529">
        <ele>1320.73</ele>
      </trkpt>
      <trkpt lat="6.08495" lon="124.8659">
        <ele>1334.18</ele>
      </trkpt>
      <trkpt lat="6.085" lon="124.86621">
        <ele>1341.2</ele>
      </trkpt>
      <trkpt lat="6.08507" lon="124.86638">
        <ele>1347.74</ele>
      </trkpt>
      <trkpt lat="6.08513" lon="124.86646">
        <ele>1348.48</ele>
      </trkpt>
      <trkpt lat="6.08523" lon="124.86654">
        <ele>1349.67</ele>
      </trkpt>
      <trkpt lat="6.08526" lon="124.86662">
        <ele>1349.86</ele>
      </trkpt>
      <trkpt lat="6.08533" lon="124.86685">
        <ele>1344.62</ele>
      </trkpt>
      <trkpt lat="6.08535" lon="124.86697">
        <ele>1343.0</ele>
      </trkpt>
      <trkpt lat="6.08533" lon="124.86709">
        <ele>1344.16</ele>
      </trkpt>
      <trkpt lat="6.08533" lon="124.86727">
        <ele>1345.24</ele>
      </trkpt>
      <trkpt lat="6.08537" lon="124.86744">
        <ele>1345.14</ele>
      </trkpt>
      <trkpt lat="6.08543" lon="124.86758">
        <ele>1344.28</ele>
      </trkpt>
      <trkpt lat="6.08566" lon="124.86813">
        <ele>1337.53</ele>
      </trkpt>
      <trkpt lat="6.08576" lon="124.86823">
        <ele>1340.05</ele>
      </trkpt>
      <trkpt lat="6.08587" lon="124.8684">
        <ele>1343.07</ele>
      </trkpt>
      <trkpt lat="6.0859" lon="124.86855">
        <ele>1345.66</ele>
      </trkpt>
      <trkpt lat="6.08588" lon="124.86879">
        <ele>1350.7</ele>
      </trkpt>
      <trkpt lat="6.08588" lon="124.86896">
        <ele>1354.54</ele>
      </trkpt>
      <trkpt lat="6.08594" lon="124.86913">
        <ele>1358.03</ele>
      </trkpt>
      <trkpt lat="6.08607" lon="124.86938">
        <ele>1364.44</ele>
      </trkpt>
      <trkpt lat="6.08618" lon="124.86951">
        <ele>1370.01</ele>
      </trkpt>
      <trkpt lat="6.08629" lon="124.86959">
        <ele>1373.74</ele>
      </trkpt>
      <trkpt lat="6.08634" lon="124.86961">
        <ele>1374.91</ele>
      </trkpt>
      <trkpt lat="6.08639" lon="124.86961">
        <ele>1375.57</ele>
      </trkpt>
      <trkpt lat="6.08641" lon="124.86963">
        <ele>1375.93</ele>
      </trkpt>
      <trkpt lat="6.08641" lon="124.86963">
        <ele>1375.93</ele>
      </trkpt>
      <trkpt lat="6.08641" lon="124.86963">
        <ele>1375.93</ele>
      </trkpt>
      <trkpt lat="6.08641" lon="124.86973">
        <ele>1378.12</ele>
      </trkpt>
      <trkpt lat="6.0864" lon="124.86987">
        <ele>1381.66</ele>
      </trkpt>
      <trkpt lat="6.08639" lon="124.86993">
        <ele>1383.23</ele>
      </trkpt>
      <trkpt lat="6.08635" lon="124.86993">
        <ele>1382.82</ele>
      </trkpt>
      <trkpt lat="6.0863" lon="124.86991">
        <ele>1381.77</ele>
      </trkpt>
      <trkpt lat="6.08625" lon="124.86989">
        <ele>1380.73</ele>
      </trkpt>
      <trkpt lat="6.08619" lon="124.86992">
        <ele>1380.84</ele>
      </trkpt>
      <trkpt lat="6.08611" lon="124.86999">
        <ele>1381.75</ele>
      </trkpt>
      <trkpt lat="6.0861" lon="124.87005">
        <ele>1383.58</ele>
      </trkpt>
      <trkpt lat="6.08611" lon="124.87008">
        <ele>1384.59</ele>
      </trkpt>
      <trkpt lat="6.0861" lon="124.87025">
        <ele>1389.88</ele>
      </trkpt>
      <trkpt lat="6.08611" lon="124.87032">
        <ele>1391.59</ele>
      </trkpt>
      <trkpt lat="6.08615" lon="124.87041">
        <ele>1392.9</ele>
      </trkpt>
      <trkpt lat="6.08628" lon="124.87057">
        <ele>1395.85</ele>
      </trkpt>
      <trkpt lat="6.08647" lon="124.87076">
        <ele>1400.11</ele>
      </trkpt>
      <trkpt lat="6.08661" lon="124.87094">
        <ele>1406.35</ele>
      </trkpt>
      <trkpt lat="6.08665" lon="124.871">
        <ele>1408.84</ele>
      </trkpt>
      <trkpt lat="6.08669" lon="124.87102">
        <ele>1408.4</ele>
      </trkpt>
      <trkpt lat="6.08675" lon="124.87104">
        <ele>1405.79</ele>
      </trkpt>
      <trkpt lat="6.08681" lon="124.87106">
        <ele>1403.23</ele>
      </trkpt>
      <trkpt lat="6.08688" lon="124.8711">
        <ele>1401.02</ele>
      </trkpt>
      <trkpt lat="6.08698" lon="124.87122">
        <ele>1400.31</ele>
      </trkpt>
      <trkpt lat="6.08705" lon="124.87133">
        <ele>1400.89</ele>
      </trkpt>
      <trkpt lat="6.08712" lon="124.87146">
        <ele>1402.5</ele>
      </trkpt>
      <trkpt lat="6.08717" lon="124.87158">
        <ele>1404.95</ele>
      </trkpt>
      <trkpt lat="6.08723" lon="124.8718">
        <ele>1407.05</ele>
      </trkpt>
      <trkpt lat="6.08726" lon="124.87202">
        <ele>1407.95</ele>
      </trkpt>
      <trkpt lat="6.0873" lon="124.87214">
        <ele>1407.39</ele>
      </trkpt>
      <trkpt lat="6.08733" lon="124.87218">
        <ele>1406.44</ele>
      </trkpt>
      <trkpt lat="6.08737" lon="124.87222">
        <ele>1405.06</ele>
      </trkpt>
      <trkpt lat="6.08741" lon="124.87227">
        <ele>1403.78</ele>
      </trkpt>
      <trkpt lat="6.08748" lon="124.87243">
        <ele>1402.23</ele>
      </trkpt>
      <trkpt lat="6.08752" lon="124.87247">
        <ele>1400.38</ele>
      </trkpt>
      <trkpt lat="6.08753" lon="124.8725">
        <ele>1400.06</ele>
      </trkpt>
      <trkpt lat="6.08754" lon="124.87255">
        <ele>1398.95</ele>
      </trkpt>
      <trkpt lat="6.08752" lon="124.87259">
        <ele>1399.8</ele>
      </trkpt>
      <trkpt lat="6.08749" lon="124.87261">
        <ele>1401.32</ele>
      </trkpt>
      <trkpt lat="6.08748" lon="124.87264">
        <ele>1401.5</ele>
      </trkpt>
      <trkpt lat="6.08749" lon="124.87269">
        <ele>1400.45</ele>
      </trkpt>
      <trkpt lat="6.08752" lon="124.87273">
        <ele>1398.4</ele>
      </trkpt>
      <trkpt lat="6.08757" lon="124.87276">
        <ele>1395.36</ele>
      </trkpt>
      <trkpt lat="6.08761" lon="124.87282">
        <ele>1392.88</ele>
      </trkpt>
      <trkpt lat="6.08767" lon="124.87296">
        <ele>1389.31</ele>
      </trkpt>
      <trkpt lat="6.0877" lon="124.87304">
        <ele>1387.67</ele>
      </trkpt>
      <trkpt lat="6.08769" lon="124.87314">
        <ele>1388.03</ele>
      </trkpt>
      <trkpt lat="6.08766" lon="124.87325">
        <ele>1389.02</ele>
      </trkpt>
      <trkpt lat="6.08764" lon="124.87336">
        <ele>1389.61</ele>
      </trkpt>
      <trkpt lat="6.08767" lon="124.87352">
        <ele>1389.58</ele>
      </trkpt>
      <trkpt lat="6.08767" lon="124.87368">
        <ele>1390.5</ele>
      </trkpt>
      <trkpt lat="6.08769" lon="124.87375">
        <ele>1390.37</ele>
      </trkpt>
      <trkpt lat="6.08773" lon="124.87378">
        <ele>1389.49</ele>
      </trkpt>
      <trkpt lat="6.0878" lon="124.8738">
        <ele>1387.77</ele>
      </trkpt>
      <trkpt lat="6.08785" lon="124.87381">
        <ele>1386.54</ele>
      </trkpt>
      <trkpt lat="6.08791" lon="124.87383">
        <ele>1385.14</ele>
      </trkpt>
      <trkpt lat="6.08795" lon="124.87385">
        <ele>1384.29</ele>
      </trkpt>
      <trkpt lat="6.08797" lon="124.87391">
        <ele>1384.36</ele>
      </trkpt>
      <trkpt lat="6.08798" lon="124.87399">
        <ele>1384.9</ele>
      </trkpt>
      <trkpt lat="6.08796" lon="124.87407">
        <ele>1386.14</ele>
      </trkpt>
      <trkpt lat="6.08799" lon="124.87411">
        <ele>1385.85</ele>
      </trkpt>
      <trkpt lat="6.08804" lon="124.87414">
        <ele>1385.05</ele>
      </trkpt>
      <trkpt lat="6.08818" lon="124.87418">
        <ele>1382.42</ele>
      </trkpt>
      <trkpt lat="6.08822" lon="124.87422">
        <ele>1381.76</ele>
      </trkpt>
      <trkpt lat="6.08825" lon="124.87426">
        <ele>1381.2</ele>
      </trkpt>
      <trkpt lat="6.08827" lon="124.8743">
        <ele>1380.81</ele>
      </trkpt>
      <trkpt lat="6.08827" lon="124.87436">
        <ele>1381.0</ele>
      </trkpt>
      <trkpt lat="6.0883" lon="124.87441">
        <ele>1380.14</ele>
      </trkpt>
      <trkpt lat="6.0883" lon="124.87443">
        <ele>1380.18</ele>
      </trkpt>
      <trkpt lat="6.0883" lon="124.87446">
        <ele>1380.27</ele>
      </trkpt>
      <trkpt lat="6.08826" lon="124.8745">
        <ele>1381.95</ele>
      </trkpt>
      <trkpt lat="6.08824" lon="124.87453">
        <ele>1382.87</ele>
      </trkpt>
      <trkpt lat="6.08823" lon="124.87462">
        <ele>1383.82</ele>
      </trkpt>
      <trkpt lat="6.08824" lon="124.87465">
        <ele>1383.6</ele>
      </trkpt>
      <trkpt lat="6.08828" lon="124.87467">
        <ele>1382.04</ele>
      </trkpt>
      <trkpt lat="6.08836" lon="124.87467">
        <ele>1381.17</ele>
      </trkpt>
      <trkpt lat="6.08842" lon="124.87467">
        <ele>1384.24</ele>
      </trkpt>
      <trkpt lat="6.08847" lon="124.87466">
        <ele>1386.77</ele>
      </trkpt>
      <trkpt lat="6.08847" lon="124.87462">
        <ele>1386.7</ele>
      </trkpt>
      <trkpt lat="6.08846" lon="124.87459">
        <ele>1386.13</ele>
      </trkpt>
      <trkpt lat="6.08845" lon="124.87452">
        <ele>1385.46</ele>
      </trkpt>
      <trkpt lat="6.08846" lon="124.87448">
        <ele>1385.91</ele>
      </trkpt>
      <trkpt lat="6.08849" lon="124.87443">
        <ele>1387.46</ele>
      </trkpt>
      <trkpt lat="6.08853" lon="124.87437">
        <ele>1389.62</ele>
      </trkpt>
      <trkpt lat="6.08854" lon="124.87434">
        <ele>1390.16</ele>
      </trkpt>
      <trkpt lat="6.08856" lon="124.87422">
        <ele>1391.24</ele>
      </trkpt>
      <trkpt lat="6.08855" lon="124.87415">
        <ele>1390.41</ele>
      </trkpt>
      <trkpt lat="6.08858" lon="124.87409">
        <ele>1390.97</ele>
      </trkpt>
      <trkpt lat="6.08862" lon="124.87406">
        <ele>1392.57</ele>
      </trkpt>
      <trkpt lat="6.08868" lon="124.87404">
        <ele>1395.46</ele>
      </trkpt>
      <trkpt lat="6.08874" lon="124.874">
        <ele>1397.87</ele>
      </trkpt>
      <trkpt lat="6.08882" lon="124.87395">
        <ele>1400.96</ele>
      </trkpt>
      <trkpt lat="6.08886" lon="124.87393">
        <ele>1402.55</ele>
      </trkpt>
      <trkpt lat="6.08889" lon="124.87397">
        <ele>1405.1</ele>
      </trkpt>
      <trkpt lat="6.08889" lon="124.87403">
        <ele>1406.61</ele>
      </trkpt>
      <trkpt lat="6.0889" lon="124.87417">
        <ele>1410.59</ele>
      </trkpt>
      <trkpt lat="6.08892" lon="124.87434">
        <ele>1410.99</ele>
      </trkpt>
      <trkpt lat="6.08897" lon="124.87441">
        <ele>1413.25</ele>
      </trkpt>
      <trkpt lat="6.08902" lon="124.8744">
        <ele>1415.84</ele>
      </trkpt>
      <trkpt lat="6.08909" lon="124.87438">
        <ele>1419.54</ele>
      </trkpt>
      <trkpt lat="6.08916" lon="124.87434">
        <ele>1423.41</ele>
      </trkpt>
      <trkpt lat="6.08921" lon="124.87426">
        <ele>1426.62</ele>
      </trkpt>
      <trkpt lat="6.08929" lon="124.8741">
        <ele>1429.4</ele>
      </trkpt>
      <trkpt lat="6.08929" lon="124.87402">
        <ele>1427.23</ele>
      </trkpt>
      <trkpt lat="6.08933" lon="124.87397">
        <ele>1427.98</ele>
      </trkpt>
      <trkpt lat="6.08941" lon="124.87395">
        <ele>1431.71</ele>
      </trkpt>
      <trkpt lat="6.08948" lon="124.87395">
        <ele>1435.36</ele>
      </trkpt>
      <trkpt lat="6.08952" lon="124.87394">
        <ele>1437.15</ele>
      </trkpt>
      <trkpt lat="6.08956" lon="124.8739">
        <ele>1438.12</ele>
      </trkpt>
      <trkpt lat="6.08959" lon="124.87389">
        <ele>1439.37</ele>
      </trkpt>
      <trkpt lat="6.08962" lon="124.87392">
        <ele>1441.7</ele>
      </trkpt>
      <trkpt lat="6.08963" lon="124.87394">
        <ele>1442.76</ele>
      </trkpt>
      <trkpt lat="6.0896" lon="124.87398">
        <ele>1442.32</ele>
      </trkpt>
      <trkpt lat="6.08959" lon="124.87402">
        <ele>1442.89</ele>
      </trkpt>
      <trkpt lat="6.0896" lon="124.87407">
        <ele>1444.77</ele>
      </trkpt>
      <trkpt lat="6.08961" lon="124.8741">
        <ele>1446.12</ele>
      </trkpt>
      <trkpt lat="6.08961" lon="124.87412">
        <ele>1446.66</ele>
      </trkpt>
      <trkpt lat="6.0896" lon="124.87417">
        <ele>1447.41</ele>
      </trkpt>
      <trkpt lat="6.08959" lon="124.87425">
        <ele>1447.02</ele>
      </trkpt>
      <trkpt lat="6.08961" lon="124.87431">
        <ele>1448.25</ele>
      </trkpt>
      <trkpt lat="6.08962" lon="124.87436">
        <ele>1448.92</ele>
      </trkpt>
      <trkpt lat="6.08963" lon="124.87445">
        <ele>1449.71</ele>
      </trkpt>
      <trkpt lat="6.08959" lon="124.87455">
        <ele>1447.78</ele>
      </trkpt>
      <trkpt lat="6.08957" lon="124.87462">
        <ele>1446.8</ele>
      </trkpt>
      <trkpt lat="6.08956" lon="124.87475">
        <ele>1446.57</ele>
      </trkpt>
      <trkpt lat="6.08958" lon="124.87491">
        <ele>1448.44</ele>
      </trkpt>
      <trkpt lat="6.08964" lon="124.87499">
        <ele>1453.03</ele>
      </trkpt>
      <trkpt lat="6.08971" lon="124.87509">
        <ele>1458.15</ele>
      </trkpt>
      <trkpt lat="6.08977" lon="124.8752">
        <ele>1462.14</ele>
      </trkpt>
      <trkpt lat="6.08978" lon="124.8753">
        <ele>1462.79</ele>
      </trkpt>
      <trkpt lat="6.0898" lon="124.87539">
        <ele>1464.22</ele>
      </trkpt>
      <trkpt lat="6.08987" lon="124.87549">
        <ele>1468.53</ele>
      </trkpt>
      <trkpt lat="6.09" lon="124.87558">
        <ele>1475.91</ele>
      </trkpt>
      <trkpt lat="6.0901" lon="124.87563">
        <ele>1478.42</ele>
      </trkpt>
      <trkpt lat="6.09019" lon="124.87565">
        <ele>1480.67</ele>
      </trkpt>
      <trkpt lat="6.09025" lon="124.87565">
        <ele>1482.25</ele>
      </trkpt>
      <trkpt lat="6.09038" lon="124.87561">
        <ele>1486.58</ele>
      </trkpt>
      <trkpt lat="6.09075" lon="124.87551">
        <ele>1499.65</ele>
      </trkpt>
      <trkpt lat="6.09106" lon="124.87557">
        <ele>1506.48</ele>
      </trkpt>
      <trkpt lat="6.09128" lon="124.87558">
        <ele>1512.06</ele>
      </trkpt>
      <trkpt lat="6.09145" lon="124.87555">
        <ele>1516.55</ele>
      </trkpt>
      <trkpt lat="6.09161" lon="124.87557">
        <ele>1520.64</ele>
      </trkpt>
      <trkpt lat="6.09196" lon="124.87573">
        <ele>1522.92</ele>
      </trkpt>
      <trkpt lat="6.0924" lon="124.87595">
        <ele>1523.71</ele>
      </trkpt>
      <trkpt lat="6.093" lon="124.87634">
        <ele>1538.08</ele>
      </trkpt>
      <trkpt lat="6.09353" lon="124.8769">
        <ele>1566.36</ele>
      </trkpt>
      <trkpt lat="6.09369" lon="124.87709">
        <ele>1569.56</ele>
      </trkpt>
      <trkpt lat="6.09379" lon="124.87718">
        <ele>1571.32</ele>
      </trkpt>
      <trkpt lat="6.09387" lon="124.87721">
        <ele>1572.7</ele>
      </trkpt>
      <trkpt lat="6.09375" lon="124.87732">
        <ele>1570.15</ele>
      </trkpt>
      <trkpt lat="6.09367" lon="124.87744">
        <ele>1568.28</ele>
      </trkpt>
      <trkpt lat="6.09358" lon="124.87756">
        <ele>1565.57</ele>
      </trkpt>
      <trkpt lat="6.09353" lon="124.87762">
        <ele>1564.18</ele>
      </trkpt>
      <trkpt lat="6.09355" lon="124.87774">
        <ele>1562.56</ele>
      </trkpt>
      <trkpt lat="6.09361" lon="124.87792">
        <ele>1559.45</ele>
      </trkpt>
      <trkpt lat="6.0937" lon="124.87821">
        <ele>1551.73</ele>
      </trkpt>
      <trkpt lat="6.09378" lon="124.87831">
        <ele>1546.6</ele>
      </trkpt>
      <trkpt lat="6.09383" lon="124.87839">
        <ele>1545.39</ele>
      </trkpt>
      <trkpt lat="6.09385" lon="124.8785">
        <ele>1547.08</ele>
      </trkpt>
      <trkpt lat="6.09381" lon="124.87859">
        <ele>1550.65</ele>
      </trkpt>
      <trkpt lat="6.09371" lon="124.87873">
        <ele>1558.05</ele>
      </trkpt>
      <trkpt lat="6.09365" lon="124.87898">
        <ele>1567.29</ele>
      </trkpt>
      <trkpt lat="6.09364" lon="124.87921">
        <ele>1573.03</ele>
      </trkpt>
      <trkpt lat="6.09371" lon="124.87943">
        <ele>1571.78</ele>
      </trkpt>
      <trkpt lat="6.09384" lon="124.87954">
        <ele>1564.46</ele>
      </trkpt>
      <trkpt lat="6.09396" lon="124.87959">
        <ele>1556.9</ele>
      </trkpt>
      <trkpt lat="6.09412" lon="124.87954">
        <ele>1546.63</ele>
      </trkpt>
      <trkpt lat="6.09417" lon="124.87944">
        <ele>1543.8</ele>
      </trkpt>
      <trkpt lat="6.09415" lon="124.87931">
        <ele>1544.96</ele>
      </trkpt>
      <trkpt lat="6.09417" lon="124.87926">
        <ele>1543.82</ele>
      </trkpt>
      <trkpt lat="6.09426" lon="124.87925">
        <ele>1538.99</ele>
      </trkpt>
      <trkpt lat="6.0944" lon="124.87929">
        <ele>1531.12</ele>
      </trkpt>
      <trkpt lat="6.09451" lon="124.87933">
        <ele>1524.56</ele>
      </trkpt>
      <trkpt lat="6.09457" lon="124.87933">
        <ele>1521.19</ele>
      </trkpt>
      <trkpt lat="6.09462" lon="124.87928">
        <ele>1519.04</ele>
      </trkpt>
      <trkpt lat="6.09467" lon="124.87917">
        <ele>1517.77</ele>
      </trkpt>
      <trkpt lat="6.09475" lon="124.8791">
        <ele>1514.66</ele>
      </trkpt>
      <trkpt lat="6.09486" lon="124.87912">
        <ele>1509.06</ele>
      </trkpt>
      <trkpt lat="6.09492" lon="124.87907">
        <ele>1507.42</ele>
      </trkpt>
      <trkpt lat="6.09502" lon="124.87899">
        <ele>1505.61</ele>
      </trkpt>
      <trkpt lat="6.09509" lon="124.87894">
        <ele>1505.32</ele>
      </trkpt>
      <trkpt lat="6.0952" lon="124.87893">
        <ele>1502.88</ele>
      </trkpt>
      <trkpt lat="6.0953" lon="124.87894">
        <ele>1500.23</ele>
      </trkpt>
      <trkpt lat="6.09539" lon="124.87895">
        <ele>1498.04</ele>
      </trkpt>
      <trkpt lat="6.09546" lon="124.87896">
        <ele>1496.27</ele>
      </trkpt>
      <trkpt lat="6.09552" lon="124.87897">
        <ele>1494.72</ele>
      </trkpt>
      <trkpt lat="6.09555" lon="124.87899">
        <ele>1493.57</ele>
      </trkpt>
      <trkpt lat="6.09555" lon="124.879">
        <ele>1493.32</ele>
      </trkpt>
      <trkpt lat="6.09554" lon="124.87902">
        <ele>1493.03</ele>
      </trkpt>
      <trkpt lat="6.0955" lon="124.87904">
        <ele>1493.39</ele>
      </trkpt>
      <trkpt lat="6.09548" lon="124.87905">
        <ele>1493.57</ele>
      </trkpt>
      <trkpt lat="6.09547" lon="124.87907">
        <ele>1493.28</ele>
      </trkpt>
      <trkpt lat="6.09547" lon="124.8791">
        <ele>1492.53</ele>
      </trkpt>
      <trkpt lat="6.09556" lon="124.87916">
        <ele>1489.07</ele>
      </trkpt>
      <trkpt lat="6.09557" lon="124.87918">
        <ele>1488.1</ele>
      </trkpt>
      <trkpt lat="6.09557" lon="124.87921">
        <ele>1486.79</ele>
      </trkpt>
      <trkpt lat="6.09554" lon="124.87922">
        <ele>1487.05</ele>
      </trkpt>
      <trkpt lat="6.09548" lon="124.87927">
        <ele>1486.37</ele>
      </trkpt>
      <trkpt lat="6.09546" lon="124.87929">
        <ele>1486.04</ele>
      </trkpt>
      <trkpt lat="6.09546" lon="124.87933">
        <ele>1484.41</ele>
      </trkpt>
      <trkpt lat="6.09546" lon="124.87941">
        <ele>1481.15</ele>
      </trkpt>
      <trkpt lat="6.0955" lon="124.87949">
        <ele>1476.73</ele>
      </trkpt>
      <trkpt lat="6.09557" lon="124.87961">
        <ele>1469.32</ele>
      </trkpt>
      <trkpt lat="6.09569" lon="124.87975">
        <ele>1458.33</ele>
      </trkpt>
      <trkpt lat="6.09573" lon="124.87981">
        <ele>1453.7</ele>
      </trkpt>
      <trkpt lat="6.09576" lon="124.87982">
        <ele>1451.9</ele>
      </trkpt>
      <trkpt lat="6.09578" lon="124.87981">
        <ele>1451.55</ele>
      </trkpt>
      <trkpt lat="6.09578" lon="124.87977">
        <ele>1453.63</ele>
      </trkpt>
      <trkpt lat="6.09578" lon="124.87972">
        <ele>1456.22</ele>
      </trkpt>
      <trkpt lat="6.0958" lon="124.87971">
        <ele>1455.93</ele>
      </trkpt>
      <trkpt lat="6.09586" lon="124.87972">
        <ele>1453.63</ele>
      </trkpt>
      <trkpt lat="6.09594" lon="124.87973">
        <ele>1451.69</ele>
      </trkpt>
      <trkpt lat="6.09611" lon="124.87975">
        <ele>1447.82</ele>
      </trkpt>
      <trkpt lat="6.09618" lon="124.87975">
        <ele>1446.61</ele>
      </trkpt>
      <trkpt lat="6.09622" lon="124.87973">
        <ele>1446.73</ele>
      </trkpt>
      <trkpt lat="6.09627" lon="124.87971">
        <ele>1446.62</ele>
      </trkpt>
      <trkpt lat="6.09635" lon="124.87972">
        <ele>1444.78</ele>
      </trkpt>
      <trkpt lat="6.0964" lon="124.87977">
        <ele>1442.13</ele>
      </trkpt>
      <trkpt lat="6.09645" lon="124.8798">
        <ele>1440.44</ele>
      </trkpt>
      <trkpt lat="6.09649" lon="124.8798">
        <ele>1439.95</ele>
      </trkpt>
      <trkpt lat="6.09659" lon="124.87981">
        <ele>1438.4</ele>
      </trkpt>
      <trkpt lat="6.09662" lon="124.8798">
        <ele>1438.34</ele>
      </trkpt>
      <trkpt lat="6.09663" lon="124.87976">
        <ele>1439.4</ele>
      </trkpt>
      <trkpt lat="6.09665" lon="124.87973">
        <ele>1440.01</ele>
      </trkpt>
      <trkpt lat="6.09667" lon="124.87973">
        <ele>1439.73</ele>
      </trkpt>
      <trkpt lat="6.09669" lon="124.87976">
        <ele>1438.58</ele>
      </trkpt>
      <trkpt lat="6.09669" lon="124.8798">
        <ele>1437.42</ele>
      </trkpt>
      <trkpt lat="6.09668" lon="124.87984">
        <ele>1436.42</ele>
      </trkpt>
      <trkpt lat="6.09668" lon="124.87986">
        <ele>1435.84</ele>
      </trkpt>
      <trkpt lat="6.09669" lon="124.87988">
        <ele>1435.12</ele>
      </trkpt>
      <trkpt lat="6.0967" lon="124.87994">
        <ele>1433.25</ele>
      </trkpt>
      <trkpt lat="6.09668" lon="124.87999">
        <ele>1432.1</ele>
      </trkpt>
      <trkpt lat="6.09668" lon="124.88002">
        <ele>1431.16</ele>
      </trkpt>
      <trkpt lat="6.09669" lon="124.88007">
        <ele>1429.4</ele>
      </trkpt>
      <trkpt lat="6.09668" lon="124.88016">
        <ele>1426.62</ele>
      </trkpt>
      <trkpt lat="6.09664" lon="124.88023">
        <ele>1424.66</ele>
      </trkpt>
      <trkpt lat="6.09656" lon="124.88034">
        <ele>1421.28</ele>
      </trkpt>
      <trkpt lat="6.09652" lon="124.88041">
        <ele>1418.99</ele>
      </trkpt>
      <trkpt lat="6.09651" lon="124.88048">
        <ele>1416.6</ele>
      </trkpt>
      <trkpt lat="6.09652" lon="124.88053">
        <ele>1414.88</ele>
      </trkpt>
      <trkpt lat="6.09654" lon="124.88056">
        <ele>1413.85</ele>
      </trkpt>
      <trkpt lat="6.09657" lon="124.88057">
        <ele>1413.51</ele>
      </trkpt>
      <trkpt lat="6.09659" lon="124.88058">
        <ele>1413.18</ele>
      </trkpt>
      <trkpt lat="6.09662" lon="124.88059">
        <ele>1412.86</ele>
      </trkpt>
      <trkpt lat="6.09662" lon="124.8806">
        <ele>1412.53</ele>
      </trkpt>
      <trkpt lat="6.09661" lon="124.88061">
        <ele>1412.2</ele>
      </trkpt>
      <trkpt lat="6.09658" lon="124.88062">
        <ele>1411.84</ele>
      </trkpt>
      <trkpt lat="6.09652" lon="124.88065">
        <ele>1410.76</ele>
      </trkpt>
      <trkpt lat="6.0965" lon="124.88069">
        <ele>1409.35</ele>
      </trkpt>
      <trkpt lat="6.0965" lon="124.88075">
        <ele>1407.28</ele>
      </trkpt>
      <trkpt lat="6.09652" lon="124.88081">
        <ele>1405.27</ele>
      </trkpt>
      <trkpt lat="6.09654" lon="124.88084">
        <ele>1404.16</ele>
      </trkpt>
      <trkpt lat="6.09654" lon="124.88089">
        <ele>1401.3</ele>
      </trkpt>
      <trkpt lat="6.09652" lon="124.88093">
        <ele>1398.88</ele>
      </trkpt>
      <trkpt lat="6.0965" lon="124.88094">
        <ele>1398.18</ele>
      </trkpt>
      <trkpt lat="6.09647" lon="124.88095">
        <ele>1397.4</ele>
      </trkpt>
      <trkpt lat="6.09646" lon="124.88097">
        <ele>1396.14</ele>
      </trkpt>
      <trkpt lat="6.09646" lon="124.881">
        <ele>1394.36</ele>
      </trkpt>
      <trkpt lat="6.09645" lon="124.88106">
        <ele>1390.71</ele>
      </trkpt>
      <trkpt lat="6.09643" lon="124.88107">
        <ele>1389.92</ele>
      </trkpt>
      <trkpt lat="6.09642" lon="124.8811">
        <ele>1388.01</ele>
      </trkpt>
      <trkpt lat="6.09641" lon="124.88114">
        <ele>1385.57</ele>
      </trkpt>
      <trkpt lat="6.09643" lon="124.88116">
        <ele>1384.65</ele>
      </trkpt>
      <trkpt lat="6.09645" lon="124.88116">
        <ele>1384.88</ele>
      </trkpt>
      <trkpt lat="6.09648" lon="124.88116">
        <ele>1385.23</ele>
      </trkpt>
      <trkpt lat="6.09653" lon="124.88116">
        <ele>1385.8</ele>
      </trkpt>
      <trkpt lat="6.09656" lon="124.88119">
        <ele>1384.48</ele>
      </trkpt>
      <trkpt lat="6.09658" lon="124.88125">
        <ele>1381.41</ele>
      </trkpt>
      <trkpt lat="6.09659" lon="124.88136">
        <ele>1375.48</ele>
      </trkpt>
      <trkpt lat="6.09659" lon="124.88149">
        <ele>1368.24</ele>
      </trkpt>
      <trkpt lat="6.09663" lon="124.88167">
        <ele>1359.12</ele>
      </trkpt>
      <trkpt lat="6.09666" lon="124.88177">
        <ele>1356.9</ele>
      </trkpt>
      <trkpt lat="6.09666" lon="124.88183">
        <ele>1355.18</ele>
      </trkpt>
      <trkpt lat="6.09664" lon="124.88189">
        <ele>1353.15</ele>
      </trkpt>
      <trkpt lat="6.09664" lon="124.88199">
        <ele>1351.35</ele>
      </trkpt>
      <trkpt lat="6.09664" lon="124.88207">
        <ele>1350.89</ele>
      </trkpt>
      <trkpt lat="6.09668" lon="124.88218">
        <ele>1350.34</ele>
      </trkpt>
      <trkpt lat="6.09675" lon="124.88226">
        <ele>1350.12</ele>
      </trkpt>
      <trkpt lat="6.0968" lon="124.88229">
        <ele>1350.12</ele>
      </trkpt>
      <trkpt lat="6.09683" lon="124.88234">
        <ele>1349.91</ele>
      </trkpt>
      <trkpt lat="6.09682" lon="124.88237">
        <ele>1349.73</ele>
      </trkpt>
      <trkpt lat="6.09681" lon="124.88243">
        <ele>1349.38</ele>
      </trkpt>
      <trkpt lat="6.09682" lon="124.88246">
        <ele>1349.22</ele>
      </trkpt>
      <trkpt lat="6.09683" lon="124.88249">
        <ele>1349.06</ele>
      </trkpt>
      <trkpt lat="6.09682" lon="124.88251">
        <ele>1348.96</ele>
      </trkpt>
      <trkpt lat="6.0968" lon="124.88251">
        <ele>1348.96</ele>
      </trkpt>
      <trkpt lat="6.09678" lon="124.88252">
        <ele>1348.93</ele>
      </trkpt>
      <trkpt lat="6.09678" lon="124.88254">
        <ele>1348.86</ele>
      </trkpt>
      <trkpt lat="6.09677" lon="124.88258">
        <ele>1348.71</ele>
      </trkpt>
      <trkpt lat="6.09678" lon="124.88263">
        <ele>1348.53</ele>
      </trkpt>
      <trkpt lat="6.09681" lon="124.88265">
        <ele>1348.46</ele>
      </trkpt>
      <trkpt lat="6.09689" lon="124.88267">
        <ele>1348.39</ele>
      </trkpt>
      <trkpt lat="6.09691" lon="124.88267">
        <ele>1348.39</ele>
      </trkpt>
      <trkpt lat="6.09696" lon="124.88266">
        <ele>1348.42</ele>
      </trkpt>
      <trkpt lat="6.09701" lon="124.88266">
        <ele>1348.42</ele>
      </trkpt>
      <trkpt lat="6.09709" lon="124.88266">
        <ele>1348.42</ele>
      </trkpt>
      <trkpt lat="6.09716" lon="124.88262">
        <ele>1348.57</ele>
      </trkpt>
      <trkpt lat="6.09723" lon="124.88258">
        <ele>1348.69</ele>
      </trkpt>
      <trkpt lat="6.09726" lon="124.88249">
        <ele>1348.93</ele>
      </trkpt>
      <trkpt lat="6.09732" lon="124.8823">
        <ele>1349.83</ele>
      </trkpt>
      <trkpt lat="6.09739" lon="124.88192">
        <ele>1353.4</ele>
      </trkpt>
      <trkpt lat="6.09737" lon="124.88127">
        <ele>1377.15</ele>
      </trkpt>
      <trkpt lat="6.09739" lon="124.88087">
        <ele>1392.21</ele>
      </trkpt>
      <trkpt lat="6.09747" lon="124.88046">
        <ele>1405.53</ele>
      </trkpt>
      <trkpt lat="6.09747" lon="124.88035">
        <ele>1409.09</ele>
      </trkpt>
      <trkpt lat="6.09735" lon="124.88018">
        <ele>1416.68</ele>
      </trkpt>
      <trkpt lat="6.09738" lon="124.87996">
        <ele>1423.96</ele>
      </trkpt>
      <trkpt lat="6.0975" lon="124.87982">
        <ele>1426.83</ele>
      </trkpt>
      <trkpt lat="6.09764" lon="124.87976">
        <ele>1423.6</ele>
      </trkpt>
      <trkpt lat="6.09775" lon="124.87958">
        <ele>1426.48</ele>
      </trkpt>
      <trkpt lat="6.09774" lon="124.87936">
        <ele>1435.48</ele>
      </trkpt>
      <trkpt lat="6.09764" lon="124.87912">
        <ele>1445.99</ele>
      </trkpt>
      <trkpt lat="6.09767" lon="124.87866">
        <ele>1455.18</ele>
      </trkpt>
      <trkpt lat="6.09765" lon="124.8784">
        <ele>1460.94</ele>
      </trkpt>
      <trkpt lat="6.09776" lon="124.87824">
        <ele>1463.88</ele>
      </trkpt>
      <trkpt lat="6.09791" lon="124.87801">
        <ele>1468.33</ele>
      </trkpt>
      <trkpt lat="6.09818" lon="124.87769">
        <ele>1472.59</ele>
      </trkpt>
      <trkpt lat="6.09844" lon="124.87744">
        <ele>1477.82</ele>
      </trkpt>
      <trkpt lat="6.09857" lon="124.87733">
        <ele>1483.18</ele>
      </trkpt>
      <trkpt lat="6.09874" lon="124.87719">
        <ele>1489.87</ele>
      </trkpt>
      <trkpt lat="6.09892" lon="124.87701">
        <ele>1498.04</ele>
      </trkpt>
      <trkpt lat="6.099" lon="124.8769">
        <ele>1502.74</ele>
      </trkpt>
      <trkpt lat="6.10043" lon="124.87606">
        <ele>1524.82</ele>
      </trkpt>
      <trkpt lat="6.10067" lon="124.87585">
        <ele>1529.06</ele>
      </trkpt>
      <trkpt lat="6.10105" lon="124.87556">
        <ele>1530.18</ele>
      </trkpt>
      <trkpt lat="6.10118" lon="124.87535">
        <ele>1527.64</ele>
      </trkpt>
      <trkpt lat="6.10141" lon="124.87515">
        <ele>1528.01</ele>
      </trkpt>
      <trkpt lat="6.1016" lon="124.87501">
        <ele>1528.44</ele>
      </trkpt>
      <trkpt lat="6.10168" lon="124.87487">
        <ele>1526.17</ele>
      </trkpt>
      <trkpt lat="6.10188" lon="124.87466">
        <ele>1524.96</ele>
      </trkpt>
      <trkpt lat="6.102" lon="124.87458">
        <ele>1525.28</ele>
      </trkpt>
      <trkpt lat="6.1021" lon="124.87457">
        <ele>1527.44</ele>
      </trkpt>
      <trkpt lat="6.10218" lon="124.87456">
        <ele>1529.1</ele>
      </trkpt>
      <trkpt lat="6.10224" lon="124.87453">
        <ele>1529.55</ele>
      </trkpt>
      <trkpt lat="6.10233" lon="124.87445">
        <ele>1528.92</ele>
      </trkpt>
      <trkpt lat="6.10239" lon="124.87439">
        <ele>1528.15</ele>
      </trkpt>
      <trkpt lat="6.10248" lon="124.87437">
        <ele>1529.57</ele>
      </trkpt>
      <trkpt lat="6.10262" lon="124.8744">
        <ele>1532.03</ele>
      </trkpt>
      <trkpt lat="6.10277" lon="124.87436">
        <ele>1531.3</ele>
      </trkpt>
      <trkpt lat="6.10305" lon="124.87413">
        <ele>1521.95</ele>
      </trkpt>
      <trkpt lat="6.10339" lon="124.874">
        <ele>1518.61</ele>
      </trkpt>
      <trkpt lat="6.10363" lon="124.87402">
        <ele>1521.96</ele>
      </trkpt>
      <trkpt lat="6.10388" lon="124.87388">
        <ele>1519.58</ele>
      </trkpt>
      <trkpt lat="6.10407" lon="124.87353">
        <ele>1508.46</ele>
      </trkpt>
      <trkpt lat="6.10414" lon="124.87334">
        <ele>1500.31</ele>
      </trkpt>
      <trkpt lat="6.10414" lon="124.87302">
        <ele>1493.11</ele>
      </trkpt>
      <trkpt lat="6.10426" lon="124.87267">
        <ele>1475.46</ele>
      </trkpt>
      <trkpt lat="6.10425" lon="124.87227">
        <ele>1459.12</ele>
      </trkpt>
      <trkpt lat="6.10444" lon="124.87205">
        <ele>1464.2</ele>
      </trkpt>
      <trkpt lat="6.10465" lon="124.87165">
        <ele>1486.81</ele>
      </trkpt>
      <trkpt lat="6.10476" lon="124.87144">
        <ele>1493.95</ele>
      </trkpt>
      <trkpt lat="6.10475" lon="124.87119">
        <ele>1509.19</ele>
      </trkpt>
      <trkpt lat="6.10481" lon="124.87049">
        <ele>1516.07</ele>
      </trkpt>
      <trkpt lat="6.10528" lon="124.86987">
        <ele>1503.15</ele>
      </trkpt>
      <trkpt lat="6.1055" lon="124.86918">
        <ele>1475.23</ele>
      </trkpt>
      <trkpt lat="6.10549" lon="124.86903">
        <ele>1471.0</ele>
      </trkpt>
      <trkpt lat="6.10567" lon="124.86877">
        <ele>1461.77</ele>
      </trkpt>
      <trkpt lat="6.10571" lon="124.86862">
        <ele>1455.61</ele>
      </trkpt>
      <trkpt lat="6.10571" lon="124.86836">
        <ele>1449.81</ele>
      </trkpt>
      <trkpt lat="6.10574" lon="124.86809">
        <ele>1450.14</ele>
      </trkpt>
      <trkpt lat="6.10574" lon="124.86792">
        <ele>1445.63</ele>
      </trkpt>
      <trkpt lat="6.10572" lon="124.86776">
        <ele>1440.5</ele>
      </trkpt>
      <trkpt lat="6.10581" lon="124.86752">
        <ele>1431.92</ele>
      </trkpt>
      <trkpt lat="6.10592" lon="124.86736">
        <ele>1415.46</ele>
      </trkpt>
      <trkpt lat="6.10599" lon="124.86728">
        <ele>1406.77</ele>
      </trkpt>
      <trkpt lat="6.10602" lon="124.86709">
        <ele>1397.04</ele>
      </trkpt>
      <trkpt lat="6.10609" lon="124.86689">
        <ele>1386.45</ele>
      </trkpt>
      <trkpt lat="6.10606" lon="124.86676">
        <ele>1386.34</ele>
      </trkpt>
      <trkpt lat="6.10607" lon="124.86667">
        <ele>1384.82</ele>
      </trkpt>
      <trkpt lat="6.10622" lon="124.86653">
        <ele>1381.16</ele>
      </trkpt>
      <trkpt lat="6.10638" lon="124.86622">
        <ele>1377.21</ele>
      </trkpt>
      <trkpt lat="6.1066" lon="124.86589">
        <ele>1365.93</ele>
      </trkpt>
      <trkpt lat="6.10669" lon="124.8656">
        <ele>1364.15</ele>
      </trkpt>
      <trkpt lat="6.10676" lon="124.86518">
        <ele>1348.54</ele>
      </trkpt>
      <trkpt lat="6.10694" lon="124.86481">
        <ele>1336.19</ele>
      </trkpt>
      <trkpt lat="6.10703" lon="124.8644">
        <ele>1334.6</ele>
      </trkpt>
      <trkpt lat="6.10714" lon="124.86409">
        <ele>1327.56</ele>
      </trkpt>
      <trkpt lat="6.10719" lon="124.86357">
        <ele>1324.94</ele>
      </trkpt>
      <trkpt lat="6.10722" lon="124.86313">
        <ele>1332.09</ele>
      </trkpt>
      <trkpt lat="6.10725" lon="124.86306">
        <ele>1332.49</ele>
      </trkpt>
      <trkpt lat="6.10732" lon="124.86302">
        <ele>1328.72</ele>
      </trkpt>
      <trkpt lat="6.1074" lon="124.86293">
        <ele>1325.35</ele>
      </trkpt>
      <trkpt lat="6.10758" lon="124.86261">
        <ele>1320.51</ele>
      </trkpt>
      <trkpt lat="6.10793" lon="124.86212">
        <ele>1300.7</ele>
      </trkpt>
      <trkpt lat="6.10818" lon="124.86179">
        <ele>1282.42</ele>
      </trkpt>
      <trkpt lat="6.10845" lon="124.86145">
        <ele>1278.46</ele>
      </trkpt>
      <trkpt lat="6.1087" lon="124.86131">
        <ele>1272.1</ele>
      </trkpt>
      <trkpt lat="6.10897" lon="124.86113">
        <ele>1266.48</ele>
      </trkpt>
      <trkpt lat="6.10914" lon="124.86105">
        <ele>1257.87</ele>
      </trkpt>
      <trkpt lat="6.1092" lon="124.86095">
        <ele>1261.77</ele>
      </trkpt>
      <trkpt lat="6.1093" lon="124.86084">
        <ele>1261.09</ele>
      </trkpt>
      <trkpt lat="6.10944" lon="124.86072">
        <ele>1254.85</ele>
      </trkpt>
      <trkpt lat="6.10959" lon="124.86027">
        <ele>1250.34</ele>
      </trkpt>
      <trkpt lat="6.10967" lon="124.86006">
        <ele>1240.4</ele>
      </trkpt>
      <trkpt lat="6.10972" lon="124.85982">
        <ele>1241.91</ele>
      </trkpt>
      <trkpt lat="6.10973" lon="124.85968">
        <ele>1244.99</ele>
      </trkpt>
      <trkpt lat="6.10967" lon="124.85959">
        <ele>1246.93</ele>
      </trkpt>
      <trkpt lat="6.10969" lon="124.85938">
        <ele>1245.08</ele>
      </trkpt>
      <trkpt lat="6.10981" lon="124.85892">
        <ele>1227.94</ele>
      </trkpt>
      <trkpt lat="6.10991" lon="124.85855">
        <ele>1201.25</ele>
      </trkpt>
      <trkpt lat="6.11" lon="124.85833">
        <ele>1190.0</ele>
      </trkpt>
      <trkpt lat="6.11" lon="124.85833">
        <ele>1190.0</ele>
      </trkpt>
      <trkpt lat="6.11001" lon="124.85829">
        <ele>1189.86</ele>
      </trkpt>
      <trkpt lat="6.11008" lon="124.85798">
        <ele>1187.6</ele>
      </trkpt>
      <trkpt lat="6.11026" lon="124.85768">
        <ele>1177.13</ele>
      </trkpt>
      <trkpt lat="6.11048" lon="124.85725">
        <ele>1153.26</ele>
      </trkpt>
      <trkpt lat="6.11087" lon="124.85672">
        <ele>1140.04</ele>
      </trkpt>
      <trkpt lat="6.1111" lon="124.85621">
        <ele>1136.02</ele>
      </trkpt>
      <trkpt lat="6.1112" lon="124.85597">
        <ele>1132.38</ele>
      </trkpt>
      <trkpt lat="6.11139" lon="124.85581">
        <ele>1131.22</ele>
      </trkpt>
      <trkpt lat="6.11156" lon="124.85564">
        <ele>1129.02</ele>
      </trkpt>
      <trkpt lat="6.11166" lon="124.85559">
        <ele>1127.53</ele>
      </trkpt>
      <trkpt lat="6.11177" lon="124.85553">
        <ele>1126.46</ele>
      </trkpt>
      <trkpt lat="6.11182" lon="124.85545">
        <ele>1124.12</ele>
      </trkpt>
      <trkpt lat="6.11194" lon="124.85539">
        <ele>1119.75</ele>
      </trkpt>
      <trkpt lat="6.112" lon="124.85532">
        <ele>1116.31</ele>
      </trkpt>
      <trkpt lat="6.112" lon="124.85522">
        <ele>1113.25</ele>
      </trkpt>
      <trkpt lat="6.11191" lon="124.85513">
        <ele>1111.92</ele>
      </trkpt>
      <trkpt lat="6.11186" lon="124.85502">
        <ele>1108.43</ele>
      </trkpt>
      <trkpt lat="6.11191" lon="124.8549">
        <ele>1102.79</ele>
      </trkpt>
      <trkpt lat="6.11207" lon="124.85468">
        <ele>1096.11</ele>
      </trkpt>
      <trkpt lat="6.11212" lon="124.85447">
        <ele>1096.25</ele>
      </trkpt>
      <trkpt lat="6.11216" lon="124.85408">
        <ele>1090.6</ele>
      </trkpt>
      <trkpt lat="6.1123" lon="124.85371">
        <ele>1093.34</ele>
      </trkpt>
      <trkpt lat="6.1125" lon="124.85328">
        <ele>1093.97</ele>
      </trkpt>
      <trkpt lat="6.11272" lon="124.85302">
        <ele>1088.99</ele>
      </trkpt>
      <trkpt lat="6.11289" lon="124.85272">
        <ele>1077.92</ele>
      </trkpt>
      <trkpt lat="6.11312" lon="124.85259">
        <ele>1072.46</ele>
      </trkpt>
      <trkpt lat="6.1132" lon="124.85248">
        <ele>1070.6</ele>
      </trkpt>
      <trkpt lat="6.11329" lon="124.85243">
        <ele>1071.74</ele>
      </trkpt>
      <trkpt lat="6.11333" lon="124.85235">
        <ele>1072.5</ele>
      </trkpt>
      <trkpt lat="6.11352" lon="124.85222">
        <ele>1068.24</ele>
      </trkpt>
      <trkpt lat="6.11375" lon="124.85191">
        <ele>1063.57</ele>
      </trkpt>
      <trkpt lat="6.11401" lon="124.85163">
        <ele>1071.01</ele>
      </trkpt>
      <trkpt lat="6.11411" lon="124.8514">
        <ele>1074.74</ele>
      </trkpt>
      <trkpt lat="6.11426" lon="124.85095">
        <ele>1081.9</ele>
      </trkpt>
      <trkpt lat="6.11441" lon="124.85058">
        <ele>1071.11</ele>
      </trkpt>
      <trkpt lat="6.11451" lon="124.85031">
        <ele>1061.62</ele>
      </trkpt>
      <trkpt lat="6.11462" lon="124.85015">
        <ele>1059.18</ele>
      </trkpt>
      <trkpt lat="6.11478" lon="124.84996">
        <ele>1054.71</ele>
      </trkpt>
      <trkpt lat="6.11506" lon="124.84969">
        <ele>1045.97</ele>
      </trkpt>
      <trkpt lat="6.11531" lon="124.84944">
        <ele>1038.29</ele>
      </trkpt>
      <trkpt lat="6.11538" lon="124.8492">
        <ele>1041.28</ele>
      </trkpt>
      <trkpt lat="6.11535" lon="124.849">
        <ele>1040.83</ele>
      </trkpt>
      <trkpt lat="6.11543" lon="124.84873">
        <ele>1035.24</ele>
      </trkpt>
      <trkpt lat="6.11544" lon="124.84843">
        <ele>1032.29</ele>
      </trkpt>
      <trkpt lat="6.11547" lon="124.84806">
        <ele>1027.31</ele>
      </trkpt>
      <trkpt lat="6.11548" lon="124.84796">
        <ele>1027.87</ele>
      </trkpt>
      <trkpt lat="6.11558" lon="124.84766">
        <ele>1028.35</ele>
      </trkpt>
      <trkpt lat="6.11572" lon="124.84736">
        <ele>1028.82</ele>
      </trkpt>
      <trkpt lat="6.11572" lon="124.84664">
        <ele>1040.68</ele>
      </trkpt>
      <trkpt lat="6.11575" lon="124.84632">
        <ele>1038.7</ele>
      </trkpt>
      <trkpt lat="6.11577" lon="124.84572">
        <ele>1034.95</ele>
      </trkpt>
      <trkpt lat="6.11576" lon="124.84519">
        <ele>1035.03</ele>
      </trkpt>
      <trkpt lat="6.11576" lon="124.84503">
        <ele>1034.61</ele>
      </trkpt>
      <trkpt lat="6.11576" lon="124.84482">
        <ele>1032.55</ele>
      </trkpt>
    </trkseg>
  </trk>
</gpx>
