<?xml version="1.0"?>
<gpx xmlns="http://www.topografix.com/GPX/1/1" xmlns:xsi="http://www.w3.org/2001/XMLSchema-instance" version="1.1" creator="AllTrails.com" xsi:schemaLocation="http://www.topografix.com/GPX/1/1 http://www.topografix.com/GPX/1/1/gpx.xsd">
  <metadata>
    <name><![CDATA[Mount Dinagsaan]]></name>
    <desc><![CDATA[]]></desc>
    <link href="http://www.alltrails.com">
      <text>AllTrails, LLC</text>
    </link>
    <bounds minlat="7.04266" minlon="125.96538" maxlat="7.04606" maxlon="125.97665"/>
  </metadata>
  <trk>
    <name><![CDATA[Mount Dinagsaan]]></name>
    <src>AllTrails</src>
    <trkseg>
      <trkpt lat="7.04327" lon="125.9654">
        <ele>28.1</ele>
      </trkpt>
      <trkpt lat="7.04332" lon="125.96538">
        <ele>27.82</ele>
      </trkpt>
      <trkpt lat="7.04336" lon="125.96546">
        <ele>30.24</ele>
      </trkpt>
      <trkpt lat="7.04339" lon="125.96559">
        <ele>33.19</ele>
      </trkpt>
      <trkpt lat="7.04338" lon="125.96572">
        <ele>33.47</ele>
      </trkpt>
      <trkpt lat="7.04336" lon="125.96581">
        <ele>33.44</ele>
      </trkpt>
      <trkpt lat="7.04334" lon="125.96592">
        <ele>36.18</ele>
      </trkpt>
      <trkpt lat="7.04333" lon="125.96603">
        <ele>40.01</ele>
      </trkpt>
      <trkpt lat="7.04332" lon="125.9661">
        <ele>42.27</ele>
      </trkpt>
      <trkpt lat="7.04329" lon="125.96616">
        <ele>41.59</ele>
      </trkpt>
      <trkpt lat="7.04323" lon="125.96622">
        <ele>40.87</ele>
      </trkpt>
      <trkpt lat="7.04311" lon="125.96631">
        <ele>42.57</ele>
      </trkpt>
      <trkpt lat="7.04303" lon="125.96639">
        <ele>45.25</ele>
      </trkpt>
      <trkpt lat="7.04298" lon="125.96646">
        <ele>43.5</ele>
      </trkpt>
      <trkpt lat="7.04296" lon="125.9665">
        <ele>43.02</ele>
      </trkpt>
      <trkpt lat="7.04292" lon="125.96655">
        <ele>42.61</ele>
      </trkpt>
      <trkpt lat="7.04287" lon="125.96657">
        <ele>42.4</ele>
      </trkpt>
      <trkpt lat="7.04282" lon="125.96658">
        <ele>42.3</ele>
      </trkpt>
      <trkpt lat="7.04277" lon="125.9666">
        <ele>42.46</ele>
      </trkpt>
      <trkpt lat="7.04274" lon="125.96663">
        <ele>42.76</ele>
      </trkpt>
      <trkpt lat="7.04274" lon="125.96668">
        <ele>43.88</ele>
      </trkpt>
      <trkpt lat="7.04276" lon="125.96676">
        <ele>45.64</ele>
      </trkpt>
      <trkpt lat="7.04279" lon="125.96684">
        <ele>47.06</ele>
      </trkpt>
      <trkpt lat="7.0428" lon="125.96697">
        <ele>49.84</ele>
      </trkpt>
      <trkpt lat="7.04279" lon="125.96706">
        <ele>53.12</ele>
      </trkpt>
      <trkpt lat="7.04273" lon="125.96715">
        <ele>57.47</ele>
      </trkpt>
      <trkpt lat="7.04268" lon="125.96724">
        <ele>61.51</ele>
      </trkpt>
      <trkpt lat="7.04266" lon="125.96733">
        <ele>61.93</ele>
      </trkpt>
      <trkpt lat="7.04266" lon="125.96741">
        <ele>61.91</ele>
      </trkpt>
      <trkpt lat="7.0427" lon="125.96751">
        <ele>62.98</ele>
      </trkpt>
      <trkpt lat="7.04273" lon="125.96755">
        <ele>64.95</ele>
      </trkpt>
      <trkpt lat="7.0428" lon="125.96761">
        <ele>67.98</ele>
      </trkpt>
      <trkpt lat="7.04285" lon="125.96766">
        <ele>70.67</ele>
      </trkpt>
      <trkpt lat="7.04288" lon="125.96774">
        <ele>74.2</ele>
      </trkpt>
      <trkpt lat="7.04289" lon="125.96783">
        <ele>79.21</ele>
      </trkpt>
      <trkpt lat="7.0429" lon="125.9679">
        <ele>83.91</ele>
      </trkpt>
      <trkpt lat="7.04294" lon="125.96796">
        <ele>88.29</ele>
      </trkpt>
      <trkpt lat="7.04301" lon="125.96805">
        <ele>94.36</ele>
      </trkpt>
      <trkpt lat="7.04311" lon="125.96813">
        <ele>100.7</ele>
      </trkpt>
      <trkpt lat="7.0432" lon="125.96821">
        <ele>106.46</ele>
      </trkpt>
      <trkpt lat="7.04327" lon="125.96828">
        <ele>110.0</ele>
      </trkpt>
      <trkpt lat="7.04335" lon="125.96838">
        <ele>113.48</ele>
      </trkpt>
      <trkpt lat="7.04344" lon="125.96848">
        <ele>116.56</ele>
      </trkpt>
      <trkpt lat="7.04353" lon="125.96855">
        <ele>118.16</ele>
      </trkpt>
      <trkpt lat="7.04361" lon="125.96864">
        <ele>119.52</ele>
      </trkpt>
      <trkpt lat="7.0437" lon="125.96877">
        <ele>122.0</ele>
      </trkpt>
      <trkpt lat="7.04373" lon="125.96881">
        <ele>122.7</ele>
      </trkpt>
      <trkpt lat="7.04373" lon="125.96881">
        <ele>122.7</ele>
      </trkpt>
      <trkpt lat="7.04376" lon="125.96885">
        <ele>123.38</ele>
      </trkpt>
      <trkpt lat="7.04385" lon="125.96892">
        <ele>125.04</ele>
      </trkpt>
      <trkpt lat="7.04394" lon="125.969">
        <ele>129.91</ele>
      </trkpt>
      <trkpt lat="7.04399" lon="125.96907">
        <ele>133.97</ele>
      </trkpt>
      <trkpt lat="7.04404" lon="125.96916">
        <ele>138.57</ele>
      </trkpt>
      <trkpt lat="7.04412" lon="125.96927">
        <ele>144.29</ele>
      </trkpt>
      <trkpt lat="7.04417" lon="125.96933">
        <ele>147.99</ele>
      </trkpt>
      <trkpt lat="7.04426" lon="125.96941">
        <ele>154.0</ele>
      </trkpt>
      <trkpt lat="7.04433" lon="125.96945">
        <ele>158.13</ele>
      </trkpt>
      <trkpt lat="7.04438" lon="125.96949">
        <ele>161.82</ele>
      </trkpt>
      <trkpt lat="7.04441" lon="125.96956">
        <ele>166.38</ele>
      </trkpt>
      <trkpt lat="7.04443" lon="125.96963">
        <ele>170.69</ele>
      </trkpt>
      <trkpt lat="7.04443" lon="125.96988">
        <ele>181.04</ele>
      </trkpt>
      <trkpt lat="7.0445" lon="125.96992">
        <ele>183.6</ele>
      </trkpt>
      <trkpt lat="7.04458" lon="125.96996">
        <ele>185.88</ele>
      </trkpt>
      <trkpt lat="7.04463" lon="125.97001">
        <ele>188.5</ele>
      </trkpt>
      <trkpt lat="7.04465" lon="125.97004">
        <ele>190.26</ele>
      </trkpt>
      <trkpt lat="7.04468" lon="125.97013">
        <ele>195.53</ele>
      </trkpt>
      <trkpt lat="7.0447" lon="125.97018">
        <ele>198.77</ele>
      </trkpt>
      <trkpt lat="7.04477" lon="125.97035">
        <ele>208.29</ele>
      </trkpt>
      <trkpt lat="7.04486" lon="125.97055">
        <ele>217.24</ele>
      </trkpt>
      <trkpt lat="7.04492" lon="125.97068">
        <ele>220.99</ele>
      </trkpt>
      <trkpt lat="7.04496" lon="125.97077">
        <ele>223.11</ele>
      </trkpt>
      <trkpt lat="7.04496" lon="125.97086">
        <ele>225.75</ele>
      </trkpt>
      <trkpt lat="7.04496" lon="125.97098">
        <ele>227.78</ele>
      </trkpt>
      <trkpt lat="7.04497" lon="125.97109">
        <ele>229.39</ele>
      </trkpt>
      <trkpt lat="7.04503" lon="125.97126">
        <ele>234.7</ele>
      </trkpt>
      <trkpt lat="7.04506" lon="125.97132">
        <ele>237.6</ele>
      </trkpt>
      <trkpt lat="7.04508" lon="125.97142">
        <ele>242.11</ele>
      </trkpt>
      <trkpt lat="7.04508" lon="125.97154">
        <ele>247.97</ele>
      </trkpt>
      <trkpt lat="7.04503" lon="125.97178">
        <ele>261.68</ele>
      </trkpt>
      <trkpt lat="7.04501" lon="125.97189">
        <ele>269.28</ele>
      </trkpt>
      <trkpt lat="7.045" lon="125.97204">
        <ele>276.1</ele>
      </trkpt>
      <trkpt lat="7.045" lon="125.97214">
        <ele>279.34</ele>
      </trkpt>
      <trkpt lat="7.04501" lon="125.97223">
        <ele>282.17</ele>
      </trkpt>
      <trkpt lat="7.04505" lon="125.9723">
        <ele>284.18</ele>
      </trkpt>
      <trkpt lat="7.04511" lon="125.97235">
        <ele>286.28</ele>
      </trkpt>
      <trkpt lat="7.04515" lon="125.9724">
        <ele>288.7</ele>
      </trkpt>
      <trkpt lat="7.04516" lon="125.97249">
        <ele>292.61</ele>
      </trkpt>
      <trkpt lat="7.04517" lon="125.97258">
        <ele>296.12</ele>
      </trkpt>
      <trkpt lat="7.04522" lon="125.97268">
        <ele>301.27</ele>
      </trkpt>
      <trkpt lat="7.04526" lon="125.97276">
        <ele>305.67</ele>
      </trkpt>
      <trkpt lat="7.04529" lon="125.97287">
        <ele>310.52</ele>
      </trkpt>
      <trkpt lat="7.04534" lon="125.97296">
        <ele>315.38</ele>
      </trkpt>
      <trkpt lat="7.04549" lon="125.97319">
        <ele>325.55</ele>
      </trkpt>
      <trkpt lat="7.04552" lon="125.97324">
        <ele>327.05</ele>
      </trkpt>
      <trkpt lat="7.04556" lon="125.97333">
        <ele>329.15</ele>
      </trkpt>
      <trkpt lat="7.04562" lon="125.97344">
        <ele>338.43</ele>
      </trkpt>
      <trkpt lat="7.04568" lon="125.97356">
        <ele>347.97</ele>
      </trkpt>
      <trkpt lat="7.04571" lon="125.97363">
        <ele>353.24</ele>
      </trkpt>
      <trkpt lat="7.04574" lon="125.97374">
        <ele>361.48</ele>
      </trkpt>
      <trkpt lat="7.04577" lon="125.97382">
        <ele>367.89</ele>
      </trkpt>
      <trkpt lat="7.04582" lon="125.97391">
        <ele>375.4</ele>
      </trkpt>
      <trkpt lat="7.04587" lon="125.974">
        <ele>380.04</ele>
      </trkpt>
      <trkpt lat="7.04592" lon="125.97405">
        <ele>382.07</ele>
      </trkpt>
      <trkpt lat="7.04599" lon="125.97416">
        <ele>385.13</ele>
      </trkpt>
      <trkpt lat="7.046" lon="125.97422">
        <ele>385.81</ele>
      </trkpt>
      <trkpt lat="7.04601" lon="125.97428">
        <ele>386.28</ele>
      </trkpt>
      <trkpt lat="7.046" lon="125.97434">
        <ele>387.2</ele>
      </trkpt>
      <trkpt lat="7.046" lon="125.97439">
        <ele>387.77</ele>
      </trkpt>
      <trkpt lat="7.04602" lon="125.97444">
        <ele>387.57</ele>
      </trkpt>
      <trkpt lat="7.04604" lon="125.9745">
        <ele>388.86</ele>
      </trkpt>
      <trkpt lat="7.04605" lon="125.97455">
        <ele>390.35</ele>
      </trkpt>
      <trkpt lat="7.04606" lon="125.97462">
        <ele>392.63</ele>
      </trkpt>
      <trkpt lat="7.04606" lon="125.9747">
        <ele>395.64</ele>
      </trkpt>
      <trkpt lat="7.04606" lon="125.97476">
        <ele>397.94</ele>
      </trkpt>
      <trkpt lat="7.04604" lon="125.97483">
        <ele>401.22</ele>
      </trkpt>
      <trkpt lat="7.04601" lon="125.97487">
        <ele>403.57</ele>
      </trkpt>
      <trkpt lat="7.04597" lon="125.9749">
        <ele>405.78</ele>
      </trkpt>
      <trkpt lat="7.04597" lon="125.9749">
        <ele>405.78</ele>
      </trkpt>
      <trkpt lat="7.0459" lon="125.97495">
        <ele>409.48</ele>
      </trkpt>
      <trkpt lat="7.04585" lon="125.97501">
        <ele>412.57</ele>
      </trkpt>
      <trkpt lat="7.04575" lon="125.97515">
        <ele>415.23</ele>
      </trkpt>
      <trkpt lat="7.04565" lon="125.9753">
        <ele>420.32</ele>
      </trkpt>
      <trkpt lat="7.04561" lon="125.97539">
        <ele>423.34</ele>
      </trkpt>
      <trkpt lat="7.04559" lon="125.97542">
        <ele>424.43</ele>
      </trkpt>
      <trkpt lat="7.04557" lon="125.97545">
        <ele>425.43</ele>
      </trkpt>
      <trkpt lat="7.04555" lon="125.97546">
        <ele>426.13</ele>
      </trkpt>
      <trkpt lat="7.04552" lon="125.97547">
        <ele>427.14</ele>
      </trkpt>
      <trkpt lat="7.04549" lon="125.97547">
        <ele>428.04</ele>
      </trkpt>
      <trkpt lat="7.04545" lon="125.97547">
        <ele>429.23</ele>
      </trkpt>
      <trkpt lat="7.04543" lon="125.97548">
        <ele>429.92</ele>
      </trkpt>
      <trkpt lat="7.0454" lon="125.97549">
        <ele>430.9</ele>
      </trkpt>
      <trkpt lat="7.04537" lon="125.9755">
        <ele>431.88</ele>
      </trkpt>
      <trkpt lat="7.04531" lon="125.9755">
        <ele>433.65</ele>
      </trkpt>
      <trkpt lat="7.04527" lon="125.9755">
        <ele>434.34</ele>
      </trkpt>
      <trkpt lat="7.04523" lon="125.97551">
        <ele>433.13</ele>
      </trkpt>
      <trkpt lat="7.04521" lon="125.97553">
        <ele>432.73</ele>
      </trkpt>
      <trkpt lat="7.04517" lon="125.9756">
        <ele>433.93</ele>
      </trkpt>
      <trkpt lat="7.04512" lon="125.97566">
        <ele>435.71</ele>
      </trkpt>
      <trkpt lat="7.04506" lon="125.9757">
        <ele>436.78</ele>
      </trkpt>
      <trkpt lat="7.04502" lon="125.97572">
        <ele>437.34</ele>
      </trkpt>
      <trkpt lat="7.04498" lon="125.97575">
        <ele>439.35</ele>
      </trkpt>
      <trkpt lat="7.04497" lon="125.9758">
        <ele>442.62</ele>
      </trkpt>
      <trkpt lat="7.04497" lon="125.97585">
        <ele>446.08</ele>
      </trkpt>
      <trkpt lat="7.04496" lon="125.97592">
        <ele>452.17</ele>
      </trkpt>
      <trkpt lat="7.04494" lon="125.97596">
        <ele>455.61</ele>
      </trkpt>
      <trkpt lat="7.04492" lon="125.976">
        <ele>458.83</ele>
      </trkpt>
      <trkpt lat="7.0449" lon="125.97603">
        <ele>461.06</ele>
      </trkpt>
      <trkpt lat="7.0449" lon="125.97606">
        <ele>463.33</ele>
      </trkpt>
      <trkpt lat="7.04491" lon="125.9761">
        <ele>466.52</ele>
      </trkpt>
      <trkpt lat="7.04494" lon="125.97613">
        <ele>469.84</ele>
      </trkpt>
      <trkpt lat="7.04495" lon="125.97617">
        <ele>474.18</ele>
      </trkpt>
      <trkpt lat="7.04495" lon="125.9762">
        <ele>477.27</ele>
      </trkpt>
      <trkpt lat="7.04494" lon="125.97623">
        <ele>479.99</ele>
      </trkpt>
      <trkpt lat="7.04492" lon="125.97626">
        <ele>482.17</ele>
      </trkpt>
      <trkpt lat="7.04489" lon="125.97629">
        <ele>483.67</ele>
      </trkpt>
      <trkpt lat="7.04483" lon="125.97632">
        <ele>483.27</ele>
      </trkpt>
      <trkpt lat="7.04477" lon="125.97637">
        <ele>483.72</ele>
      </trkpt>
      <trkpt lat="7.04475" lon="125.97639">
        <ele>483.86</ele>
      </trkpt>
      <trkpt lat="7.04473" lon="125.97642">
        <ele>484.36</ele>
      </trkpt>
      <trkpt lat="7.04473" lon="125.97646">
        <ele>486.74</ele>
      </trkpt>
      <trkpt lat="7.04473" lon="125.97649">
        <ele>488.53</ele>
      </trkpt>
      <trkpt lat="7.04475" lon="125.97653">
        <ele>491.62</ele>
      </trkpt>
      <trkpt lat="7.04477" lon="125.97657">
        <ele>494.39</ele>
      </trkpt>
      <trkpt lat="7.04485" lon="125.97663">
        <ele>498.65</ele>
      </trkpt>
      <trkpt lat="7.04488" lon="125.97665">
        <ele>499.66</ele>
      </trkpt>
      <trkpt lat="7.04485" lon="125.97663">
        <ele>498.65</ele>
      </trkpt>
      <trkpt lat="7.04477" lon="125.97657">
        <ele>494.39</ele>
      </trkpt>
      <trkpt lat="7.04475" lon="125.97653">
        <ele>491.62</ele>
      </trkpt>
      <trkpt lat="7.04473" lon="125.97649">
        <ele>488.53</ele>
      </trkpt>
      <trkpt lat="7.04473" lon="125.97646">
        <ele>486.74</ele>
      </trkpt>
      <trkpt lat="7.04473" lon="125.97642">
        <ele>484.36</ele>
      </trkpt>
      <trkpt lat="7.04475" lon="125.97639">
        <ele>483.86</ele>
      </trkpt>
      <trkpt lat="7.04477" lon="125.97637">
        <ele>483.72</ele>
      </trkpt>
      <trkpt lat="7.04483" lon="125.97632">
        <ele>483.27</ele>
      </trkpt>
      <trkpt lat="7.04489" lon="125.97629">
        <ele>483.67</ele>
      </trkpt>
      <trkpt lat="7.04492" lon="125.97626">
        <ele>482.17</ele>
      </trkpt>
      <trkpt lat="7.04494" lon="125.97623">
        <ele>479.99</ele>
      </trkpt>
      <trkpt lat="7.04495" lon="125.9762">
        <ele>477.27</ele>
      </trkpt>
      <trkpt lat="7.04495" lon="125.97617">
        <ele>474.18</ele>
      </trkpt>
      <trkpt lat="7.04494" lon="125.97613">
        <ele>469.84</ele>
      </trkpt>
      <trkpt lat="7.04491" lon="125.9761">
        <ele>466.52</ele>
      </trkpt>
      <trkpt lat="7.0449" lon="125.97606">
        <ele>463.33</ele>
      </trkpt>
      <trkpt lat="7.0449" lon="125.97603">
        <ele>461.06</ele>
      </trkpt>
      <trkpt lat="7.04492" lon="125.976">
        <ele>458.83</ele>
      </trkpt>
      <trkpt lat="7.04494" lon="125.97596">
        <ele>455.61</ele>
      </trkpt>
      <trkpt lat="7.04496" lon="125.97592">
        <ele>452.17</ele>
      </trkpt>
      <trkpt lat="7.04497" lon="125.97585">
        <ele>446.08</ele>
      </trkpt>
      <trkpt lat="7.04497" lon="125.9758">
        <ele>442.62</ele>
      </trkpt>
      <trkpt lat="7.04498" lon="125.97575">
        <ele>439.35</ele>
      </trkpt>
      <trkpt lat="7.04502" lon="125.97572">
        <ele>437.34</ele>
      </trkpt>
      <trkpt lat="7.04506" lon="125.9757">
        <ele>436.78</ele>
      </trkpt>
      <trkpt lat="7.04512" lon="125.97566">
        <ele>435.71</ele>
      </trkpt>
      <trkpt lat="7.04517" lon="125.9756">
        <ele>433.93</ele>
      </trkpt>
      <trkpt lat="7.04521" lon="125.97553">
        <ele>432.73</ele>
      </trkpt>
      <trkpt lat="7.04523" lon="125.97551">
        <ele>433.13</ele>
      </trkpt>
      <trkpt lat="7.04527" lon="125.9755">
        <ele>434.34</ele>
      </trkpt>
      <trkpt lat="7.04531" lon="125.9755">
        <ele>433.65</ele>
      </trkpt>
      <trkpt lat="7.04537" lon="125.9755">
        <ele>431.88</ele>
      </trkpt>
      <trkpt lat="7.0454" lon="125.97549">
        <ele>430.9</ele>
      </trkpt>
      <trkpt lat="7.04543" lon="125.97548">
        <ele>429.92</ele>
      </trkpt>
      <trkpt lat="7.04545" lon="125.97547">
        <ele>429.23</ele>
      </trkpt>
      <trkpt lat="7.04549" lon="125.97547">
        <ele>428.04</ele>
      </trkpt>
      <trkpt lat="7.04552" lon="125.97547">
        <ele>427.14</ele>
      </trkpt>
      <trkpt lat="7.04555" lon="125.97546">
        <ele>426.13</ele>
      </trkpt>
      <trkpt lat="7.04557" lon="125.97545">
        <ele>425.43</ele>
      </trkpt>
      <trkpt lat="7.04559" lon="125.97542">
        <ele>424.43</ele>
      </trkpt>
      <trkpt lat="7.04561" lon="125.97539">
        <ele>423.34</ele>
      </trkpt>
      <trkpt lat="7.04565" lon="125.9753">
        <ele>420.32</ele>
      </trkpt>
      <trkpt lat="7.04575" lon="125.97515">
        <ele>415.23</ele>
      </trkpt>
      <trkpt lat="7.04585" lon="125.97501">
        <ele>412.57</ele>
      </trkpt>
      <trkpt lat="7.0459" lon="125.97495">
        <ele>409.48</ele>
      </trkpt>
      <trkpt lat="7.04597" lon="125.9749">
        <ele>405.78</ele>
      </trkpt>
      <trkpt lat="7.04597" lon="125.9749">
        <ele>405.78</ele>
      </trkpt>
      <trkpt lat="7.04601" lon="125.97487">
        <ele>403.57</ele>
      </trkpt>
      <trkpt lat="7.04604" lon="125.97483">
        <ele>401.22</ele>
      </trkpt>
      <trkpt lat="7.04606" lon="125.97476">
        <ele>397.94</ele>
      </trkpt>
      <trkpt lat="7.04606" lon="125.9747">
        <ele>395.64</ele>
      </trkpt>
      <trkpt lat="7.04606" lon="125.97462">
        <ele>392.63</ele>
      </trkpt>
      <trkpt lat="7.04605" lon="125.97455">
        <ele>390.35</ele>
      </trkpt>
      <trkpt lat="7.04604" lon="125.9745">
        <ele>388.86</ele>
      </trkpt>
      <trkpt lat="7.04602" lon="125.97444">
        <ele>387.57</ele>
      </trkpt>
      <trkpt lat="7.046" lon="125.97439">
        <ele>387.77</ele>
      </trkpt>
      <trkpt lat="7.046" lon="125.97434">
        <ele>387.2</ele>
      </trkpt>
      <trkpt lat="7.04601" lon="125.97428">
        <ele>386.28</ele>
      </trkpt>
      <trkpt lat="7.046" lon="125.97422">
        <ele>385.81</ele>
      </trkpt>
      <trkpt lat="7.04599" lon="125.97416">
        <ele>385.13</ele>
      </trkpt>
      <trkpt lat="7.04592" lon="125.97405">
        <ele>382.07</ele>
      </trkpt>
      <trkpt lat="7.04587" lon="125.974">
        <ele>380.04</ele>
      </trkpt>
      <trkpt lat="7.04582" lon="125.97391">
        <ele>375.4</ele>
      </trkpt>
      <trkpt lat="7.04577" lon="125.97382">
        <ele>367.89</ele>
      </trkpt>
      <trkpt lat="7.04574" lon="125.97374">
        <ele>361.48</ele>
      </trkpt>
      <trkpt lat="7.04571" lon="125.97363">
        <ele>353.24</ele>
      </trkpt>
      <trkpt lat="7.04568" lon="125.97356">
        <ele>347.97</ele>
      </trkpt>
      <trkpt lat="7.04562" lon="125.97344">
        <ele>338.43</ele>
      </trkpt>
      <trkpt lat="7.04556" lon="125.97333">
        <ele>329.15</ele>
      </trkpt>
      <trkpt lat="7.04552" lon="125.97324">
        <ele>327.05</ele>
      </trkpt>
      <trkpt lat="7.04549" lon="125.97319">
        <ele>325.55</ele>
      </trkpt>
      <trkpt lat="7.04534" lon="125.97296">
        <ele>315.38</ele>
      </trkpt>
      <trkpt lat="7.04529" lon="125.97287">
        <ele>310.52</ele>
      </trkpt>
      <trkpt lat="7.04526" lon="125.97276">
        <ele>305.67</ele>
      </trkpt>
      <trkpt lat="7.04522" lon="125.97268">
        <ele>301.27</ele>
      </trkpt>
      <trkpt lat="7.04517" lon="125.97258">
        <ele>296.12</ele>
      </trkpt>
      <trkpt lat="7.04516" lon="125.97249">
        <ele>292.61</ele>
      </trkpt>
      <trkpt lat="7.04515" lon="125.9724">
        <ele>288.7</ele>
      </trkpt>
      <trkpt lat="7.04511" lon="125.97235">
        <ele>286.28</ele>
      </trkpt>
      <trkpt lat="7.04505" lon="125.9723">
        <ele>284.18</ele>
      </trkpt>
      <trkpt lat="7.04501" lon="125.97223">
        <ele>282.17</ele>
      </trkpt>
      <trkpt lat="7.045" lon="125.97214">
        <ele>279.34</ele>
      </trkpt>
      <trkpt lat="7.045" lon="125.97204">
        <ele>276.1</ele>
      </trkpt>
      <trkpt lat="7.04501" lon="125.97189">
        <ele>269.28</ele>
      </trkpt>
      <trkpt lat="7.04503" lon="125.97178">
        <ele>261.68</ele>
      </trkpt>
      <trkpt lat="7.04508" lon="125.97154">
        <ele>247.97</ele>
      </trkpt>
      <trkpt lat="7.04508" lon="125.97142">
        <ele>242.11</ele>
      </trkpt>
      <trkpt lat="7.04506" lon="125.97132">
        <ele>237.6</ele>
      </trkpt>
      <trkpt lat="7.04503" lon="125.97126">
        <ele>234.7</ele>
      </trkpt>
      <trkpt lat="7.04497" lon="125.97109">
        <ele>229.39</ele>
      </trkpt>
      <trkpt lat="7.04496" lon="125.97098">
        <ele>227.78</ele>
      </trkpt>
      <trkpt lat="7.04496" lon="125.97086">
        <ele>225.75</ele>
      </trkpt>
      <trkpt lat="7.04496" lon="125.97077">
        <ele>223.11</ele>
      </trkpt>
      <trkpt lat="7.04492" lon="125.97068">
        <ele>220.99</ele>
      </trkpt>
      <trkpt lat="7.04486" lon="125.97055">
        <ele>217.24</ele>
      </trkpt>
      <trkpt lat="7.04477" lon="125.97035">
        <ele>208.29</ele>
      </trkpt>
      <trkpt lat="7.0447" lon="125.97018">
        <ele>198.77</ele>
      </trkpt>
      <trkpt lat="7.04468" lon="125.97013">
        <ele>195.53</ele>
      </trkpt>
      <trkpt lat="7.04465" lon="125.97004">
        <ele>190.26</ele>
      </trkpt>
      <trkpt lat="7.04463" lon="125.97001">
        <ele>188.5</ele>
      </trkpt>
      <trkpt lat="7.04458" lon="125.96996">
        <ele>185.88</ele>
      </trkpt>
      <trkpt lat="7.0445" lon="125.96992">
        <ele>183.6</ele>
      </trkpt>
      <trkpt lat="7.04443" lon="125.96988">
        <ele>181.04</ele>
      </trkpt>
      <trkpt lat="7.04443" lon="125.96963">
        <ele>170.69</ele>
      </trkpt>
      <trkpt lat="7.04441" lon="125.96956">
        <ele>166.38</ele>
      </trkpt>
      <trkpt lat="7.04438" lon="125.96949">
        <ele>161.82</ele>
      </trkpt>
      <trkpt lat="7.04433" lon="125.96945">
        <ele>158.13</ele>
      </trkpt>
      <trkpt lat="7.04426" lon="125.96941">
        <ele>154.0</ele>
      </trkpt>
      <trkpt lat="7.04417" lon="125.96933">
        <ele>147.99</ele>
      </trkpt>
      <trkpt lat="7.04412" lon="125.96927">
        <ele>144.29</ele>
      </trkpt>
      <trkpt lat="7.04404" lon="125.96916">
        <ele>138.57</ele>
      </trkpt>
      <trkpt lat="7.04399" lon="125.96907">
        <ele>133.97</ele>
      </trkpt>
      <trkpt lat="7.04394" lon="125.969">
        <ele>129.91</ele>
      </trkpt>
      <trkpt lat="7.04385" lon="125.96892">
        <ele>125.04</ele>
      </trkpt>
      <trkpt lat="7.04376" lon="125.96885">
        <ele>123.38</ele>
      </trkpt>
      <trkpt lat="7.04373" lon="125.96881">
        <ele>122.7</ele>
      </trkpt>
      <trkpt lat="7.04373" lon="125.96881">
        <ele>122.7</ele>
      </trkpt>
      <trkpt lat="7.0437" lon="125.96877">
        <ele>122.0</ele>
      </trkpt>
      <trkpt lat="7.04361" lon="125.96864">
        <ele>119.52</ele>
      </trkpt>
      <trkpt lat="7.04353" lon="125.96855">
        <ele>118.16</ele>
      </trkpt>
      <trkpt lat="7.04344" lon="125.96848">
        <ele>116.56</ele>
      </trkpt>
      <trkpt lat="7.04335" lon="125.96838">
        <ele>113.48</ele>
      </trkpt>
      <trkpt lat="7.04327" lon="125.96828">
        <ele>110.0</ele>
      </trkpt>
      <trkpt lat="7.0432" lon="125.96821">
        <ele>106.46</ele>
      </trkpt>
      <trkpt lat="7.04311" lon="125.96813">
        <ele>100.7</ele>
      </trkpt>
      <trkpt lat="7.04301" lon="125.96805">
        <ele>94.36</ele>
      </trkpt>
      <trkpt lat="7.04294" lon="125.96796">
        <ele>88.29</ele>
      </trkpt>
      <trkpt lat="7.0429" lon="125.9679">
        <ele>83.91</ele>
      </trkpt>
      <trkpt lat="7.04289" lon="125.96783">
        <ele>79.21</ele>
      </trkpt>
      <trkpt lat="7.04288" lon="125.96774">
        <ele>74.2</ele>
      </trkpt>
      <trkpt lat="7.04285" lon="125.96766">
        <ele>70.67</ele>
      </trkpt>
      <trkpt lat="7.0428" lon="125.96761">
        <ele>67.98</ele>
      </trkpt>
      <trkpt lat="7.04273" lon="125.96755">
        <ele>64.95</ele>
      </trkpt>
      <trkpt lat="7.0427" lon="125.96751">
        <ele>62.98</ele>
      </trkpt>
      <trkpt lat="7.04266" lon="125.96741">
        <ele>61.91</ele>
      </trkpt>
      <trkpt lat="7.04266" lon="125.96733">
        <ele>61.93</ele>
      </trkpt>
      <trkpt lat="7.04268" lon="125.96724">
        <ele>61.51</ele>
      </trkpt>
      <trkpt lat="7.04273" lon="125.96715">
        <ele>57.47</ele>
      </trkpt>
      <trkpt lat="7.04279" lon="125.96706">
        <ele>53.12</ele>
      </trkpt>
      <trkpt lat="7.0428" lon="125.96697">
        <ele>49.84</ele>
      </trkpt>
      <trkpt lat="7.04279" lon="125.96684">
        <ele>47.06</ele>
      </trkpt>
      <trkpt lat="7.04276" lon="125.96676">
        <ele>45.64</ele>
      </trkpt>
      <trkpt lat="7.04274" lon="125.96668">
        <ele>43.88</ele>
      </trkpt>
      <trkpt lat="7.04274" lon="125.96663">
        <ele>42.76</ele>
      </trkpt>
      <trkpt lat="7.04277" lon="125.9666">
        <ele>42.46</ele>
      </trkpt>
      <trkpt lat="7.04282" lon="125.96658">
        <ele>42.3</ele>
      </trkpt>
      <trkpt lat="7.04287" lon="125.96657">
        <ele>42.4</ele>
      </trkpt>
      <trkpt lat="7.04292" lon="125.96655">
        <ele>42.61</ele>
      </trkpt>
      <trkpt lat="7.04296" lon="125.9665">
        <ele>43.02</ele>
      </trkpt>
      <trkpt lat="7.04298" lon="125.96646">
        <ele>43.5</ele>
      </trkpt>
      <trkpt lat="7.04303" lon="125.96639">
        <ele>45.25</ele>
      </trkpt>
      <trkpt lat="7.04311" lon="125.96631">
        <ele>42.57</ele>
      </trkpt>
      <trkpt lat="7.04323" lon="125.96622">
        <ele>40.87</ele>
      </trkpt>
      <trkpt lat="7.04329" lon="125.96616">
        <ele>41.59</ele>
      </trkpt>
      <trkpt lat="7.04332" lon="125.9661">
        <ele>42.27</ele>
      </trkpt>
      <trkpt lat="7.04333" lon="125.96603">
        <ele>40.01</ele>
      </trkpt>
      <trkpt lat="7.04334" lon="125.96592">
        <ele>36.18</ele>
      </trkpt>
      <trkpt lat="7.04336" lon="125.96581">
        <ele>33.44</ele>
      </trkpt>
      <trkpt lat="7.04338" lon="125.96572">
        <ele>33.47</ele>
      </trkpt>
      <trkpt lat="7.04339" lon="125.96559">
        <ele>33.19</ele>
      </trkpt>
      <trkpt lat="7.04336" lon="125.96546">
        <ele>30.24</ele>
      </trkpt>
      <trkpt lat="7.04332" lon="125.96538">
        <ele>27.82</ele>
      </trkpt>
      <trkpt lat="7.04327" lon="125.9654">
        <ele>28.1</ele>
      </trkpt>
    </trkseg>
  </trk>
</gpx>
