<?xml version="1.0"?>
<gpx xmlns="http://www.topografix.com/GPX/1/1" xmlns:xsi="http://www.w3.org/2001/XMLSchema-instance" version="1.1" creator="AllTrails.com" xsi:schemaLocation="http://www.topografix.com/GPX/1/1 http://www.topografix.com/GPX/1/1/gpx.xsd">
  <metadata>
    <name><![CDATA[Mount Dinor Trail]]></name>
    <desc><![CDATA[]]></desc>
    <link href="http://www.alltrails.com">
      <text>AllTrails, LLC</text>
    </link>
    <bounds minlat="6.84475" minlon="125.36994" maxlat="6.89707" maxlon="125.38885"/>
  </metadata>
  <trk>
    <name><![CDATA[Mount Dinor Trail]]></name>
    <src>AllTrails</src>
    <trkseg>
      <trkpt lat="6.84501" lon="125.38344">
        <ele>143.87</ele>
      </trkpt>
      <trkpt lat="6.84475" lon="125.38374">
        <ele>145.9</ele>
      </trkpt>
      <trkpt lat="6.84517" lon="125.38411">
        <ele>161.1</ele>
      </trkpt>
      <trkpt lat="6.84541" lon="125.38432">
        <ele>163.72</ele>
      </trkpt>
      <trkpt lat="6.84564" lon="125.38449">
        <ele>164.7</ele>
      </trkpt>
      <trkpt lat="6.84598" lon="125.38476">
        <ele>160.38</ele>
      </trkpt>
      <trkpt lat="6.8462" lon="125.38493">
        <ele>162.07</ele>
      </trkpt>
      <trkpt lat="6.84642" lon="125.3851">
        <ele>160.34</ele>
      </trkpt>
      <trkpt lat="6.84645" lon="125.38512">
        <ele>160.75</ele>
      </trkpt>
      <trkpt lat="6.84655" lon="125.38522">
        <ele>161.09</ele>
      </trkpt>
      <trkpt lat="6.84663" lon="125.38531">
        <ele>160.24</ele>
      </trkpt>
      <trkpt lat="6.84678" lon="125.38546">
        <ele>158.42</ele>
      </trkpt>
      <trkpt lat="6.84711" lon="125.38579">
        <ele>157.99</ele>
      </trkpt>
      <trkpt lat="6.84741" lon="125.38608">
        <ele>159.63</ele>
      </trkpt>
      <trkpt lat="6.84792" lon="125.38651">
        <ele>152.17</ele>
      </trkpt>
      <trkpt lat="6.84829" lon="125.38687">
        <ele>150.82</ele>
      </trkpt>
      <trkpt lat="6.84859" lon="125.38717">
        <ele>152.4</ele>
      </trkpt>
      <trkpt lat="6.84869" lon="125.3873">
        <ele>156.96</ele>
      </trkpt>
      <trkpt lat="6.84878" lon="125.38744">
        <ele>157.74</ele>
      </trkpt>
      <trkpt lat="6.84885" lon="125.38757">
        <ele>156.15</ele>
      </trkpt>
      <trkpt lat="6.84891" lon="125.38776">
        <ele>153.6</ele>
      </trkpt>
      <trkpt lat="6.84895" lon="125.38792">
        <ele>158.03</ele>
      </trkpt>
      <trkpt lat="6.849" lon="125.38814">
        <ele>162.62</ele>
      </trkpt>
      <trkpt lat="6.84905" lon="125.38835">
        <ele>164.59</ele>
      </trkpt>
      <trkpt lat="6.84911" lon="125.38848">
        <ele>166.73</ele>
      </trkpt>
      <trkpt lat="6.84921" lon="125.3886">
        <ele>167.13</ele>
      </trkpt>
      <trkpt lat="6.84934" lon="125.38866">
        <ele>166.12</ele>
      </trkpt>
      <trkpt lat="6.84951" lon="125.38868">
        <ele>164.82</ele>
      </trkpt>
      <trkpt lat="6.84974" lon="125.38866">
        <ele>162.64</ele>
      </trkpt>
      <trkpt lat="6.85036" lon="125.38858">
        <ele>180.33</ele>
      </trkpt>
      <trkpt lat="6.85066" lon="125.38856">
        <ele>183.22</ele>
      </trkpt>
      <trkpt lat="6.85089" lon="125.38855">
        <ele>182.47</ele>
      </trkpt>
      <trkpt lat="6.85115" lon="125.38857">
        <ele>187.83</ele>
      </trkpt>
      <trkpt lat="6.8515" lon="125.38854">
        <ele>201.65</ele>
      </trkpt>
      <trkpt lat="6.85172" lon="125.38851">
        <ele>207.85</ele>
      </trkpt>
      <trkpt lat="6.85191" lon="125.3885">
        <ele>204.92</ele>
      </trkpt>
      <trkpt lat="6.85217" lon="125.38851">
        <ele>202.12</ele>
      </trkpt>
      <trkpt lat="6.85243" lon="125.38849">
        <ele>203.73</ele>
      </trkpt>
      <trkpt lat="6.85264" lon="125.38846">
        <ele>206.11</ele>
      </trkpt>
      <trkpt lat="6.85283" lon="125.38844">
        <ele>207.82</ele>
      </trkpt>
      <trkpt lat="6.8531" lon="125.38846">
        <ele>206.94</ele>
      </trkpt>
      <trkpt lat="6.85342" lon="125.38852">
        <ele>206.27</ele>
      </trkpt>
      <trkpt lat="6.8537" lon="125.38856">
        <ele>212.07</ele>
      </trkpt>
      <trkpt lat="6.85407" lon="125.38858">
        <ele>219.8</ele>
      </trkpt>
      <trkpt lat="6.85437" lon="125.38859">
        <ele>228.33</ele>
      </trkpt>
      <trkpt lat="6.85459" lon="125.38864">
        <ele>230.13</ele>
      </trkpt>
      <trkpt lat="6.85475" lon="125.38869">
        <ele>229.48</ele>
      </trkpt>
      <trkpt lat="6.85489" lon="125.38875">
        <ele>229.22</ele>
      </trkpt>
      <trkpt lat="6.85505" lon="125.38879">
        <ele>228.04</ele>
      </trkpt>
      <trkpt lat="6.85521" lon="125.38882">
        <ele>225.15</ele>
      </trkpt>
      <trkpt lat="6.85543" lon="125.38885">
        <ele>220.67</ele>
      </trkpt>
      <trkpt lat="6.85565" lon="125.38884">
        <ele>221.38</ele>
      </trkpt>
      <trkpt lat="6.85592" lon="125.38879">
        <ele>232.08</ele>
      </trkpt>
      <trkpt lat="6.85627" lon="125.38874">
        <ele>240.97</ele>
      </trkpt>
      <trkpt lat="6.85656" lon="125.38868">
        <ele>238.49</ele>
      </trkpt>
      <trkpt lat="6.85678" lon="125.38862">
        <ele>234.43</ele>
      </trkpt>
      <trkpt lat="6.85704" lon="125.38852">
        <ele>233.21</ele>
      </trkpt>
      <trkpt lat="6.8572" lon="125.38845">
        <ele>235.12</ele>
      </trkpt>
      <trkpt lat="6.85731" lon="125.38842">
        <ele>236.06</ele>
      </trkpt>
      <trkpt lat="6.85745" lon="125.38839">
        <ele>236.89</ele>
      </trkpt>
      <trkpt lat="6.85767" lon="125.38837">
        <ele>240.41</ele>
      </trkpt>
      <trkpt lat="6.85783" lon="125.38835">
        <ele>243.91</ele>
      </trkpt>
      <trkpt lat="6.85792" lon="125.38832">
        <ele>246.09</ele>
      </trkpt>
      <trkpt lat="6.85803" lon="125.38827">
        <ele>248.64</ele>
      </trkpt>
      <trkpt lat="6.85813" lon="125.38825">
        <ele>249.22</ele>
      </trkpt>
      <trkpt lat="6.85824" lon="125.38821">
        <ele>250.59</ele>
      </trkpt>
      <trkpt lat="6.85833" lon="125.3882">
        <ele>250.73</ele>
      </trkpt>
      <trkpt lat="6.85846" lon="125.3882">
        <ele>248.82</ele>
      </trkpt>
      <trkpt lat="6.85857" lon="125.38821">
        <ele>246.43</ele>
      </trkpt>
      <trkpt lat="6.85865" lon="125.38821">
        <ele>246.87</ele>
      </trkpt>
      <trkpt lat="6.85872" lon="125.38819">
        <ele>250.5</ele>
      </trkpt>
      <trkpt lat="6.85885" lon="125.38818">
        <ele>255.11</ele>
      </trkpt>
      <trkpt lat="6.85897" lon="125.38816">
        <ele>259.51</ele>
      </trkpt>
      <trkpt lat="6.85905" lon="125.38816">
        <ele>261.03</ele>
      </trkpt>
      <trkpt lat="6.85911" lon="125.38816">
        <ele>262.17</ele>
      </trkpt>
      <trkpt lat="6.85919" lon="125.38818">
        <ele>262.77</ele>
      </trkpt>
      <trkpt lat="6.85927" lon="125.38819">
        <ele>263.28</ele>
      </trkpt>
      <trkpt lat="6.85935" lon="125.38819">
        <ele>264.14</ele>
      </trkpt>
      <trkpt lat="6.85942" lon="125.38818">
        <ele>265.26</ele>
      </trkpt>
      <trkpt lat="6.85949" lon="125.38816">
        <ele>266.57</ele>
      </trkpt>
      <trkpt lat="6.85951" lon="125.38814">
        <ele>267.43</ele>
      </trkpt>
      <trkpt lat="6.85954" lon="125.38811">
        <ele>268.73</ele>
      </trkpt>
      <trkpt lat="6.85957" lon="125.38807">
        <ele>270.38</ele>
      </trkpt>
      <trkpt lat="6.85959" lon="125.38805">
        <ele>271.25</ele>
      </trkpt>
      <trkpt lat="6.85962" lon="125.38804">
        <ele>271.84</ele>
      </trkpt>
      <trkpt lat="6.85964" lon="125.38804">
        <ele>271.99</ele>
      </trkpt>
      <trkpt lat="6.85969" lon="125.38803">
        <ele>272.76</ele>
      </trkpt>
      <trkpt lat="6.85983" lon="125.38805">
        <ele>273.38</ele>
      </trkpt>
      <trkpt lat="6.85995" lon="125.38807">
        <ele>273.94</ele>
      </trkpt>
      <trkpt lat="6.86014" lon="125.38808">
        <ele>274.12</ele>
      </trkpt>
      <trkpt lat="6.86041" lon="125.38808">
        <ele>274.6</ele>
      </trkpt>
      <trkpt lat="6.86059" lon="125.38806">
        <ele>275.84</ele>
      </trkpt>
      <trkpt lat="6.8608" lon="125.38805">
        <ele>276.18</ele>
      </trkpt>
      <trkpt lat="6.86087" lon="125.38806">
        <ele>275.57</ele>
      </trkpt>
      <trkpt lat="6.86092" lon="125.38807">
        <ele>274.84</ele>
      </trkpt>
      <trkpt lat="6.86102" lon="125.38809">
        <ele>273.33</ele>
      </trkpt>
      <trkpt lat="6.86116" lon="125.38811">
        <ele>271.56</ele>
      </trkpt>
      <trkpt lat="6.86136" lon="125.3881">
        <ele>270.91</ele>
      </trkpt>
      <trkpt lat="6.86158" lon="125.38806">
        <ele>271.39</ele>
      </trkpt>
      <trkpt lat="6.86187" lon="125.388">
        <ele>273.85</ele>
      </trkpt>
      <trkpt lat="6.86212" lon="125.38794">
        <ele>276.56</ele>
      </trkpt>
      <trkpt lat="6.86226" lon="125.38791">
        <ele>277.73</ele>
      </trkpt>
      <trkpt lat="6.86246" lon="125.38784">
        <ele>279.95</ele>
      </trkpt>
      <trkpt lat="6.86255" lon="125.38781">
        <ele>281.02</ele>
      </trkpt>
      <trkpt lat="6.86262" lon="125.38776">
        <ele>283.08</ele>
      </trkpt>
      <trkpt lat="6.86273" lon="125.38766">
        <ele>286.79</ele>
      </trkpt>
      <trkpt lat="6.86279" lon="125.38761">
        <ele>288.44</ele>
      </trkpt>
      <trkpt lat="6.86284" lon="125.38755">
        <ele>290.38</ele>
      </trkpt>
      <trkpt lat="6.86289" lon="125.38753">
        <ele>291.03</ele>
      </trkpt>
      <trkpt lat="6.86298" lon="125.3875">
        <ele>292.0</ele>
      </trkpt>
      <trkpt lat="6.86317" lon="125.38746">
        <ele>293.4</ele>
      </trkpt>
      <trkpt lat="6.86329" lon="125.38744">
        <ele>293.78</ele>
      </trkpt>
      <trkpt lat="6.86339" lon="125.38739">
        <ele>296.08</ele>
      </trkpt>
      <trkpt lat="6.86348" lon="125.38733">
        <ele>299.08</ele>
      </trkpt>
      <trkpt lat="6.8636" lon="125.38727">
        <ele>302.06</ele>
      </trkpt>
      <trkpt lat="6.86375" lon="125.38718">
        <ele>306.1</ele>
      </trkpt>
      <trkpt lat="6.86426" lon="125.38678">
        <ele>319.52</ele>
      </trkpt>
      <trkpt lat="6.86437" lon="125.3867">
        <ele>321.37</ele>
      </trkpt>
      <trkpt lat="6.86449" lon="125.38662">
        <ele>324.13</ele>
      </trkpt>
      <trkpt lat="6.86452" lon="125.38659">
        <ele>325.44</ele>
      </trkpt>
      <trkpt lat="6.86453" lon="125.38655">
        <ele>327.31</ele>
      </trkpt>
      <trkpt lat="6.86454" lon="125.38651">
        <ele>329.16</ele>
      </trkpt>
      <trkpt lat="6.86455" lon="125.38644">
        <ele>332.42</ele>
      </trkpt>
      <trkpt lat="6.86456" lon="125.3864">
        <ele>334.23</ele>
      </trkpt>
      <trkpt lat="6.86459" lon="125.38637">
        <ele>335.28</ele>
      </trkpt>
      <trkpt lat="6.86463" lon="125.38635">
        <ele>335.72</ele>
      </trkpt>
      <trkpt lat="6.8647" lon="125.38633">
        <ele>335.8</ele>
      </trkpt>
      <trkpt lat="6.86484" lon="125.38629">
        <ele>335.85</ele>
      </trkpt>
      <trkpt lat="6.86509" lon="125.3862">
        <ele>335.96</ele>
      </trkpt>
      <trkpt lat="6.86529" lon="125.38607">
        <ele>337.25</ele>
      </trkpt>
      <trkpt lat="6.86545" lon="125.38596">
        <ele>338.0</ele>
      </trkpt>
      <trkpt lat="6.86558" lon="125.38588">
        <ele>337.96</ele>
      </trkpt>
      <trkpt lat="6.86575" lon="125.38582">
        <ele>336.46</ele>
      </trkpt>
      <trkpt lat="6.86599" lon="125.3857">
        <ele>338.46</ele>
      </trkpt>
      <trkpt lat="6.86621" lon="125.38562">
        <ele>339.33</ele>
      </trkpt>
      <trkpt lat="6.86644" lon="125.38556">
        <ele>339.04</ele>
      </trkpt>
      <trkpt lat="6.86664" lon="125.38549">
        <ele>339.45</ele>
      </trkpt>
      <trkpt lat="6.86682" lon="125.38541">
        <ele>340.6</ele>
      </trkpt>
      <trkpt lat="6.86695" lon="125.38534">
        <ele>342.0</ele>
      </trkpt>
      <trkpt lat="6.86705" lon="125.38526">
        <ele>343.87</ele>
      </trkpt>
      <trkpt lat="6.86715" lon="125.38516">
        <ele>346.39</ele>
      </trkpt>
      <trkpt lat="6.86726" lon="125.38507">
        <ele>348.23</ele>
      </trkpt>
      <trkpt lat="6.86739" lon="125.38497">
        <ele>349.5</ele>
      </trkpt>
      <trkpt lat="6.86758" lon="125.38484">
        <ele>350.85</ele>
      </trkpt>
      <trkpt lat="6.86768" lon="125.38477">
        <ele>351.91</ele>
      </trkpt>
      <trkpt lat="6.86776" lon="125.38469">
        <ele>353.09</ele>
      </trkpt>
      <trkpt lat="6.86787" lon="125.38449">
        <ele>355.97</ele>
      </trkpt>
      <trkpt lat="6.868" lon="125.3842">
        <ele>359.13</ele>
      </trkpt>
      <trkpt lat="6.86809" lon="125.38381">
        <ele>360.83</ele>
      </trkpt>
      <trkpt lat="6.8682" lon="125.38336">
        <ele>361.0</ele>
      </trkpt>
      <trkpt lat="6.86826" lon="125.38287">
        <ele>367.26</ele>
      </trkpt>
      <trkpt lat="6.86829" lon="125.38236">
        <ele>373.45</ele>
      </trkpt>
      <trkpt lat="6.86829" lon="125.38204">
        <ele>374.79</ele>
      </trkpt>
      <trkpt lat="6.86831" lon="125.38188">
        <ele>374.43</ele>
      </trkpt>
      <trkpt lat="6.86834" lon="125.38175">
        <ele>373.44</ele>
      </trkpt>
      <trkpt lat="6.86843" lon="125.38151">
        <ele>371.3</ele>
      </trkpt>
      <trkpt lat="6.86847" lon="125.3813">
        <ele>371.22</ele>
      </trkpt>
      <trkpt lat="6.86848" lon="125.38115">
        <ele>371.96</ele>
      </trkpt>
      <trkpt lat="6.86845" lon="125.38103">
        <ele>373.8</ele>
      </trkpt>
      <trkpt lat="6.8684" lon="125.3809">
        <ele>376.36</ele>
      </trkpt>
      <trkpt lat="6.86839" lon="125.38076">
        <ele>378.17</ele>
      </trkpt>
      <trkpt lat="6.86841" lon="125.38061">
        <ele>379.51</ele>
      </trkpt>
      <trkpt lat="6.86847" lon="125.38048">
        <ele>378.9</ele>
      </trkpt>
      <trkpt lat="6.86854" lon="125.38037">
        <ele>377.56</ele>
      </trkpt>
      <trkpt lat="6.86871" lon="125.38019">
        <ele>373.28</ele>
      </trkpt>
      <trkpt lat="6.86881" lon="125.38007">
        <ele>370.55</ele>
      </trkpt>
      <trkpt lat="6.8689" lon="125.37992">
        <ele>369.88</ele>
      </trkpt>
      <trkpt lat="6.86899" lon="125.37981">
        <ele>369.72</ele>
      </trkpt>
      <trkpt lat="6.86905" lon="125.37973">
        <ele>369.96</ele>
      </trkpt>
      <trkpt lat="6.86912" lon="125.37965">
        <ele>370.02</ele>
      </trkpt>
      <trkpt lat="6.86918" lon="125.37958">
        <ele>370.7</ele>
      </trkpt>
      <trkpt lat="6.86922" lon="125.37954">
        <ele>372.17</ele>
      </trkpt>
      <trkpt lat="6.86926" lon="125.37949">
        <ele>373.74</ele>
      </trkpt>
      <trkpt lat="6.8693" lon="125.37942">
        <ele>375.62</ele>
      </trkpt>
      <trkpt lat="6.86933" lon="125.37936">
        <ele>377.02</ele>
      </trkpt>
      <trkpt lat="6.86936" lon="125.37928">
        <ele>378.68</ele>
      </trkpt>
      <trkpt lat="6.86939" lon="125.37919">
        <ele>380.3</ele>
      </trkpt>
      <trkpt lat="6.86945" lon="125.37909">
        <ele>381.85</ele>
      </trkpt>
      <trkpt lat="6.86952" lon="125.37901">
        <ele>382.52</ele>
      </trkpt>
      <trkpt lat="6.8696" lon="125.37895">
        <ele>382.03</ele>
      </trkpt>
      <trkpt lat="6.86969" lon="125.37889">
        <ele>380.8</ele>
      </trkpt>
      <trkpt lat="6.86979" lon="125.37879">
        <ele>379.46</ele>
      </trkpt>
      <trkpt lat="6.86979" lon="125.37879">
        <ele>379.46</ele>
      </trkpt>
      <trkpt lat="6.86985" lon="125.37874">
        <ele>378.18</ele>
      </trkpt>
      <trkpt lat="6.86991" lon="125.37865">
        <ele>376.96</ele>
      </trkpt>
      <trkpt lat="6.86995" lon="125.37857">
        <ele>375.88</ele>
      </trkpt>
      <trkpt lat="6.86997" lon="125.37847">
        <ele>375.24</ele>
      </trkpt>
      <trkpt lat="6.86997" lon="125.37842">
        <ele>375.3</ele>
      </trkpt>
      <trkpt lat="6.86994" lon="125.37836">
        <ele>376.75</ele>
      </trkpt>
      <trkpt lat="6.86987" lon="125.37829">
        <ele>381.18</ele>
      </trkpt>
      <trkpt lat="6.86985" lon="125.37825">
        <ele>383.12</ele>
      </trkpt>
      <trkpt lat="6.86983" lon="125.3782">
        <ele>385.32</ele>
      </trkpt>
      <trkpt lat="6.86983" lon="125.37816">
        <ele>386.32</ele>
      </trkpt>
      <trkpt lat="6.86984" lon="125.37811">
        <ele>387.12</ele>
      </trkpt>
      <trkpt lat="6.86986" lon="125.37808">
        <ele>386.94</ele>
      </trkpt>
      <trkpt lat="6.8699" lon="125.37804">
        <ele>386.11</ele>
      </trkpt>
      <trkpt lat="6.86996" lon="125.37801">
        <ele>384.16</ele>
      </trkpt>
      <trkpt lat="6.8702" lon="125.37789">
        <ele>388.95</ele>
      </trkpt>
      <trkpt lat="6.87027" lon="125.37784">
        <ele>390.46</ele>
      </trkpt>
      <trkpt lat="6.87031" lon="125.3778">
        <ele>391.23</ele>
      </trkpt>
      <trkpt lat="6.87036" lon="125.37774">
        <ele>392.13</ele>
      </trkpt>
      <trkpt lat="6.87039" lon="125.37766">
        <ele>392.8</ele>
      </trkpt>
      <trkpt lat="6.87044" lon="125.37754">
        <ele>393.32</ele>
      </trkpt>
      <trkpt lat="6.8705" lon="125.37747">
        <ele>393.5</ele>
      </trkpt>
      <trkpt lat="6.87055" lon="125.37741">
        <ele>393.69</ele>
      </trkpt>
      <trkpt lat="6.87059" lon="125.3774">
        <ele>393.34</ele>
      </trkpt>
      <trkpt lat="6.87095" lon="125.37743">
        <ele>393.06</ele>
      </trkpt>
      <trkpt lat="6.87097" lon="125.37746">
        <ele>393.46</ele>
      </trkpt>
      <trkpt lat="6.87104" lon="125.3775">
        <ele>394.72</ele>
      </trkpt>
      <trkpt lat="6.87114" lon="125.37751">
        <ele>396.82</ele>
      </trkpt>
      <trkpt lat="6.87122" lon="125.37754">
        <ele>399.22</ele>
      </trkpt>
      <trkpt lat="6.87125" lon="125.3776">
        <ele>401.74</ele>
      </trkpt>
      <trkpt lat="6.8713" lon="125.37767">
        <ele>405.13</ele>
      </trkpt>
      <trkpt lat="6.87139" lon="125.3777">
        <ele>408.23</ele>
      </trkpt>
      <trkpt lat="6.87175" lon="125.37795">
        <ele>425.3</ele>
      </trkpt>
      <trkpt lat="6.87197" lon="125.37808">
        <ele>428.32</ele>
      </trkpt>
      <trkpt lat="6.87223" lon="125.37816">
        <ele>426.4</ele>
      </trkpt>
      <trkpt lat="6.87235" lon="125.37823">
        <ele>425.15</ele>
      </trkpt>
      <trkpt lat="6.87235" lon="125.37823">
        <ele>425.15</ele>
      </trkpt>
      <trkpt lat="6.87252" lon="125.37832">
        <ele>422.21</ele>
      </trkpt>
      <trkpt lat="6.87285" lon="125.37856">
        <ele>430.97</ele>
      </trkpt>
      <trkpt lat="6.87298" lon="125.37869">
        <ele>433.35</ele>
      </trkpt>
      <trkpt lat="6.87309" lon="125.37885">
        <ele>434.5</ele>
      </trkpt>
      <trkpt lat="6.87318" lon="125.37906">
        <ele>434.84</ele>
      </trkpt>
      <trkpt lat="6.87324" lon="125.37917">
        <ele>433.85</ele>
      </trkpt>
      <trkpt lat="6.8733" lon="125.3792">
        <ele>432.79</ele>
      </trkpt>
      <trkpt lat="6.87335" lon="125.3792">
        <ele>431.94</ele>
      </trkpt>
      <trkpt lat="6.87338" lon="125.37919">
        <ele>432.45</ele>
      </trkpt>
      <trkpt lat="6.87342" lon="125.37916">
        <ele>432.8</ele>
      </trkpt>
      <trkpt lat="6.87345" lon="125.37912">
        <ele>433.75</ele>
      </trkpt>
      <trkpt lat="6.87346" lon="125.37902">
        <ele>434.06</ele>
      </trkpt>
      <trkpt lat="6.87345" lon="125.37887">
        <ele>433.61</ele>
      </trkpt>
      <trkpt lat="6.87346" lon="125.37878">
        <ele>433.98</ele>
      </trkpt>
      <trkpt lat="6.87348" lon="125.37874">
        <ele>434.84</ele>
      </trkpt>
      <trkpt lat="6.87348" lon="125.37874">
        <ele>434.84</ele>
      </trkpt>
      <trkpt lat="6.87349" lon="125.37871">
        <ele>435.29</ele>
      </trkpt>
      <trkpt lat="6.87369" lon="125.37866">
        <ele>444.42</ele>
      </trkpt>
      <trkpt lat="6.87384" lon="125.37866">
        <ele>451.25</ele>
      </trkpt>
      <trkpt lat="6.87396" lon="125.37867">
        <ele>456.53</ele>
      </trkpt>
      <trkpt lat="6.87409" lon="125.37866">
        <ele>462.5</ele>
      </trkpt>
      <trkpt lat="6.87419" lon="125.3786">
        <ele>468.3</ele>
      </trkpt>
      <trkpt lat="6.87425" lon="125.37864">
        <ele>470.28</ele>
      </trkpt>
      <trkpt lat="6.87429" lon="125.37865">
        <ele>471.93</ele>
      </trkpt>
      <trkpt lat="6.87435" lon="125.37865">
        <ele>474.74</ele>
      </trkpt>
      <trkpt lat="6.87441" lon="125.37863">
        <ele>477.98</ele>
      </trkpt>
      <trkpt lat="6.87447" lon="125.37858">
        <ele>481.96</ele>
      </trkpt>
      <trkpt lat="6.87452" lon="125.3785">
        <ele>486.21</ele>
      </trkpt>
      <trkpt lat="6.8748" lon="125.37794">
        <ele>522.04</ele>
      </trkpt>
      <trkpt lat="6.87458" lon="125.37781">
        <ele>523.07</ele>
      </trkpt>
      <trkpt lat="6.87447" lon="125.37777">
        <ele>523.05</ele>
      </trkpt>
      <trkpt lat="6.87438" lon="125.37774">
        <ele>523.41</ele>
      </trkpt>
      <trkpt lat="6.87429" lon="125.37769">
        <ele>525.61</ele>
      </trkpt>
      <trkpt lat="6.87422" lon="125.37767">
        <ele>526.2</ele>
      </trkpt>
      <trkpt lat="6.87417" lon="125.37768">
        <ele>524.79</ele>
      </trkpt>
      <trkpt lat="6.87411" lon="125.37769">
        <ele>520.69</ele>
      </trkpt>
      <trkpt lat="6.87414" lon="125.37773">
        <ele>519.25</ele>
      </trkpt>
      <trkpt lat="6.87414" lon="125.37773">
        <ele>519.25</ele>
      </trkpt>
      <trkpt lat="6.87411" lon="125.37769">
        <ele>520.69</ele>
      </trkpt>
      <trkpt lat="6.87403" lon="125.3776">
        <ele>523.21</ele>
      </trkpt>
      <trkpt lat="6.87386" lon="125.37748">
        <ele>521.63</ele>
      </trkpt>
      <trkpt lat="6.87371" lon="125.37743">
        <ele>513.87</ele>
      </trkpt>
      <trkpt lat="6.87352" lon="125.37725">
        <ele>506.84</ele>
      </trkpt>
      <trkpt lat="6.87349" lon="125.37718">
        <ele>506.87</ele>
      </trkpt>
      <trkpt lat="6.87348" lon="125.37705">
        <ele>509.4</ele>
      </trkpt>
      <trkpt lat="6.87356" lon="125.37693">
        <ele>515.89</ele>
      </trkpt>
      <trkpt lat="6.8737" lon="125.37686">
        <ele>523.58</ele>
      </trkpt>
      <trkpt lat="6.87379" lon="125.37684">
        <ele>528.01</ele>
      </trkpt>
      <trkpt lat="6.87396" lon="125.37679">
        <ele>536.27</ele>
      </trkpt>
      <trkpt lat="6.87404" lon="125.37674">
        <ele>540.22</ele>
      </trkpt>
      <trkpt lat="6.87412" lon="125.37664">
        <ele>543.67</ele>
      </trkpt>
      <trkpt lat="6.87421" lon="125.37629">
        <ele>540.69</ele>
      </trkpt>
      <trkpt lat="6.87432" lon="125.37607">
        <ele>541.44</ele>
      </trkpt>
      <trkpt lat="6.87441" lon="125.37598">
        <ele>544.03</ele>
      </trkpt>
      <trkpt lat="6.8745" lon="125.37591">
        <ele>546.92</ele>
      </trkpt>
      <trkpt lat="6.87457" lon="125.37585">
        <ele>549.15</ele>
      </trkpt>
      <trkpt lat="6.87463" lon="125.3758">
        <ele>552.36</ele>
      </trkpt>
      <trkpt lat="6.87468" lon="125.37572">
        <ele>556.41</ele>
      </trkpt>
      <trkpt lat="6.87466" lon="125.37557">
        <ele>558.56</ele>
      </trkpt>
      <trkpt lat="6.87462" lon="125.37547">
        <ele>558.7</ele>
      </trkpt>
      <trkpt lat="6.87446" lon="125.37527">
        <ele>554.93</ele>
      </trkpt>
      <trkpt lat="6.87435" lon="125.37505">
        <ele>553.0</ele>
      </trkpt>
      <trkpt lat="6.87424" lon="125.3747">
        <ele>560.86</ele>
      </trkpt>
      <trkpt lat="6.87416" lon="125.37455">
        <ele>562.5</ele>
      </trkpt>
      <trkpt lat="6.87408" lon="125.37442">
        <ele>563.61</ele>
      </trkpt>
      <trkpt lat="6.87394" lon="125.37421">
        <ele>563.64</ele>
      </trkpt>
      <trkpt lat="6.87393" lon="125.37401">
        <ele>566.94</ele>
      </trkpt>
      <trkpt lat="6.87398" lon="125.37387">
        <ele>572.57</ele>
      </trkpt>
      <trkpt lat="6.87401" lon="125.37382">
        <ele>575.52</ele>
      </trkpt>
      <trkpt lat="6.87401" lon="125.37382">
        <ele>575.52</ele>
      </trkpt>
      <trkpt lat="6.87403" lon="125.37379">
        <ele>577.43</ele>
      </trkpt>
      <trkpt lat="6.87407" lon="125.37368">
        <ele>582.15</ele>
      </trkpt>
      <trkpt lat="6.87406" lon="125.37353">
        <ele>584.34</ele>
      </trkpt>
      <trkpt lat="6.87399" lon="125.37336">
        <ele>582.77</ele>
      </trkpt>
      <trkpt lat="6.87394" lon="125.37327">
        <ele>579.18</ele>
      </trkpt>
      <trkpt lat="6.8739" lon="125.37318">
        <ele>575.67</ele>
      </trkpt>
      <trkpt lat="6.87388" lon="125.3731">
        <ele>573.73</ele>
      </trkpt>
      <trkpt lat="6.87388" lon="125.37301">
        <ele>573.27</ele>
      </trkpt>
      <trkpt lat="6.87391" lon="125.37295">
        <ele>574.98</ele>
      </trkpt>
      <trkpt lat="6.87402" lon="125.37282">
        <ele>580.92</ele>
      </trkpt>
      <trkpt lat="6.87411" lon="125.37271">
        <ele>585.05</ele>
      </trkpt>
      <trkpt lat="6.87419" lon="125.37258">
        <ele>588.06</ele>
      </trkpt>
      <trkpt lat="6.87423" lon="125.3722">
        <ele>589.42</ele>
      </trkpt>
      <trkpt lat="6.87419" lon="125.372">
        <ele>587.26</ele>
      </trkpt>
      <trkpt lat="6.87415" lon="125.37185">
        <ele>585.3</ele>
      </trkpt>
      <trkpt lat="6.87412" lon="125.37173">
        <ele>584.11</ele>
      </trkpt>
      <trkpt lat="6.87415" lon="125.37157">
        <ele>587.71</ele>
      </trkpt>
      <trkpt lat="6.87419" lon="125.3715">
        <ele>591.44</ele>
      </trkpt>
      <trkpt lat="6.87423" lon="125.37134">
        <ele>597.38</ele>
      </trkpt>
      <trkpt lat="6.87422" lon="125.37119">
        <ele>600.56</ele>
      </trkpt>
      <trkpt lat="6.87415" lon="125.37101">
        <ele>601.52</ele>
      </trkpt>
      <trkpt lat="6.87403" lon="125.37084">
        <ele>597.52</ele>
      </trkpt>
      <trkpt lat="6.87396" lon="125.37074">
        <ele>593.36</ele>
      </trkpt>
      <trkpt lat="6.87391" lon="125.37061">
        <ele>590.93</ele>
      </trkpt>
      <trkpt lat="6.87391" lon="125.3705">
        <ele>591.86</ele>
      </trkpt>
      <trkpt lat="6.87395" lon="125.37039">
        <ele>595.27</ele>
      </trkpt>
      <trkpt lat="6.87404" lon="125.37024">
        <ele>601.28</ele>
      </trkpt>
      <trkpt lat="6.87416" lon="125.37018">
        <ele>607.66</ele>
      </trkpt>
      <trkpt lat="6.87435" lon="125.37006">
        <ele>612.76</ele>
      </trkpt>
      <trkpt lat="6.87454" lon="125.37005">
        <ele>617.99</ele>
      </trkpt>
      <trkpt lat="6.8749" lon="125.36999">
        <ele>627.18</ele>
      </trkpt>
      <trkpt lat="6.87503" lon="125.36995">
        <ele>628.31</ele>
      </trkpt>
      <trkpt lat="6.87518" lon="125.36994">
        <ele>626.7</ele>
      </trkpt>
      <trkpt lat="6.87534" lon="125.36994">
        <ele>625.3</ele>
      </trkpt>
      <trkpt lat="6.87546" lon="125.36995">
        <ele>624.65</ele>
      </trkpt>
      <trkpt lat="6.87561" lon="125.37006">
        <ele>627.64</ele>
      </trkpt>
      <trkpt lat="6.87577" lon="125.37024">
        <ele>633.57</ele>
      </trkpt>
      <trkpt lat="6.87582" lon="125.37041">
        <ele>640.64</ele>
      </trkpt>
      <trkpt lat="6.87585" lon="125.37055">
        <ele>646.22</ele>
      </trkpt>
      <trkpt lat="6.87582" lon="125.37069">
        <ele>652.13</ele>
      </trkpt>
      <trkpt lat="6.87575" lon="125.37081">
        <ele>655.63</ele>
      </trkpt>
      <trkpt lat="6.87571" lon="125.37091">
        <ele>655.23</ele>
      </trkpt>
      <trkpt lat="6.87569" lon="125.37109">
        <ele>653.57</ele>
      </trkpt>
      <trkpt lat="6.87569" lon="125.3713">
        <ele>652.04</ele>
      </trkpt>
      <trkpt lat="6.87573" lon="125.37157">
        <ele>651.09</ele>
      </trkpt>
      <trkpt lat="6.87577" lon="125.37211">
        <ele>654.23</ele>
      </trkpt>
      <trkpt lat="6.87575" lon="125.37224">
        <ele>654.41</ele>
      </trkpt>
      <trkpt lat="6.87571" lon="125.37235">
        <ele>653.72</ele>
      </trkpt>
      <trkpt lat="6.8757" lon="125.37245">
        <ele>653.93</ele>
      </trkpt>
      <trkpt lat="6.87575" lon="125.37259">
        <ele>657.62</ele>
      </trkpt>
      <trkpt lat="6.87581" lon="125.37271">
        <ele>661.94</ele>
      </trkpt>
      <trkpt lat="6.87585" lon="125.3729">
        <ele>665.51</ele>
      </trkpt>
      <trkpt lat="6.87591" lon="125.3731">
        <ele>668.06</ele>
      </trkpt>
      <trkpt lat="6.87607" lon="125.37332">
        <ele>671.83</ele>
      </trkpt>
      <trkpt lat="6.87637" lon="125.37374">
        <ele>678.55</ele>
      </trkpt>
      <trkpt lat="6.87671" lon="125.37422">
        <ele>694.93</ele>
      </trkpt>
      <trkpt lat="6.87705" lon="125.3747">
        <ele>693.56</ele>
      </trkpt>
      <trkpt lat="6.87739" lon="125.37518">
        <ele>699.95</ele>
      </trkpt>
      <trkpt lat="6.87733" lon="125.37516">
        <ele>698.73</ele>
      </trkpt>
      <trkpt lat="6.87737" lon="125.37507">
        <ele>700.8</ele>
      </trkpt>
      <trkpt lat="6.87749" lon="125.37507">
        <ele>703.29</ele>
      </trkpt>
      <trkpt lat="6.87759" lon="125.37512">
        <ele>703.42</ele>
      </trkpt>
      <trkpt lat="6.87768" lon="125.37525">
        <ele>703.37</ele>
      </trkpt>
      <trkpt lat="6.87777" lon="125.37537">
        <ele>704.24</ele>
      </trkpt>
      <trkpt lat="6.87788" lon="125.37555">
        <ele>706.81</ele>
      </trkpt>
      <trkpt lat="6.87804" lon="125.37564">
        <ele>710.87</ele>
      </trkpt>
      <trkpt lat="6.87814" lon="125.37573">
        <ele>714.72</ele>
      </trkpt>
      <trkpt lat="6.87818" lon="125.37585">
        <ele>717.34</ele>
      </trkpt>
      <trkpt lat="6.87825" lon="125.37592">
        <ele>718.48</ele>
      </trkpt>
      <trkpt lat="6.87835" lon="125.37597">
        <ele>720.64</ele>
      </trkpt>
      <trkpt lat="6.8785" lon="125.37602">
        <ele>721.39</ele>
      </trkpt>
      <trkpt lat="6.87865" lon="125.37608">
        <ele>722.48</ele>
      </trkpt>
      <trkpt lat="6.87885" lon="125.37611">
        <ele>724.57</ele>
      </trkpt>
      <trkpt lat="6.87898" lon="125.37617">
        <ele>726.88</ele>
      </trkpt>
      <trkpt lat="6.8792" lon="125.37634">
        <ele>732.25</ele>
      </trkpt>
      <trkpt lat="6.87934" lon="125.3765">
        <ele>735.5</ele>
      </trkpt>
      <trkpt lat="6.87946" lon="125.37662">
        <ele>738.88</ele>
      </trkpt>
      <trkpt lat="6.87956" lon="125.37667">
        <ele>740.42</ele>
      </trkpt>
      <trkpt lat="6.87966" lon="125.37674">
        <ele>741.13</ele>
      </trkpt>
      <trkpt lat="6.87974" lon="125.37687">
        <ele>742.69</ele>
      </trkpt>
      <trkpt lat="6.8798" lon="125.37695">
        <ele>744.18</ele>
      </trkpt>
      <trkpt lat="6.87992" lon="125.37707">
        <ele>747.72</ele>
      </trkpt>
      <trkpt lat="6.88004" lon="125.37719">
        <ele>751.12</ele>
      </trkpt>
      <trkpt lat="6.88025" lon="125.37754">
        <ele>755.4</ele>
      </trkpt>
      <trkpt lat="6.88037" lon="125.37776">
        <ele>752.88</ele>
      </trkpt>
      <trkpt lat="6.88059" lon="125.3779">
        <ele>753.48</ele>
      </trkpt>
      <trkpt lat="6.88069" lon="125.37798">
        <ele>754.22</ele>
      </trkpt>
      <trkpt lat="6.88081" lon="125.3781">
        <ele>755.64</ele>
      </trkpt>
      <trkpt lat="6.88094" lon="125.37826">
        <ele>755.9</ele>
      </trkpt>
      <trkpt lat="6.88105" lon="125.37836">
        <ele>755.17</ele>
      </trkpt>
      <trkpt lat="6.88113" lon="125.37843">
        <ele>753.33</ele>
      </trkpt>
      <trkpt lat="6.88127" lon="125.3785">
        <ele>752.46</ele>
      </trkpt>
      <trkpt lat="6.8816" lon="125.37865">
        <ele>753.55</ele>
      </trkpt>
      <trkpt lat="6.88179" lon="125.3787">
        <ele>755.21</ele>
      </trkpt>
      <trkpt lat="6.88181" lon="125.37871">
        <ele>755.33</ele>
      </trkpt>
      <trkpt lat="6.88181" lon="125.37871">
        <ele>755.33</ele>
      </trkpt>
      <trkpt lat="6.8819" lon="125.37876">
        <ele>755.97</ele>
      </trkpt>
      <trkpt lat="6.882" lon="125.37881">
        <ele>756.88</ele>
      </trkpt>
      <trkpt lat="6.88213" lon="125.37887">
        <ele>758.07</ele>
      </trkpt>
      <trkpt lat="6.88227" lon="125.3789">
        <ele>759.69</ele>
      </trkpt>
      <trkpt lat="6.88242" lon="125.37895">
        <ele>761.85</ele>
      </trkpt>
      <trkpt lat="6.883" lon="125.37913">
        <ele>774.04</ele>
      </trkpt>
      <trkpt lat="6.88321" lon="125.37925">
        <ele>774.14</ele>
      </trkpt>
      <trkpt lat="6.88339" lon="125.37939">
        <ele>771.5</ele>
      </trkpt>
      <trkpt lat="6.88351" lon="125.3795">
        <ele>770.31</ele>
      </trkpt>
      <trkpt lat="6.88362" lon="125.37962">
        <ele>769.4</ele>
      </trkpt>
      <trkpt lat="6.8837" lon="125.37966">
        <ele>771.09</ele>
      </trkpt>
      <trkpt lat="6.88383" lon="125.37967">
        <ele>776.08</ele>
      </trkpt>
      <trkpt lat="6.88393" lon="125.37967">
        <ele>780.1</ele>
      </trkpt>
      <trkpt lat="6.88404" lon="125.37964">
        <ele>785.19</ele>
      </trkpt>
      <trkpt lat="6.88418" lon="125.37959">
        <ele>791.59</ele>
      </trkpt>
      <trkpt lat="6.88421" lon="125.37956">
        <ele>792.96</ele>
      </trkpt>
      <trkpt lat="6.88421" lon="125.37949">
        <ele>794.76</ele>
      </trkpt>
      <trkpt lat="6.88418" lon="125.37936">
        <ele>797.14</ele>
      </trkpt>
      <trkpt lat="6.88418" lon="125.3793">
        <ele>798.46</ele>
      </trkpt>
      <trkpt lat="6.88406" lon="125.37909">
        <ele>799.59</ele>
      </trkpt>
      <trkpt lat="6.88398" lon="125.37891">
        <ele>800.3</ele>
      </trkpt>
      <trkpt lat="6.88398" lon="125.37883">
        <ele>801.47</ele>
      </trkpt>
      <trkpt lat="6.88398" lon="125.3788">
        <ele>801.9</ele>
      </trkpt>
      <trkpt lat="6.88398" lon="125.37876">
        <ele>802.48</ele>
      </trkpt>
      <trkpt lat="6.88395" lon="125.37871">
        <ele>802.34</ele>
      </trkpt>
      <trkpt lat="6.88393" lon="125.37865">
        <ele>802.62</ele>
      </trkpt>
      <trkpt lat="6.88392" lon="125.3786">
        <ele>803.06</ele>
      </trkpt>
      <trkpt lat="6.88393" lon="125.37854">
        <ele>804.25</ele>
      </trkpt>
      <trkpt lat="6.88396" lon="125.3785">
        <ele>805.75</ele>
      </trkpt>
      <trkpt lat="6.884" lon="125.37844">
        <ele>807.91</ele>
      </trkpt>
      <trkpt lat="6.88408" lon="125.37841">
        <ele>810.9</ele>
      </trkpt>
      <trkpt lat="6.88435" lon="125.37831">
        <ele>811.69</ele>
      </trkpt>
      <trkpt lat="6.88443" lon="125.37829">
        <ele>809.96</ele>
      </trkpt>
      <trkpt lat="6.88448" lon="125.37829">
        <ele>809.26</ele>
      </trkpt>
      <trkpt lat="6.88451" lon="125.37832">
        <ele>809.68</ele>
      </trkpt>
      <trkpt lat="6.88466" lon="125.37849">
        <ele>809.08</ele>
      </trkpt>
      <trkpt lat="6.8848" lon="125.37869">
        <ele>811.45</ele>
      </trkpt>
      <trkpt lat="6.88481" lon="125.37872">
        <ele>812.06</ele>
      </trkpt>
      <trkpt lat="6.88482" lon="125.37875">
        <ele>812.7</ele>
      </trkpt>
      <trkpt lat="6.88482" lon="125.37879">
        <ele>813.48</ele>
      </trkpt>
      <trkpt lat="6.88485" lon="125.37881">
        <ele>814.18</ele>
      </trkpt>
      <trkpt lat="6.88492" lon="125.37884">
        <ele>815.64</ele>
      </trkpt>
      <trkpt lat="6.88501" lon="125.37894">
        <ele>819.32</ele>
      </trkpt>
      <trkpt lat="6.8851" lon="125.37911">
        <ele>823.93</ele>
      </trkpt>
      <trkpt lat="6.88523" lon="125.37924">
        <ele>823.58</ele>
      </trkpt>
      <trkpt lat="6.88538" lon="125.37939">
        <ele>820.75</ele>
      </trkpt>
      <trkpt lat="6.88556" lon="125.37955">
        <ele>820.57</ele>
      </trkpt>
      <trkpt lat="6.88573" lon="125.37965">
        <ele>823.41</ele>
      </trkpt>
      <trkpt lat="6.88583" lon="125.37972">
        <ele>825.9</ele>
      </trkpt>
      <trkpt lat="6.88587" lon="125.37973">
        <ele>826.65</ele>
      </trkpt>
      <trkpt lat="6.88591" lon="125.37973">
        <ele>827.38</ele>
      </trkpt>
      <trkpt lat="6.88596" lon="125.37972">
        <ele>828.27</ele>
      </trkpt>
      <trkpt lat="6.886" lon="125.37969">
        <ele>828.72</ele>
      </trkpt>
      <trkpt lat="6.88604" lon="125.37964">
        <ele>828.84</ele>
      </trkpt>
      <trkpt lat="6.8861" lon="125.37956">
        <ele>828.56</ele>
      </trkpt>
      <trkpt lat="6.88615" lon="125.37953">
        <ele>828.6</ele>
      </trkpt>
      <trkpt lat="6.88617" lon="125.37952">
        <ele>828.63</ele>
      </trkpt>
      <trkpt lat="6.8862" lon="125.37952">
        <ele>828.9</ele>
      </trkpt>
      <trkpt lat="6.88622" lon="125.37953">
        <ele>829.26</ele>
      </trkpt>
      <trkpt lat="6.88625" lon="125.37955">
        <ele>829.9</ele>
      </trkpt>
      <trkpt lat="6.88631" lon="125.37963">
        <ele>832.06</ele>
      </trkpt>
      <trkpt lat="6.88646" lon="125.37986">
        <ele>840.26</ele>
      </trkpt>
      <trkpt lat="6.88658" lon="125.38008">
        <ele>847.92</ele>
      </trkpt>
      <trkpt lat="6.88674" lon="125.38028">
        <ele>850.21</ele>
      </trkpt>
      <trkpt lat="6.88704" lon="125.38043">
        <ele>849.37</ele>
      </trkpt>
      <trkpt lat="6.88726" lon="125.38064">
        <ele>854.39</ele>
      </trkpt>
      <trkpt lat="6.88735" lon="125.38072">
        <ele>857.42</ele>
      </trkpt>
      <trkpt lat="6.88743" lon="125.38086">
        <ele>862.18</ele>
      </trkpt>
      <trkpt lat="6.8875" lon="125.38095">
        <ele>864.26</ele>
      </trkpt>
      <trkpt lat="6.8876" lon="125.38104">
        <ele>864.14</ele>
      </trkpt>
      <trkpt lat="6.88769" lon="125.38115">
        <ele>865.38</ele>
      </trkpt>
      <trkpt lat="6.8878" lon="125.38128">
        <ele>867.6</ele>
      </trkpt>
      <trkpt lat="6.88793" lon="125.38141">
        <ele>871.2</ele>
      </trkpt>
      <trkpt lat="6.888" lon="125.38148">
        <ele>873.88</ele>
      </trkpt>
      <trkpt lat="6.88803" lon="125.38154">
        <ele>876.2</ele>
      </trkpt>
      <trkpt lat="6.88812" lon="125.38181">
        <ele>883.84</ele>
      </trkpt>
      <trkpt lat="6.88818" lon="125.38191">
        <ele>886.6</ele>
      </trkpt>
      <trkpt lat="6.88829" lon="125.382">
        <ele>890.81</ele>
      </trkpt>
      <trkpt lat="6.88841" lon="125.38211">
        <ele>893.26</ele>
      </trkpt>
      <trkpt lat="6.88855" lon="125.38222">
        <ele>895.16</ele>
      </trkpt>
      <trkpt lat="6.88869" lon="125.38228">
        <ele>896.27</ele>
      </trkpt>
      <trkpt lat="6.88878" lon="125.38238">
        <ele>899.36</ele>
      </trkpt>
      <trkpt lat="6.88888" lon="125.38249">
        <ele>903.58</ele>
      </trkpt>
      <trkpt lat="6.88896" lon="125.38263">
        <ele>904.86</ele>
      </trkpt>
      <trkpt lat="6.88901" lon="125.3827">
        <ele>906.01</ele>
      </trkpt>
      <trkpt lat="6.88906" lon="125.38275">
        <ele>907.39</ele>
      </trkpt>
      <trkpt lat="6.88906" lon="125.38275">
        <ele>907.39</ele>
      </trkpt>
      <trkpt lat="6.88913" lon="125.38281">
        <ele>909.81</ele>
      </trkpt>
      <trkpt lat="6.88937" lon="125.38303">
        <ele>918.31</ele>
      </trkpt>
      <trkpt lat="6.88957" lon="125.38321">
        <ele>925.95</ele>
      </trkpt>
      <trkpt lat="6.88973" lon="125.3833">
        <ele>931.2</ele>
      </trkpt>
      <trkpt lat="6.88984" lon="125.38335">
        <ele>934.23</ele>
      </trkpt>
      <trkpt lat="6.89" lon="125.3834">
        <ele>937.28</ele>
      </trkpt>
      <trkpt lat="6.89013" lon="125.38342">
        <ele>936.24</ele>
      </trkpt>
      <trkpt lat="6.89023" lon="125.38344">
        <ele>935.64</ele>
      </trkpt>
      <trkpt lat="6.89038" lon="125.38354">
        <ele>935.64</ele>
      </trkpt>
      <trkpt lat="6.89048" lon="125.3837">
        <ele>938.07</ele>
      </trkpt>
      <trkpt lat="6.89078" lon="125.38412">
        <ele>953.72</ele>
      </trkpt>
      <trkpt lat="6.89089" lon="125.38424">
        <ele>956.87</ele>
      </trkpt>
      <trkpt lat="6.89099" lon="125.38437">
        <ele>957.69</ele>
      </trkpt>
      <trkpt lat="6.89101" lon="125.38442">
        <ele>958.32</ele>
      </trkpt>
      <trkpt lat="6.89105" lon="125.38449">
        <ele>959.42</ele>
      </trkpt>
      <trkpt lat="6.89112" lon="125.38466">
        <ele>963.02</ele>
      </trkpt>
      <trkpt lat="6.8912" lon="125.38478">
        <ele>966.91</ele>
      </trkpt>
      <trkpt lat="6.89129" lon="125.38486">
        <ele>970.98</ele>
      </trkpt>
      <trkpt lat="6.89134" lon="125.38492">
        <ele>974.03</ele>
      </trkpt>
      <trkpt lat="6.89136" lon="125.38498">
        <ele>976.45</ele>
      </trkpt>
      <trkpt lat="6.89138" lon="125.38508">
        <ele>978.54</ele>
      </trkpt>
      <trkpt lat="6.89148" lon="125.38521">
        <ele>984.29</ele>
      </trkpt>
      <trkpt lat="6.89153" lon="125.38523">
        <ele>986.83</ele>
      </trkpt>
      <trkpt lat="6.89158" lon="125.38529">
        <ele>990.2</ele>
      </trkpt>
      <trkpt lat="6.89163" lon="125.38547">
        <ele>996.76</ele>
      </trkpt>
      <trkpt lat="6.89169" lon="125.38556">
        <ele>1001.52</ele>
      </trkpt>
      <trkpt lat="6.89175" lon="125.38565">
        <ele>1004.74</ele>
      </trkpt>
      <trkpt lat="6.89185" lon="125.3858">
        <ele>1010.74</ele>
      </trkpt>
      <trkpt lat="6.89199" lon="125.38596">
        <ele>1014.92</ele>
      </trkpt>
      <trkpt lat="6.89232" lon="125.38648">
        <ele>1030.23</ele>
      </trkpt>
      <trkpt lat="6.89238" lon="125.38655">
        <ele>1033.96</ele>
      </trkpt>
      <trkpt lat="6.89247" lon="125.38661">
        <ele>1039.43</ele>
      </trkpt>
      <trkpt lat="6.89256" lon="125.38663">
        <ele>1043.66</ele>
      </trkpt>
      <trkpt lat="6.89267" lon="125.38663">
        <ele>1047.91</ele>
      </trkpt>
      <trkpt lat="6.89275" lon="125.38663">
        <ele>1051.0</ele>
      </trkpt>
      <trkpt lat="6.89285" lon="125.38664">
        <ele>1055.14</ele>
      </trkpt>
      <trkpt lat="6.89292" lon="125.38669">
        <ele>1057.63</ele>
      </trkpt>
      <trkpt lat="6.89298" lon="125.38676">
        <ele>1057.28</ele>
      </trkpt>
      <trkpt lat="6.89305" lon="125.3868">
        <ele>1058.94</ele>
      </trkpt>
      <trkpt lat="6.89313" lon="125.38682">
        <ele>1062.02</ele>
      </trkpt>
      <trkpt lat="6.89329" lon="125.38685">
        <ele>1068.91</ele>
      </trkpt>
      <trkpt lat="6.89343" lon="125.38689">
        <ele>1071.51</ele>
      </trkpt>
      <trkpt lat="6.89355" lon="125.38694">
        <ele>1072.92</ele>
      </trkpt>
      <trkpt lat="6.89382" lon="125.38709">
        <ele>1078.85</ele>
      </trkpt>
      <trkpt lat="6.89393" lon="125.38722">
        <ele>1084.43</ele>
      </trkpt>
      <trkpt lat="6.89403" lon="125.38729">
        <ele>1090.04</ele>
      </trkpt>
      <trkpt lat="6.89412" lon="125.38748">
        <ele>1100.59</ele>
      </trkpt>
      <trkpt lat="6.89416" lon="125.38755">
        <ele>1103.06</ele>
      </trkpt>
      <trkpt lat="6.89426" lon="125.38764">
        <ele>1104.85</ele>
      </trkpt>
      <trkpt lat="6.89439" lon="125.38769">
        <ele>1108.17</ele>
      </trkpt>
      <trkpt lat="6.89457" lon="125.38777">
        <ele>1114.42</ele>
      </trkpt>
      <trkpt lat="6.89469" lon="125.38788">
        <ele>1121.2</ele>
      </trkpt>
      <trkpt lat="6.89484" lon="125.38808">
        <ele>1134.16</ele>
      </trkpt>
      <trkpt lat="6.89516" lon="125.38832">
        <ele>1162.58</ele>
      </trkpt>
      <trkpt lat="6.89547" lon="125.38847">
        <ele>1176.83</ele>
      </trkpt>
      <trkpt lat="6.89586" lon="125.38854">
        <ele>1198.4</ele>
      </trkpt>
      <trkpt lat="6.89611" lon="125.38865">
        <ele>1212.51</ele>
      </trkpt>
      <trkpt lat="6.89626" lon="125.38869">
        <ele>1222.02</ele>
      </trkpt>
      <trkpt lat="6.89664" lon="125.38871">
        <ele>1247.95</ele>
      </trkpt>
      <trkpt lat="6.89682" lon="125.38873">
        <ele>1248.88</ele>
      </trkpt>
      <trkpt lat="6.89692" lon="125.38874">
        <ele>1248.14</ele>
      </trkpt>
      <trkpt lat="6.89698" lon="125.38877">
        <ele>1247.8</ele>
      </trkpt>
      <trkpt lat="6.89706" lon="125.38882">
        <ele>1247.15</ele>
      </trkpt>
      <trkpt lat="6.89707" lon="125.38885">
        <ele>1247.1</ele>
      </trkpt>
      <trkpt lat="6.89706" lon="125.38882">
        <ele>1247.15</ele>
      </trkpt>
      <trkpt lat="6.89698" lon="125.38877">
        <ele>1247.8</ele>
      </trkpt>
      <trkpt lat="6.89692" lon="125.38874">
        <ele>1248.14</ele>
      </trkpt>
      <trkpt lat="6.89682" lon="125.38873">
        <ele>1248.88</ele>
      </trkpt>
      <trkpt lat="6.89664" lon="125.38871">
        <ele>1247.95</ele>
      </trkpt>
      <trkpt lat="6.89626" lon="125.38869">
        <ele>1222.02</ele>
      </trkpt>
      <trkpt lat="6.89611" lon="125.38865">
        <ele>1212.51</ele>
      </trkpt>
      <trkpt lat="6.89586" lon="125.38854">
        <ele>1198.4</ele>
      </trkpt>
      <trkpt lat="6.89547" lon="125.38847">
        <ele>1176.83</ele>
      </trkpt>
      <trkpt lat="6.89516" lon="125.38832">
        <ele>1162.58</ele>
      </trkpt>
      <trkpt lat="6.89484" lon="125.38808">
        <ele>1134.16</ele>
      </trkpt>
      <trkpt lat="6.89469" lon="125.38788">
        <ele>1121.2</ele>
      </trkpt>
      <trkpt lat="6.89457" lon="125.38777">
        <ele>1114.42</ele>
      </trkpt>
      <trkpt lat="6.89439" lon="125.38769">
        <ele>1108.17</ele>
      </trkpt>
      <trkpt lat="6.89426" lon="125.38764">
        <ele>1104.85</ele>
      </trkpt>
      <trkpt lat="6.89416" lon="125.38755">
        <ele>1103.06</ele>
      </trkpt>
      <trkpt lat="6.89412" lon="125.38748">
        <ele>1100.59</ele>
      </trkpt>
      <trkpt lat="6.89403" lon="125.38729">
        <ele>1090.04</ele>
      </trkpt>
      <trkpt lat="6.89393" lon="125.38722">
        <ele>1084.43</ele>
      </trkpt>
      <trkpt lat="6.89382" lon="125.38709">
        <ele>1078.85</ele>
      </trkpt>
      <trkpt lat="6.89355" lon="125.38694">
        <ele>1072.92</ele>
      </trkpt>
      <trkpt lat="6.89343" lon="125.38689">
        <ele>1071.51</ele>
      </trkpt>
      <trkpt lat="6.89329" lon="125.38685">
        <ele>1068.91</ele>
      </trkpt>
      <trkpt lat="6.89313" lon="125.38682">
        <ele>1062.02</ele>
      </trkpt>
      <trkpt lat="6.89305" lon="125.3868">
        <ele>1058.94</ele>
      </trkpt>
      <trkpt lat="6.89298" lon="125.38676">
        <ele>1057.28</ele>
      </trkpt>
      <trkpt lat="6.89292" lon="125.38669">
        <ele>1057.63</ele>
      </trkpt>
      <trkpt lat="6.89285" lon="125.38664">
        <ele>1055.14</ele>
      </trkpt>
      <trkpt lat="6.89275" lon="125.38663">
        <ele>1051.0</ele>
      </trkpt>
      <trkpt lat="6.89267" lon="125.38663">
        <ele>1047.91</ele>
      </trkpt>
      <trkpt lat="6.89256" lon="125.38663">
        <ele>1043.66</ele>
      </trkpt>
      <trkpt lat="6.89247" lon="125.38661">
        <ele>1039.43</ele>
      </trkpt>
      <trkpt lat="6.89238" lon="125.38655">
        <ele>1033.96</ele>
      </trkpt>
      <trkpt lat="6.89232" lon="125.38648">
        <ele>1030.23</ele>
      </trkpt>
      <trkpt lat="6.89199" lon="125.38596">
        <ele>1014.92</ele>
      </trkpt>
      <trkpt lat="6.89185" lon="125.3858">
        <ele>1010.74</ele>
      </trkpt>
      <trkpt lat="6.89175" lon="125.38565">
        <ele>1004.74</ele>
      </trkpt>
      <trkpt lat="6.89169" lon="125.38556">
        <ele>1001.52</ele>
      </trkpt>
      <trkpt lat="6.89163" lon="125.38547">
        <ele>996.76</ele>
      </trkpt>
      <trkpt lat="6.89158" lon="125.38529">
        <ele>990.2</ele>
      </trkpt>
      <trkpt lat="6.89153" lon="125.38523">
        <ele>986.83</ele>
      </trkpt>
      <trkpt lat="6.89148" lon="125.38521">
        <ele>984.29</ele>
      </trkpt>
      <trkpt lat="6.89138" lon="125.38508">
        <ele>978.54</ele>
      </trkpt>
      <trkpt lat="6.89136" lon="125.38498">
        <ele>976.45</ele>
      </trkpt>
      <trkpt lat="6.89134" lon="125.38492">
        <ele>974.03</ele>
      </trkpt>
      <trkpt lat="6.89129" lon="125.38486">
        <ele>970.98</ele>
      </trkpt>
      <trkpt lat="6.8912" lon="125.38478">
        <ele>966.91</ele>
      </trkpt>
      <trkpt lat="6.89112" lon="125.38466">
        <ele>963.02</ele>
      </trkpt>
      <trkpt lat="6.89105" lon="125.38449">
        <ele>959.42</ele>
      </trkpt>
      <trkpt lat="6.89101" lon="125.38442">
        <ele>958.32</ele>
      </trkpt>
      <trkpt lat="6.89099" lon="125.38437">
        <ele>957.69</ele>
      </trkpt>
      <trkpt lat="6.89089" lon="125.38424">
        <ele>956.87</ele>
      </trkpt>
      <trkpt lat="6.89078" lon="125.38412">
        <ele>953.72</ele>
      </trkpt>
      <trkpt lat="6.89048" lon="125.3837">
        <ele>938.07</ele>
      </trkpt>
      <trkpt lat="6.89038" lon="125.38354">
        <ele>935.64</ele>
      </trkpt>
      <trkpt lat="6.89023" lon="125.38344">
        <ele>935.64</ele>
      </trkpt>
      <trkpt lat="6.89013" lon="125.38342">
        <ele>936.24</ele>
      </trkpt>
      <trkpt lat="6.89" lon="125.3834">
        <ele>937.28</ele>
      </trkpt>
      <trkpt lat="6.88984" lon="125.38335">
        <ele>934.23</ele>
      </trkpt>
      <trkpt lat="6.88973" lon="125.3833">
        <ele>931.2</ele>
      </trkpt>
      <trkpt lat="6.88957" lon="125.38321">
        <ele>925.95</ele>
      </trkpt>
      <trkpt lat="6.88937" lon="125.38303">
        <ele>918.31</ele>
      </trkpt>
      <trkpt lat="6.88913" lon="125.38281">
        <ele>909.81</ele>
      </trkpt>
      <trkpt lat="6.88906" lon="125.38275">
        <ele>907.39</ele>
      </trkpt>
      <trkpt lat="6.88906" lon="125.38275">
        <ele>907.39</ele>
      </trkpt>
      <trkpt lat="6.88901" lon="125.3827">
        <ele>906.01</ele>
      </trkpt>
      <trkpt lat="6.88896" lon="125.38263">
        <ele>904.86</ele>
      </trkpt>
      <trkpt lat="6.88888" lon="125.38249">
        <ele>903.58</ele>
      </trkpt>
      <trkpt lat="6.88878" lon="125.38238">
        <ele>899.36</ele>
      </trkpt>
      <trkpt lat="6.88869" lon="125.38228">
        <ele>896.27</ele>
      </trkpt>
      <trkpt lat="6.88855" lon="125.38222">
        <ele>895.16</ele>
      </trkpt>
      <trkpt lat="6.88841" lon="125.38211">
        <ele>893.26</ele>
      </trkpt>
      <trkpt lat="6.88829" lon="125.382">
        <ele>890.81</ele>
      </trkpt>
      <trkpt lat="6.88818" lon="125.38191">
        <ele>886.6</ele>
      </trkpt>
      <trkpt lat="6.88812" lon="125.38181">
        <ele>883.84</ele>
      </trkpt>
      <trkpt lat="6.88803" lon="125.38154">
        <ele>876.2</ele>
      </trkpt>
      <trkpt lat="6.888" lon="125.38148">
        <ele>873.88</ele>
      </trkpt>
      <trkpt lat="6.88793" lon="125.38141">
        <ele>871.2</ele>
      </trkpt>
      <trkpt lat="6.8878" lon="125.38128">
        <ele>867.6</ele>
      </trkpt>
      <trkpt lat="6.88769" lon="125.38115">
        <ele>865.38</ele>
      </trkpt>
      <trkpt lat="6.8876" lon="125.38104">
        <ele>864.14</ele>
      </trkpt>
      <trkpt lat="6.8875" lon="125.38095">
        <ele>864.26</ele>
      </trkpt>
      <trkpt lat="6.88743" lon="125.38086">
        <ele>862.18</ele>
      </trkpt>
      <trkpt lat="6.88735" lon="125.38072">
        <ele>857.42</ele>
      </trkpt>
      <trkpt lat="6.88726" lon="125.38064">
        <ele>854.39</ele>
      </trkpt>
      <trkpt lat="6.88704" lon="125.38043">
        <ele>849.37</ele>
      </trkpt>
      <trkpt lat="6.88674" lon="125.38028">
        <ele>850.21</ele>
      </trkpt>
      <trkpt lat="6.88658" lon="125.38008">
        <ele>847.92</ele>
      </trkpt>
      <trkpt lat="6.88646" lon="125.37986">
        <ele>840.26</ele>
      </trkpt>
      <trkpt lat="6.88631" lon="125.37963">
        <ele>832.06</ele>
      </trkpt>
      <trkpt lat="6.88625" lon="125.37955">
        <ele>829.9</ele>
      </trkpt>
      <trkpt lat="6.88622" lon="125.37953">
        <ele>829.26</ele>
      </trkpt>
      <trkpt lat="6.8862" lon="125.37952">
        <ele>828.9</ele>
      </trkpt>
      <trkpt lat="6.88617" lon="125.37952">
        <ele>828.63</ele>
      </trkpt>
      <trkpt lat="6.88615" lon="125.37953">
        <ele>828.6</ele>
      </trkpt>
      <trkpt lat="6.8861" lon="125.37956">
        <ele>828.56</ele>
      </trkpt>
      <trkpt lat="6.88604" lon="125.37964">
        <ele>828.84</ele>
      </trkpt>
      <trkpt lat="6.886" lon="125.37969">
        <ele>828.72</ele>
      </trkpt>
      <trkpt lat="6.88596" lon="125.37972">
        <ele>828.27</ele>
      </trkpt>
      <trkpt lat="6.88591" lon="125.37973">
        <ele>827.38</ele>
      </trkpt>
      <trkpt lat="6.88587" lon="125.37973">
        <ele>826.65</ele>
      </trkpt>
      <trkpt lat="6.88583" lon="125.37972">
        <ele>825.9</ele>
      </trkpt>
      <trkpt lat="6.88573" lon="125.37965">
        <ele>823.41</ele>
      </trkpt>
      <trkpt lat="6.88556" lon="125.37955">
        <ele>820.57</ele>
      </trkpt>
      <trkpt lat="6.88538" lon="125.37939">
        <ele>820.75</ele>
      </trkpt>
      <trkpt lat="6.88523" lon="125.37924">
        <ele>823.58</ele>
      </trkpt>
      <trkpt lat="6.8851" lon="125.37911">
        <ele>823.93</ele>
      </trkpt>
      <trkpt lat="6.88501" lon="125.37894">
        <ele>819.32</ele>
      </trkpt>
      <trkpt lat="6.88492" lon="125.37884">
        <ele>815.64</ele>
      </trkpt>
      <trkpt lat="6.88485" lon="125.37881">
        <ele>814.18</ele>
      </trkpt>
      <trkpt lat="6.88482" lon="125.37879">
        <ele>813.48</ele>
      </trkpt>
      <trkpt lat="6.88482" lon="125.37875">
        <ele>812.7</ele>
      </trkpt>
      <trkpt lat="6.88481" lon="125.37872">
        <ele>812.06</ele>
      </trkpt>
      <trkpt lat="6.8848" lon="125.37869">
        <ele>811.45</ele>
      </trkpt>
      <trkpt lat="6.88466" lon="125.37849">
        <ele>809.08</ele>
      </trkpt>
      <trkpt lat="6.88451" lon="125.37832">
        <ele>809.68</ele>
      </trkpt>
      <trkpt lat="6.88448" lon="125.37829">
        <ele>809.26</ele>
      </trkpt>
      <trkpt lat="6.88443" lon="125.37829">
        <ele>809.96</ele>
      </trkpt>
      <trkpt lat="6.88435" lon="125.37831">
        <ele>811.69</ele>
      </trkpt>
      <trkpt lat="6.88408" lon="125.37841">
        <ele>810.9</ele>
      </trkpt>
      <trkpt lat="6.884" lon="125.37844">
        <ele>807.91</ele>
      </trkpt>
      <trkpt lat="6.88396" lon="125.3785">
        <ele>805.75</ele>
      </trkpt>
      <trkpt lat="6.88393" lon="125.37854">
        <ele>804.25</ele>
      </trkpt>
      <trkpt lat="6.88392" lon="125.3786">
        <ele>803.06</ele>
      </trkpt>
      <trkpt lat="6.88393" lon="125.37865">
        <ele>802.62</ele>
      </trkpt>
      <trkpt lat="6.88395" lon="125.37871">
        <ele>802.34</ele>
      </trkpt>
      <trkpt lat="6.88398" lon="125.37876">
        <ele>802.48</ele>
      </trkpt>
      <trkpt lat="6.88398" lon="125.3788">
        <ele>801.9</ele>
      </trkpt>
      <trkpt lat="6.88398" lon="125.37883">
        <ele>801.47</ele>
      </trkpt>
      <trkpt lat="6.88398" lon="125.37891">
        <ele>800.3</ele>
      </trkpt>
      <trkpt lat="6.88406" lon="125.37909">
        <ele>799.59</ele>
      </trkpt>
      <trkpt lat="6.88418" lon="125.3793">
        <ele>798.46</ele>
      </trkpt>
      <trkpt lat="6.88418" lon="125.37936">
        <ele>797.14</ele>
      </trkpt>
      <trkpt lat="6.88421" lon="125.37949">
        <ele>794.76</ele>
      </trkpt>
      <trkpt lat="6.88421" lon="125.37956">
        <ele>792.96</ele>
      </trkpt>
      <trkpt lat="6.88418" lon="125.37959">
        <ele>791.59</ele>
      </trkpt>
      <trkpt lat="6.88404" lon="125.37964">
        <ele>785.19</ele>
      </trkpt>
      <trkpt lat="6.88393" lon="125.37967">
        <ele>780.1</ele>
      </trkpt>
      <trkpt lat="6.88383" lon="125.37967">
        <ele>776.08</ele>
      </trkpt>
      <trkpt lat="6.8837" lon="125.37966">
        <ele>771.09</ele>
      </trkpt>
      <trkpt lat="6.88362" lon="125.37962">
        <ele>769.4</ele>
      </trkpt>
      <trkpt lat="6.88351" lon="125.3795">
        <ele>770.31</ele>
      </trkpt>
      <trkpt lat="6.88339" lon="125.37939">
        <ele>771.5</ele>
      </trkpt>
      <trkpt lat="6.88321" lon="125.37925">
        <ele>774.14</ele>
      </trkpt>
      <trkpt lat="6.883" lon="125.37913">
        <ele>774.04</ele>
      </trkpt>
      <trkpt lat="6.88242" lon="125.37895">
        <ele>761.85</ele>
      </trkpt>
      <trkpt lat="6.88227" lon="125.3789">
        <ele>759.69</ele>
      </trkpt>
      <trkpt lat="6.88213" lon="125.37887">
        <ele>758.07</ele>
      </trkpt>
      <trkpt lat="6.882" lon="125.37881">
        <ele>756.88</ele>
      </trkpt>
      <trkpt lat="6.8819" lon="125.37876">
        <ele>755.97</ele>
      </trkpt>
      <trkpt lat="6.88181" lon="125.37871">
        <ele>755.33</ele>
      </trkpt>
      <trkpt lat="6.88181" lon="125.37871">
        <ele>755.33</ele>
      </trkpt>
      <trkpt lat="6.88179" lon="125.3787">
        <ele>755.21</ele>
      </trkpt>
      <trkpt lat="6.8816" lon="125.37865">
        <ele>753.55</ele>
      </trkpt>
      <trkpt lat="6.88127" lon="125.3785">
        <ele>752.46</ele>
      </trkpt>
      <trkpt lat="6.88113" lon="125.37843">
        <ele>753.33</ele>
      </trkpt>
      <trkpt lat="6.88105" lon="125.37836">
        <ele>755.17</ele>
      </trkpt>
      <trkpt lat="6.88094" lon="125.37826">
        <ele>755.9</ele>
      </trkpt>
      <trkpt lat="6.88081" lon="125.3781">
        <ele>755.64</ele>
      </trkpt>
      <trkpt lat="6.88069" lon="125.37798">
        <ele>754.22</ele>
      </trkpt>
      <trkpt lat="6.88059" lon="125.3779">
        <ele>753.48</ele>
      </trkpt>
      <trkpt lat="6.88037" lon="125.37776">
        <ele>752.88</ele>
      </trkpt>
      <trkpt lat="6.88025" lon="125.37754">
        <ele>755.4</ele>
      </trkpt>
      <trkpt lat="6.88004" lon="125.37719">
        <ele>751.12</ele>
      </trkpt>
      <trkpt lat="6.87992" lon="125.37707">
        <ele>747.72</ele>
      </trkpt>
      <trkpt lat="6.8798" lon="125.37695">
        <ele>744.18</ele>
      </trkpt>
      <trkpt lat="6.87974" lon="125.37687">
        <ele>742.69</ele>
      </trkpt>
      <trkpt lat="6.87966" lon="125.37674">
        <ele>741.13</ele>
      </trkpt>
      <trkpt lat="6.87956" lon="125.37667">
        <ele>740.42</ele>
      </trkpt>
      <trkpt lat="6.87946" lon="125.37662">
        <ele>738.88</ele>
      </trkpt>
      <trkpt lat="6.87934" lon="125.3765">
        <ele>735.5</ele>
      </trkpt>
      <trkpt lat="6.8792" lon="125.37634">
        <ele>732.25</ele>
      </trkpt>
      <trkpt lat="6.87898" lon="125.37617">
        <ele>726.88</ele>
      </trkpt>
      <trkpt lat="6.87885" lon="125.37611">
        <ele>724.57</ele>
      </trkpt>
      <trkpt lat="6.87865" lon="125.37608">
        <ele>722.48</ele>
      </trkpt>
      <trkpt lat="6.8785" lon="125.37602">
        <ele>721.39</ele>
      </trkpt>
      <trkpt lat="6.87835" lon="125.37597">
        <ele>720.64</ele>
      </trkpt>
      <trkpt lat="6.87825" lon="125.37592">
        <ele>718.48</ele>
      </trkpt>
      <trkpt lat="6.87818" lon="125.37585">
        <ele>717.34</ele>
      </trkpt>
      <trkpt lat="6.87814" lon="125.37573">
        <ele>714.72</ele>
      </trkpt>
      <trkpt lat="6.87804" lon="125.37564">
        <ele>710.87</ele>
      </trkpt>
      <trkpt lat="6.87788" lon="125.37555">
        <ele>706.81</ele>
      </trkpt>
      <trkpt lat="6.87777" lon="125.37537">
        <ele>704.24</ele>
      </trkpt>
      <trkpt lat="6.87768" lon="125.37525">
        <ele>703.37</ele>
      </trkpt>
      <trkpt lat="6.87759" lon="125.37512">
        <ele>703.42</ele>
      </trkpt>
      <trkpt lat="6.87749" lon="125.37507">
        <ele>703.29</ele>
      </trkpt>
      <trkpt lat="6.87737" lon="125.37507">
        <ele>700.8</ele>
      </trkpt>
      <trkpt lat="6.87733" lon="125.37516">
        <ele>698.73</ele>
      </trkpt>
      <trkpt lat="6.87739" lon="125.37518">
        <ele>699.95</ele>
      </trkpt>
      <trkpt lat="6.87705" lon="125.3747">
        <ele>693.56</ele>
      </trkpt>
      <trkpt lat="6.87671" lon="125.37422">
        <ele>694.93</ele>
      </trkpt>
      <trkpt lat="6.87637" lon="125.37374">
        <ele>678.55</ele>
      </trkpt>
      <trkpt lat="6.87607" lon="125.37332">
        <ele>671.83</ele>
      </trkpt>
      <trkpt lat="6.87591" lon="125.3731">
        <ele>668.06</ele>
      </trkpt>
      <trkpt lat="6.87585" lon="125.3729">
        <ele>665.51</ele>
      </trkpt>
      <trkpt lat="6.87581" lon="125.37271">
        <ele>661.94</ele>
      </trkpt>
      <trkpt lat="6.87575" lon="125.37259">
        <ele>657.62</ele>
      </trkpt>
      <trkpt lat="6.8757" lon="125.37245">
        <ele>653.93</ele>
      </trkpt>
      <trkpt lat="6.87571" lon="125.37235">
        <ele>653.72</ele>
      </trkpt>
      <trkpt lat="6.87575" lon="125.37224">
        <ele>654.41</ele>
      </trkpt>
      <trkpt lat="6.87577" lon="125.37211">
        <ele>654.23</ele>
      </trkpt>
      <trkpt lat="6.87573" lon="125.37157">
        <ele>651.09</ele>
      </trkpt>
      <trkpt lat="6.87569" lon="125.3713">
        <ele>652.04</ele>
      </trkpt>
      <trkpt lat="6.87569" lon="125.37109">
        <ele>653.57</ele>
      </trkpt>
      <trkpt lat="6.87571" lon="125.37091">
        <ele>655.23</ele>
      </trkpt>
      <trkpt lat="6.87575" lon="125.37081">
        <ele>655.63</ele>
      </trkpt>
      <trkpt lat="6.87582" lon="125.37069">
        <ele>652.13</ele>
      </trkpt>
      <trkpt lat="6.87585" lon="125.37055">
        <ele>646.22</ele>
      </trkpt>
      <trkpt lat="6.87582" lon="125.37041">
        <ele>640.64</ele>
      </trkpt>
      <trkpt lat="6.87577" lon="125.37024">
        <ele>633.57</ele>
      </trkpt>
      <trkpt lat="6.87561" lon="125.37006">
        <ele>627.64</ele>
      </trkpt>
      <trkpt lat="6.87546" lon="125.36995">
        <ele>624.65</ele>
      </trkpt>
      <trkpt lat="6.87534" lon="125.36994">
        <ele>625.3</ele>
      </trkpt>
      <trkpt lat="6.87518" lon="125.36994">
        <ele>626.7</ele>
      </trkpt>
      <trkpt lat="6.87503" lon="125.36995">
        <ele>628.31</ele>
      </trkpt>
      <trkpt lat="6.8749" lon="125.36999">
        <ele>627.18</ele>
      </trkpt>
      <trkpt lat="6.87454" lon="125.37005">
        <ele>617.99</ele>
      </trkpt>
      <trkpt lat="6.87435" lon="125.37006">
        <ele>612.76</ele>
      </trkpt>
      <trkpt lat="6.87416" lon="125.37018">
        <ele>607.66</ele>
      </trkpt>
      <trkpt lat="6.87404" lon="125.37024">
        <ele>601.28</ele>
      </trkpt>
      <trkpt lat="6.87395" lon="125.37039">
        <ele>595.27</ele>
      </trkpt>
      <trkpt lat="6.87391" lon="125.3705">
        <ele>591.86</ele>
      </trkpt>
      <trkpt lat="6.87391" lon="125.37061">
        <ele>590.93</ele>
      </trkpt>
      <trkpt lat="6.87396" lon="125.37074">
        <ele>593.36</ele>
      </trkpt>
      <trkpt lat="6.87403" lon="125.37084">
        <ele>597.52</ele>
      </trkpt>
      <trkpt lat="6.87415" lon="125.37101">
        <ele>601.52</ele>
      </trkpt>
      <trkpt lat="6.87422" lon="125.37119">
        <ele>600.56</ele>
      </trkpt>
      <trkpt lat="6.87423" lon="125.37134">
        <ele>597.38</ele>
      </trkpt>
      <trkpt lat="6.87419" lon="125.3715">
        <ele>591.44</ele>
      </trkpt>
      <trkpt lat="6.87415" lon="125.37157">
        <ele>587.71</ele>
      </trkpt>
      <trkpt lat="6.87412" lon="125.37173">
        <ele>584.11</ele>
      </trkpt>
      <trkpt lat="6.87415" lon="125.37185">
        <ele>585.3</ele>
      </trkpt>
      <trkpt lat="6.87419" lon="125.372">
        <ele>587.26</ele>
      </trkpt>
      <trkpt lat="6.87423" lon="125.3722">
        <ele>589.42</ele>
      </trkpt>
      <trkpt lat="6.87419" lon="125.37258">
        <ele>588.06</ele>
      </trkpt>
      <trkpt lat="6.87411" lon="125.37271">
        <ele>585.05</ele>
      </trkpt>
      <trkpt lat="6.87402" lon="125.37282">
        <ele>580.92</ele>
      </trkpt>
      <trkpt lat="6.87391" lon="125.37295">
        <ele>574.98</ele>
      </trkpt>
      <trkpt lat="6.87388" lon="125.37301">
        <ele>573.27</ele>
      </trkpt>
      <trkpt lat="6.87388" lon="125.3731">
        <ele>573.73</ele>
      </trkpt>
      <trkpt lat="6.8739" lon="125.37318">
        <ele>575.67</ele>
      </trkpt>
      <trkpt lat="6.87394" lon="125.37327">
        <ele>579.18</ele>
      </trkpt>
      <trkpt lat="6.87399" lon="125.37336">
        <ele>582.77</ele>
      </trkpt>
      <trkpt lat="6.87406" lon="125.37353">
        <ele>584.34</ele>
      </trkpt>
      <trkpt lat="6.87407" lon="125.37368">
        <ele>582.15</ele>
      </trkpt>
      <trkpt lat="6.87403" lon="125.37379">
        <ele>577.43</ele>
      </trkpt>
      <trkpt lat="6.87401" lon="125.37382">
        <ele>575.52</ele>
      </trkpt>
      <trkpt lat="6.87401" lon="125.37382">
        <ele>575.52</ele>
      </trkpt>
      <trkpt lat="6.87398" lon="125.37387">
        <ele>572.57</ele>
      </trkpt>
      <trkpt lat="6.87393" lon="125.37401">
        <ele>566.94</ele>
      </trkpt>
      <trkpt lat="6.87394" lon="125.37421">
        <ele>563.64</ele>
      </trkpt>
      <trkpt lat="6.87408" lon="125.37442">
        <ele>563.61</ele>
      </trkpt>
      <trkpt lat="6.87416" lon="125.37455">
        <ele>562.5</ele>
      </trkpt>
      <trkpt lat="6.87424" lon="125.3747">
        <ele>560.86</ele>
      </trkpt>
      <trkpt lat="6.87435" lon="125.37505">
        <ele>553.0</ele>
      </trkpt>
      <trkpt lat="6.87446" lon="125.37527">
        <ele>554.93</ele>
      </trkpt>
      <trkpt lat="6.87462" lon="125.37547">
        <ele>558.7</ele>
      </trkpt>
      <trkpt lat="6.87466" lon="125.37557">
        <ele>558.56</ele>
      </trkpt>
      <trkpt lat="6.87468" lon="125.37572">
        <ele>556.41</ele>
      </trkpt>
      <trkpt lat="6.87463" lon="125.3758">
        <ele>552.36</ele>
      </trkpt>
      <trkpt lat="6.87457" lon="125.37585">
        <ele>549.15</ele>
      </trkpt>
      <trkpt lat="6.8745" lon="125.37591">
        <ele>546.92</ele>
      </trkpt>
      <trkpt lat="6.87441" lon="125.37598">
        <ele>544.03</ele>
      </trkpt>
      <trkpt lat="6.87432" lon="125.37607">
        <ele>541.44</ele>
      </trkpt>
      <trkpt lat="6.87421" lon="125.37629">
        <ele>540.69</ele>
      </trkpt>
      <trkpt lat="6.87412" lon="125.37664">
        <ele>543.67</ele>
      </trkpt>
      <trkpt lat="6.87404" lon="125.37674">
        <ele>540.22</ele>
      </trkpt>
      <trkpt lat="6.87396" lon="125.37679">
        <ele>536.27</ele>
      </trkpt>
      <trkpt lat="6.87379" lon="125.37684">
        <ele>528.01</ele>
      </trkpt>
      <trkpt lat="6.8737" lon="125.37686">
        <ele>523.58</ele>
      </trkpt>
      <trkpt lat="6.87356" lon="125.37693">
        <ele>515.89</ele>
      </trkpt>
      <trkpt lat="6.87348" lon="125.37705">
        <ele>509.4</ele>
      </trkpt>
      <trkpt lat="6.87349" lon="125.37718">
        <ele>506.87</ele>
      </trkpt>
      <trkpt lat="6.87352" lon="125.37725">
        <ele>506.84</ele>
      </trkpt>
      <trkpt lat="6.87371" lon="125.37743">
        <ele>513.87</ele>
      </trkpt>
      <trkpt lat="6.87386" lon="125.37748">
        <ele>521.63</ele>
      </trkpt>
      <trkpt lat="6.87403" lon="125.3776">
        <ele>523.21</ele>
      </trkpt>
      <trkpt lat="6.87411" lon="125.37769">
        <ele>520.69</ele>
      </trkpt>
      <trkpt lat="6.87414" lon="125.37773">
        <ele>519.25</ele>
      </trkpt>
      <trkpt lat="6.87414" lon="125.37773">
        <ele>519.25</ele>
      </trkpt>
      <trkpt lat="6.87411" lon="125.37769">
        <ele>520.69</ele>
      </trkpt>
      <trkpt lat="6.87417" lon="125.37768">
        <ele>524.79</ele>
      </trkpt>
      <trkpt lat="6.87422" lon="125.37767">
        <ele>526.2</ele>
      </trkpt>
      <trkpt lat="6.87429" lon="125.37769">
        <ele>525.61</ele>
      </trkpt>
      <trkpt lat="6.87438" lon="125.37774">
        <ele>523.41</ele>
      </trkpt>
      <trkpt lat="6.87447" lon="125.37777">
        <ele>523.05</ele>
      </trkpt>
      <trkpt lat="6.87458" lon="125.37781">
        <ele>523.07</ele>
      </trkpt>
      <trkpt lat="6.8748" lon="125.37794">
        <ele>522.04</ele>
      </trkpt>
      <trkpt lat="6.87452" lon="125.3785">
        <ele>486.21</ele>
      </trkpt>
      <trkpt lat="6.87447" lon="125.37858">
        <ele>481.96</ele>
      </trkpt>
      <trkpt lat="6.87441" lon="125.37863">
        <ele>477.98</ele>
      </trkpt>
      <trkpt lat="6.87435" lon="125.37865">
        <ele>474.74</ele>
      </trkpt>
      <trkpt lat="6.87429" lon="125.37865">
        <ele>471.93</ele>
      </trkpt>
      <trkpt lat="6.87425" lon="125.37864">
        <ele>470.28</ele>
      </trkpt>
      <trkpt lat="6.87419" lon="125.3786">
        <ele>468.3</ele>
      </trkpt>
      <trkpt lat="6.87409" lon="125.37866">
        <ele>462.5</ele>
      </trkpt>
      <trkpt lat="6.87396" lon="125.37867">
        <ele>456.53</ele>
      </trkpt>
      <trkpt lat="6.87384" lon="125.37866">
        <ele>451.25</ele>
      </trkpt>
      <trkpt lat="6.87369" lon="125.37866">
        <ele>444.42</ele>
      </trkpt>
      <trkpt lat="6.87349" lon="125.37871">
        <ele>435.29</ele>
      </trkpt>
      <trkpt lat="6.87348" lon="125.37874">
        <ele>434.84</ele>
      </trkpt>
      <trkpt lat="6.87348" lon="125.37874">
        <ele>434.84</ele>
      </trkpt>
      <trkpt lat="6.87346" lon="125.37878">
        <ele>433.98</ele>
      </trkpt>
      <trkpt lat="6.87345" lon="125.37887">
        <ele>433.61</ele>
      </trkpt>
      <trkpt lat="6.87346" lon="125.37902">
        <ele>434.06</ele>
      </trkpt>
      <trkpt lat="6.87345" lon="125.37912">
        <ele>433.75</ele>
      </trkpt>
      <trkpt lat="6.87342" lon="125.37916">
        <ele>432.8</ele>
      </trkpt>
      <trkpt lat="6.87338" lon="125.37919">
        <ele>432.45</ele>
      </trkpt>
      <trkpt lat="6.87335" lon="125.3792">
        <ele>431.94</ele>
      </trkpt>
      <trkpt lat="6.8733" lon="125.3792">
        <ele>432.79</ele>
      </trkpt>
      <trkpt lat="6.87324" lon="125.37917">
        <ele>433.85</ele>
      </trkpt>
      <trkpt lat="6.87318" lon="125.37906">
        <ele>434.84</ele>
      </trkpt>
      <trkpt lat="6.87309" lon="125.37885">
        <ele>434.5</ele>
      </trkpt>
      <trkpt lat="6.87298" lon="125.37869">
        <ele>433.35</ele>
      </trkpt>
      <trkpt lat="6.87285" lon="125.37856">
        <ele>430.97</ele>
      </trkpt>
      <trkpt lat="6.87252" lon="125.37832">
        <ele>422.21</ele>
      </trkpt>
      <trkpt lat="6.87235" lon="125.37823">
        <ele>425.15</ele>
      </trkpt>
      <trkpt lat="6.87235" lon="125.37823">
        <ele>425.15</ele>
      </trkpt>
      <trkpt lat="6.87223" lon="125.37816">
        <ele>426.4</ele>
      </trkpt>
      <trkpt lat="6.87197" lon="125.37808">
        <ele>428.32</ele>
      </trkpt>
      <trkpt lat="6.87175" lon="125.37795">
        <ele>425.3</ele>
      </trkpt>
      <trkpt lat="6.87139" lon="125.3777">
        <ele>408.23</ele>
      </trkpt>
      <trkpt lat="6.8713" lon="125.37767">
        <ele>405.13</ele>
      </trkpt>
      <trkpt lat="6.87125" lon="125.3776">
        <ele>401.74</ele>
      </trkpt>
      <trkpt lat="6.87122" lon="125.37754">
        <ele>399.22</ele>
      </trkpt>
      <trkpt lat="6.87114" lon="125.37751">
        <ele>396.82</ele>
      </trkpt>
      <trkpt lat="6.87104" lon="125.3775">
        <ele>394.72</ele>
      </trkpt>
      <trkpt lat="6.87097" lon="125.37746">
        <ele>393.46</ele>
      </trkpt>
      <trkpt lat="6.87095" lon="125.37743">
        <ele>393.06</ele>
      </trkpt>
      <trkpt lat="6.87059" lon="125.3774">
        <ele>393.34</ele>
      </trkpt>
      <trkpt lat="6.87055" lon="125.37741">
        <ele>393.69</ele>
      </trkpt>
      <trkpt lat="6.8705" lon="125.37747">
        <ele>393.5</ele>
      </trkpt>
      <trkpt lat="6.87044" lon="125.37754">
        <ele>393.32</ele>
      </trkpt>
      <trkpt lat="6.87039" lon="125.37766">
        <ele>392.8</ele>
      </trkpt>
      <trkpt lat="6.87036" lon="125.37774">
        <ele>392.13</ele>
      </trkpt>
      <trkpt lat="6.87031" lon="125.3778">
        <ele>391.23</ele>
      </trkpt>
      <trkpt lat="6.87027" lon="125.37784">
        <ele>390.46</ele>
      </trkpt>
      <trkpt lat="6.8702" lon="125.37789">
        <ele>388.95</ele>
      </trkpt>
      <trkpt lat="6.86996" lon="125.37801">
        <ele>384.16</ele>
      </trkpt>
      <trkpt lat="6.8699" lon="125.37804">
        <ele>386.11</ele>
      </trkpt>
      <trkpt lat="6.86986" lon="125.37808">
        <ele>386.94</ele>
      </trkpt>
      <trkpt lat="6.86984" lon="125.37811">
        <ele>387.12</ele>
      </trkpt>
      <trkpt lat="6.86983" lon="125.37816">
        <ele>386.32</ele>
      </trkpt>
      <trkpt lat="6.86983" lon="125.3782">
        <ele>385.32</ele>
      </trkpt>
      <trkpt lat="6.86985" lon="125.37825">
        <ele>383.12</ele>
      </trkpt>
      <trkpt lat="6.86987" lon="125.37829">
        <ele>381.18</ele>
      </trkpt>
      <trkpt lat="6.86994" lon="125.37836">
        <ele>376.75</ele>
      </trkpt>
      <trkpt lat="6.86997" lon="125.37842">
        <ele>375.3</ele>
      </trkpt>
      <trkpt lat="6.86997" lon="125.37847">
        <ele>375.24</ele>
      </trkpt>
      <trkpt lat="6.86995" lon="125.37857">
        <ele>375.88</ele>
      </trkpt>
      <trkpt lat="6.86991" lon="125.37865">
        <ele>376.96</ele>
      </trkpt>
      <trkpt lat="6.86985" lon="125.37874">
        <ele>378.18</ele>
      </trkpt>
      <trkpt lat="6.86979" lon="125.37879">
        <ele>379.46</ele>
      </trkpt>
      <trkpt lat="6.86979" lon="125.37879">
        <ele>379.46</ele>
      </trkpt>
      <trkpt lat="6.86969" lon="125.37889">
        <ele>380.8</ele>
      </trkpt>
      <trkpt lat="6.8696" lon="125.37895">
        <ele>382.03</ele>
      </trkpt>
      <trkpt lat="6.86952" lon="125.37901">
        <ele>382.52</ele>
      </trkpt>
      <trkpt lat="6.86945" lon="125.37909">
        <ele>381.85</ele>
      </trkpt>
      <trkpt lat="6.86939" lon="125.37919">
        <ele>380.3</ele>
      </trkpt>
      <trkpt lat="6.86936" lon="125.37928">
        <ele>378.68</ele>
      </trkpt>
      <trkpt lat="6.86933" lon="125.37936">
        <ele>377.02</ele>
      </trkpt>
      <trkpt lat="6.8693" lon="125.37942">
        <ele>375.62</ele>
      </trkpt>
      <trkpt lat="6.86926" lon="125.37949">
        <ele>373.74</ele>
      </trkpt>
      <trkpt lat="6.86922" lon="125.37954">
        <ele>372.17</ele>
      </trkpt>
      <trkpt lat="6.86918" lon="125.37958">
        <ele>370.7</ele>
      </trkpt>
      <trkpt lat="6.86912" lon="125.37965">
        <ele>370.02</ele>
      </trkpt>
      <trkpt lat="6.86905" lon="125.37973">
        <ele>369.96</ele>
      </trkpt>
      <trkpt lat="6.86899" lon="125.37981">
        <ele>369.72</ele>
      </trkpt>
      <trkpt lat="6.8689" lon="125.37992">
        <ele>369.88</ele>
      </trkpt>
      <trkpt lat="6.86881" lon="125.38007">
        <ele>370.55</ele>
      </trkpt>
      <trkpt lat="6.86871" lon="125.38019">
        <ele>373.28</ele>
      </trkpt>
      <trkpt lat="6.86854" lon="125.38037">
        <ele>377.56</ele>
      </trkpt>
      <trkpt lat="6.86847" lon="125.38048">
        <ele>378.9</ele>
      </trkpt>
      <trkpt lat="6.86841" lon="125.38061">
        <ele>379.51</ele>
      </trkpt>
      <trkpt lat="6.86839" lon="125.38076">
        <ele>378.17</ele>
      </trkpt>
      <trkpt lat="6.8684" lon="125.3809">
        <ele>376.36</ele>
      </trkpt>
      <trkpt lat="6.86845" lon="125.38103">
        <ele>373.8</ele>
      </trkpt>
      <trkpt lat="6.86848" lon="125.38115">
        <ele>371.96</ele>
      </trkpt>
      <trkpt lat="6.86847" lon="125.3813">
        <ele>371.22</ele>
      </trkpt>
      <trkpt lat="6.86843" lon="125.38151">
        <ele>371.3</ele>
      </trkpt>
      <trkpt lat="6.86834" lon="125.38175">
        <ele>373.44</ele>
      </trkpt>
      <trkpt lat="6.86831" lon="125.38188">
        <ele>374.43</ele>
      </trkpt>
      <trkpt lat="6.86829" lon="125.38204">
        <ele>374.79</ele>
      </trkpt>
      <trkpt lat="6.86829" lon="125.38236">
        <ele>373.45</ele>
      </trkpt>
      <trkpt lat="6.86826" lon="125.38287">
        <ele>367.26</ele>
      </trkpt>
      <trkpt lat="6.8682" lon="125.38336">
        <ele>361.0</ele>
      </trkpt>
      <trkpt lat="6.86809" lon="125.38381">
        <ele>360.83</ele>
      </trkpt>
      <trkpt lat="6.868" lon="125.3842">
        <ele>359.13</ele>
      </trkpt>
      <trkpt lat="6.86787" lon="125.38449">
        <ele>355.97</ele>
      </trkpt>
      <trkpt lat="6.86776" lon="125.38469">
        <ele>353.09</ele>
      </trkpt>
      <trkpt lat="6.86768" lon="125.38477">
        <ele>351.91</ele>
      </trkpt>
      <trkpt lat="6.86758" lon="125.38484">
        <ele>350.85</ele>
      </trkpt>
      <trkpt lat="6.86739" lon="125.38497">
        <ele>349.5</ele>
      </trkpt>
      <trkpt lat="6.86726" lon="125.38507">
        <ele>348.23</ele>
      </trkpt>
      <trkpt lat="6.86715" lon="125.38516">
        <ele>346.39</ele>
      </trkpt>
      <trkpt lat="6.86705" lon="125.38526">
        <ele>343.87</ele>
      </trkpt>
      <trkpt lat="6.86695" lon="125.38534">
        <ele>342.0</ele>
      </trkpt>
      <trkpt lat="6.86682" lon="125.38541">
        <ele>340.6</ele>
      </trkpt>
      <trkpt lat="6.86664" lon="125.38549">
        <ele>339.45</ele>
      </trkpt>
      <trkpt lat="6.86644" lon="125.38556">
        <ele>339.04</ele>
      </trkpt>
      <trkpt lat="6.86621" lon="125.38562">
        <ele>339.33</ele>
      </trkpt>
      <trkpt lat="6.86599" lon="125.3857">
        <ele>338.46</ele>
      </trkpt>
      <trkpt lat="6.86575" lon="125.38582">
        <ele>336.46</ele>
      </trkpt>
      <trkpt lat="6.86558" lon="125.38588">
        <ele>337.96</ele>
      </trkpt>
      <trkpt lat="6.86545" lon="125.38596">
        <ele>338.0</ele>
      </trkpt>
      <trkpt lat="6.86529" lon="125.38607">
        <ele>337.25</ele>
      </trkpt>
      <trkpt lat="6.86509" lon="125.3862">
        <ele>335.96</ele>
      </trkpt>
      <trkpt lat="6.86484" lon="125.38629">
        <ele>335.85</ele>
      </trkpt>
      <trkpt lat="6.8647" lon="125.38633">
        <ele>335.8</ele>
      </trkpt>
      <trkpt lat="6.86463" lon="125.38635">
        <ele>335.72</ele>
      </trkpt>
      <trkpt lat="6.86459" lon="125.38637">
        <ele>335.28</ele>
      </trkpt>
      <trkpt lat="6.86456" lon="125.3864">
        <ele>334.23</ele>
      </trkpt>
      <trkpt lat="6.86455" lon="125.38644">
        <ele>332.42</ele>
      </trkpt>
      <trkpt lat="6.86454" lon="125.38651">
        <ele>329.16</ele>
      </trkpt>
      <trkpt lat="6.86453" lon="125.38655">
        <ele>327.31</ele>
      </trkpt>
      <trkpt lat="6.86452" lon="125.38659">
        <ele>325.44</ele>
      </trkpt>
      <trkpt lat="6.86449" lon="125.38662">
        <ele>324.13</ele>
      </trkpt>
      <trkpt lat="6.86437" lon="125.3867">
        <ele>321.37</ele>
      </trkpt>
      <trkpt lat="6.86426" lon="125.38678">
        <ele>319.52</ele>
      </trkpt>
      <trkpt lat="6.86375" lon="125.38718">
        <ele>306.1</ele>
      </trkpt>
      <trkpt lat="6.8636" lon="125.38727">
        <ele>302.06</ele>
      </trkpt>
      <trkpt lat="6.86348" lon="125.38733">
        <ele>299.08</ele>
      </trkpt>
      <trkpt lat="6.86339" lon="125.38739">
        <ele>296.08</ele>
      </trkpt>
      <trkpt lat="6.86329" lon="125.38744">
        <ele>293.78</ele>
      </trkpt>
      <trkpt lat="6.86317" lon="125.38746">
        <ele>293.4</ele>
      </trkpt>
      <trkpt lat="6.86298" lon="125.3875">
        <ele>292.0</ele>
      </trkpt>
      <trkpt lat="6.86289" lon="125.38753">
        <ele>291.03</ele>
      </trkpt>
      <trkpt lat="6.86284" lon="125.38755">
        <ele>290.38</ele>
      </trkpt>
      <trkpt lat="6.86279" lon="125.38761">
        <ele>288.44</ele>
      </trkpt>
      <trkpt lat="6.86273" lon="125.38766">
        <ele>286.79</ele>
      </trkpt>
      <trkpt lat="6.86262" lon="125.38776">
        <ele>283.08</ele>
      </trkpt>
      <trkpt lat="6.86255" lon="125.38781">
        <ele>281.02</ele>
      </trkpt>
      <trkpt lat="6.86246" lon="125.38784">
        <ele>279.95</ele>
      </trkpt>
      <trkpt lat="6.86226" lon="125.38791">
        <ele>277.73</ele>
      </trkpt>
      <trkpt lat="6.86212" lon="125.38794">
        <ele>276.56</ele>
      </trkpt>
      <trkpt lat="6.86187" lon="125.388">
        <ele>273.85</ele>
      </trkpt>
      <trkpt lat="6.86158" lon="125.38806">
        <ele>271.39</ele>
      </trkpt>
      <trkpt lat="6.86136" lon="125.3881">
        <ele>270.91</ele>
      </trkpt>
      <trkpt lat="6.86116" lon="125.38811">
        <ele>271.56</ele>
      </trkpt>
      <trkpt lat="6.86102" lon="125.38809">
        <ele>273.33</ele>
      </trkpt>
      <trkpt lat="6.86092" lon="125.38807">
        <ele>274.84</ele>
      </trkpt>
      <trkpt lat="6.86087" lon="125.38806">
        <ele>275.57</ele>
      </trkpt>
      <trkpt lat="6.8608" lon="125.38805">
        <ele>276.18</ele>
      </trkpt>
      <trkpt lat="6.86059" lon="125.38806">
        <ele>275.84</ele>
      </trkpt>
      <trkpt lat="6.86041" lon="125.38808">
        <ele>274.6</ele>
      </trkpt>
      <trkpt lat="6.86014" lon="125.38808">
        <ele>274.12</ele>
      </trkpt>
      <trkpt lat="6.85995" lon="125.38807">
        <ele>273.94</ele>
      </trkpt>
      <trkpt lat="6.85983" lon="125.38805">
        <ele>273.38</ele>
      </trkpt>
      <trkpt lat="6.85969" lon="125.38803">
        <ele>272.76</ele>
      </trkpt>
      <trkpt lat="6.85964" lon="125.38804">
        <ele>271.99</ele>
      </trkpt>
      <trkpt lat="6.85962" lon="125.38804">
        <ele>271.84</ele>
      </trkpt>
      <trkpt lat="6.85959" lon="125.38805">
        <ele>271.25</ele>
      </trkpt>
      <trkpt lat="6.85957" lon="125.38807">
        <ele>270.38</ele>
      </trkpt>
      <trkpt lat="6.85954" lon="125.38811">
        <ele>268.73</ele>
      </trkpt>
      <trkpt lat="6.85951" lon="125.38814">
        <ele>267.43</ele>
      </trkpt>
      <trkpt lat="6.85949" lon="125.38816">
        <ele>266.57</ele>
      </trkpt>
      <trkpt lat="6.85942" lon="125.38818">
        <ele>265.26</ele>
      </trkpt>
      <trkpt lat="6.85935" lon="125.38819">
        <ele>264.14</ele>
      </trkpt>
      <trkpt lat="6.85927" lon="125.38819">
        <ele>263.28</ele>
      </trkpt>
      <trkpt lat="6.85919" lon="125.38818">
        <ele>262.77</ele>
      </trkpt>
      <trkpt lat="6.85911" lon="125.38816">
        <ele>262.17</ele>
      </trkpt>
      <trkpt lat="6.85905" lon="125.38816">
        <ele>261.03</ele>
      </trkpt>
      <trkpt lat="6.85897" lon="125.38816">
        <ele>259.51</ele>
      </trkpt>
      <trkpt lat="6.85885" lon="125.38818">
        <ele>255.11</ele>
      </trkpt>
      <trkpt lat="6.85872" lon="125.38819">
        <ele>250.5</ele>
      </trkpt>
      <trkpt lat="6.85865" lon="125.38821">
        <ele>246.87</ele>
      </trkpt>
      <trkpt lat="6.85857" lon="125.38821">
        <ele>246.43</ele>
      </trkpt>
      <trkpt lat="6.85846" lon="125.3882">
        <ele>248.82</ele>
      </trkpt>
      <trkpt lat="6.85833" lon="125.3882">
        <ele>250.73</ele>
      </trkpt>
      <trkpt lat="6.85824" lon="125.38821">
        <ele>250.59</ele>
      </trkpt>
      <trkpt lat="6.85813" lon="125.38825">
        <ele>249.22</ele>
      </trkpt>
      <trkpt lat="6.85803" lon="125.38827">
        <ele>248.64</ele>
      </trkpt>
      <trkpt lat="6.85792" lon="125.38832">
        <ele>246.09</ele>
      </trkpt>
      <trkpt lat="6.85783" lon="125.38835">
        <ele>243.91</ele>
      </trkpt>
      <trkpt lat="6.85767" lon="125.38837">
        <ele>240.41</ele>
      </trkpt>
      <trkpt lat="6.85745" lon="125.38839">
        <ele>236.89</ele>
      </trkpt>
      <trkpt lat="6.85731" lon="125.38842">
        <ele>236.06</ele>
      </trkpt>
      <trkpt lat="6.8572" lon="125.38845">
        <ele>235.12</ele>
      </trkpt>
      <trkpt lat="6.85704" lon="125.38852">
        <ele>233.21</ele>
      </trkpt>
      <trkpt lat="6.85678" lon="125.38862">
        <ele>234.43</ele>
      </trkpt>
      <trkpt lat="6.85656" lon="125.38868">
        <ele>238.49</ele>
      </trkpt>
      <trkpt lat="6.85627" lon="125.38874">
        <ele>240.97</ele>
      </trkpt>
      <trkpt lat="6.85592" lon="125.38879">
        <ele>232.08</ele>
      </trkpt>
      <trkpt lat="6.85565" lon="125.38884">
        <ele>221.38</ele>
      </trkpt>
      <trkpt lat="6.85543" lon="125.38885">
        <ele>220.67</ele>
      </trkpt>
      <trkpt lat="6.85521" lon="125.38882">
        <ele>225.15</ele>
      </trkpt>
      <trkpt lat="6.85505" lon="125.38879">
        <ele>228.04</ele>
      </trkpt>
      <trkpt lat="6.85489" lon="125.38875">
        <ele>229.22</ele>
      </trkpt>
      <trkpt lat="6.85475" lon="125.38869">
        <ele>229.48</ele>
      </trkpt>
      <trkpt lat="6.85459" lon="125.38864">
        <ele>230.13</ele>
      </trkpt>
      <trkpt lat="6.85437" lon="125.38859">
        <ele>228.33</ele>
      </trkpt>
      <trkpt lat="6.85407" lon="125.38858">
        <ele>219.8</ele>
      </trkpt>
      <trkpt lat="6.8537" lon="125.38856">
        <ele>212.07</ele>
      </trkpt>
      <trkpt lat="6.85342" lon="125.38852">
        <ele>206.27</ele>
      </trkpt>
      <trkpt lat="6.8531" lon="125.38846">
        <ele>206.94</ele>
      </trkpt>
      <trkpt lat="6.85283" lon="125.38844">
        <ele>207.82</ele>
      </trkpt>
      <trkpt lat="6.85264" lon="125.38846">
        <ele>206.11</ele>
      </trkpt>
      <trkpt lat="6.85243" lon="125.38849">
        <ele>203.73</ele>
      </trkpt>
      <trkpt lat="6.85217" lon="125.38851">
        <ele>202.12</ele>
      </trkpt>
      <trkpt lat="6.85191" lon="125.3885">
        <ele>204.92</ele>
      </trkpt>
      <trkpt lat="6.85172" lon="125.38851">
        <ele>207.85</ele>
      </trkpt>
      <trkpt lat="6.8515" lon="125.38854">
        <ele>201.65</ele>
      </trkpt>
      <trkpt lat="6.85115" lon="125.38857">
        <ele>187.83</ele>
      </trkpt>
      <trkpt lat="6.85089" lon="125.38855">
        <ele>182.47</ele>
      </trkpt>
      <trkpt lat="6.85066" lon="125.38856">
        <ele>183.22</ele>
      </trkpt>
      <trkpt lat="6.85036" lon="125.38858">
        <ele>180.33</ele>
      </trkpt>
      <trkpt lat="6.84974" lon="125.38866">
        <ele>162.64</ele>
      </trkpt>
      <trkpt lat="6.84951" lon="125.38868">
        <ele>164.82</ele>
      </trkpt>
      <trkpt lat="6.84934" lon="125.38866">
        <ele>166.12</ele>
      </trkpt>
      <trkpt lat="6.84921" lon="125.3886">
        <ele>167.13</ele>
      </trkpt>
      <trkpt lat="6.84911" lon="125.38848">
        <ele>166.73</ele>
      </trkpt>
      <trkpt lat="6.84905" lon="125.38835">
        <ele>164.59</ele>
      </trkpt>
      <trkpt lat="6.849" lon="125.38814">
        <ele>162.62</ele>
      </trkpt>
      <trkpt lat="6.84895" lon="125.38792">
        <ele>158.03</ele>
      </trkpt>
      <trkpt lat="6.84891" lon="125.38776">
        <ele>153.6</ele>
      </trkpt>
      <trkpt lat="6.84885" lon="125.38757">
        <ele>156.15</ele>
      </trkpt>
      <trkpt lat="6.84878" lon="125.38744">
        <ele>157.74</ele>
      </trkpt>
      <trkpt lat="6.84869" lon="125.3873">
        <ele>156.96</ele>
      </trkpt>
      <trkpt lat="6.84859" lon="125.38717">
        <ele>152.4</ele>
      </trkpt>
      <trkpt lat="6.84829" lon="125.38687">
        <ele>150.82</ele>
      </trkpt>
      <trkpt lat="6.84792" lon="125.38651">
        <ele>152.17</ele>
      </trkpt>
      <trkpt lat="6.84741" lon="125.38608">
        <ele>159.63</ele>
      </trkpt>
      <trkpt lat="6.84711" lon="125.38579">
        <ele>157.99</ele>
      </trkpt>
      <trkpt lat="6.84678" lon="125.38546">
        <ele>158.42</ele>
      </trkpt>
      <trkpt lat="6.84663" lon="125.38531">
        <ele>160.24</ele>
      </trkpt>
      <trkpt lat="6.84655" lon="125.38522">
        <ele>161.09</ele>
      </trkpt>
      <trkpt lat="6.84645" lon="125.38512">
        <ele>160.75</ele>
      </trkpt>
      <trkpt lat="6.84642" lon="125.3851">
        <ele>160.34</ele>
      </trkpt>
      <trkpt lat="6.8462" lon="125.38493">
        <ele>162.07</ele>
      </trkpt>
      <trkpt lat="6.84598" lon="125.38476">
        <ele>160.38</ele>
      </trkpt>
      <trkpt lat="6.84564" lon="125.38449">
        <ele>164.7</ele>
      </trkpt>
      <trkpt lat="6.84541" lon="125.38432">
        <ele>163.72</ele>
      </trkpt>
      <trkpt lat="6.84517" lon="125.38411">
        <ele>161.1</ele>
      </trkpt>
      <trkpt lat="6.84475" lon="125.38374">
        <ele>145.9</ele>
      </trkpt>
      <trkpt lat="6.84501" lon="125.38344">
        <ele>143.87</ele>
      </trkpt>
    </trkseg>
  </trk>
</gpx>
